Station_Name,Country,Province,City,Cnty,Station_Id_C,Station_Id_d,Lat,Lon,Alti
朝阳,中国,北京市,市辖区,朝阳区,54433,54433,39.9525,116.5008,34.4
丰台,中国,北京市,市辖区,丰台区,54514,54514,39.8703,116.2453,55
石景山,中国,北京市,市辖区,石景山区,54513,54513,39.9425,116.2053,63
海淀,中国,北京市,市辖区,海淀区,54399,54399,39.9869,116.2908,46.3
斋堂,中国,北京市,市辖区,门头沟区,54501,54501,39.9742,115.6917,440.1
门头沟,中国,北京市,市辖区,门头沟区,54505,54505,39.8878,116.1564,85.5
房山,中国,北京市,市辖区,房山区,54596,54596,39.7728,116.1942,48.6
霞云岭,中国,北京市,市辖区,房山区,54597,54597,39.7289,115.7403,408.5
通州,中国,北京市,市辖区,通州区,54431,54431,39.8475,116.7567,19.8
顺义,中国,北京市,市辖区,顺义区,54398,54398,40.1269,116.6153,27.9
昌平,中国,北京市,市辖区,昌平区,54499,54499,40.2233,116.2117,75.7
北京,中国,北京市,市辖区,大兴区,54511,54511,39.8061,116.4694,32.8
大兴,中国,北京市,市辖区,大兴区,54594,54594,39.7186,116.3544,37.5
怀柔,中国,北京市,市辖区,怀柔区,54419,54419,40.3575,116.6272,75.2
平谷,中国,北京市,市辖区,平谷区,54424,54424,40.1694,117.1178,31.1
密云,中国,北京市,市辖区,密云区,54416,54416,40.3775,116.8642,71.4
上甸子,中国,北京市,市辖区,密云区,54421,54421,40.6589,117.1117,292.4
延庆,中国,北京市,市辖区,延庆区,54406,54406,40.4494,115.9689,487.5
东丽,中国,天津市,市辖区,东丽区,54526,54526,39.0836,117.3381,1.9
西青,中国,天津市,市辖区,西青区,54527,54527,39.0833,117.05,3.5
津南,中国,天津市,市辖区,津南区,54622,54622,38.95,117.4181,1.5
北辰,中国,天津市,市辖区,北辰区,54528,54528,39.2369,117.1408,3.4
武清,中国,天津市,市辖区,武清区,54523,54523,39.4275,117.0592,8.2
宝坻,中国,天津市,市辖区,宝坻区,54525,54525,39.7289,117.2786,5.1
汉沽,中国,天津市,市辖区,滨海新区,54530,54530,39.2308,117.775,-0.5
塘沽,中国,天津市,市辖区,滨海新区,54623,54623,39.0442,117.7181,4.8
大港,中国,天津市,市辖区,滨海新区,54645,54645,38.8428,117.4667,2.2
宁河,中国,天津市,市辖区,宁河区,54529,54529,39.375,117.8522,3.1
静海,中国,天津市,市辖区,静海区,54619,54619,38.925,116.9153,5.5
蓟州,中国,天津市,市辖区,蓟州区,54428,54428,40.0478,117.4492,32
藁城,中国,河北省,石家庄市,藁城区,53697,53697,38.0333,114.8333,53.5
栾城,中国,河北省,石家庄市,栾城区,53789,53789,37.8833,114.6333,52.9
井陉,中国,河北省,石家庄市,井陉县,53693,53693,38.0333,114.1333,255.5
正定,中国,河北省,石家庄市,正定县,53691,53691,38.15,114.5667,71
行唐,中国,河北省,石家庄市,行唐县,53688,53688,38.4186,114.5464,100.3
灵寿,中国,河北省,石家庄市,灵寿县,53680,53680,38.3,114.3833,108.9
高邑,中国,河北省,石家庄市,高邑县,53790,53790,37.6347,114.6078,44.5
深泽,中国,河北省,石家庄市,深泽县,54621,54621,38.1833,115.1833,38.1
赞皇,中国,河北省,石家庄市,赞皇县,53795,53795,37.6581,114.4058,159.3
无极,中国,河北省,石家庄市,无极县,53699,53699,38.1833,114.95,45.4
平山,中国,河北省,石家庄市,平山县,53694,53694,38.2667,114.2167,131
元氏,中国,河北省,石家庄市,元氏县,53791,53791,37.8067,114.4997,68.4
赵县,中国,河北省,石家庄市,赵县,53784,53784,37.75,114.7833,38.5
辛集,中国,河北省,石家庄市,辛集市,54701,54701,37.9333,115.2,35.9
晋州,中国,河北省,石家庄市,晋州市,53689,53689,38.0167,115.0667,42.4
新乐,中国,河北省,石家庄市,新乐市,53695,53695,38.35,114.6833,70.8
唐山,中国,河北省,唐山市,路北区,54534,54534,39.65,118.1,23.2
丰南,中国,河北省,唐山市,丰南区,54533,54533,39.5808,118.0917,8.9
丰润,中国,河北省,唐山市,丰润区,54532,54532,39.8081,118.0781,31.6
曹妃甸,中国,河北省,唐山市,曹妃甸区,54535,54535,39.2858,118.4658,3.2
滦县,中国,河北省,唐山市,滦县,54531,54531,39.7333,118.7167,43
滦南,中国,河北省,唐山市,滦南县,54437,54437,39.505,118.6236,18.3
乐亭,中国,河北省,唐山市,乐亭县,54539,54539,39.4292,118.8867,8.5
迁西,中国,河北省,唐山市,迁西县,54434,54434,40.1703,118.3336,131.6
玉田,中国,河北省,唐山市,玉田县,54522,54522,39.9094,117.7369,17.8
遵化,中国,河北省,唐山市,遵化市,54429,54429,40.2,117.95,54.9
迁安,中国,河北省,唐山市,迁安市,54439,54439,40.0239,118.71,50.9
秦皇岛,中国,河北省,秦皇岛市,市辖区,54449,54449,39.85,119.5167,2.4
抚宁,中国,河北省,秦皇岛市,抚宁区,54541,54541,39.9,119.2333,24.3
青龙,中国,河北省,秦皇岛市,青龙满族自治县,54436,54436,40.4167,118.95,254.3
昌黎,中国,河北省,秦皇岛市,昌黎县,54540,54540,39.7333,119.2,17.6
卢龙,中国,河北省,秦皇岛市,卢龙县,54438,54438,39.8833,118.8833,65
峰峰,中国,河北省,邯郸市,峰峰矿区,53894,53894,36.4,114.2,149.3
肥乡,中国,河北省,邯郸市,肥乡区,53980,53980,36.55,114.8,50.2
永年,中国,河北省,邯郸市,永年区,53895,53895,36.7475,114.4558,111.2
临漳,中国,河北省,邯郸市,临漳县,53773,53773,36.2986,114.595,65.5
成安,中国,河北省,邯郸市,成安县,53996,53996,36.45,114.65,57.9
大名,中国,河北省,邯郸市,大名县,54804,54804,36.3042,115.1814,45.3
涉县,中国,河北省,邯郸市,涉县,53886,53886,36.5667,113.6667,470.4
磁县,中国,河北省,邯郸市,磁县,53897,53897,36.4006,114.3428,87.4
邱县,中国,河北省,邯郸市,邱县,54820,54820,36.81,115.2078,39
鸡泽,中国,河北省,邯郸市,鸡泽县,54640,54640,36.8903,114.8728,36.6
广平,中国,河北省,邯郸市,广平县,53899,53899,36.4833,114.9667,48.5
馆陶,中国,河北省,邯郸市,馆陶县,54809,54809,36.55,115.2833,41.3
魏县,中国,河北省,邯郸市,魏县,53896,53896,36.3278,114.9494,51.6
曲周,中国,河北省,邯郸市,曲周县,53893,53893,36.7889,115.005,37.9
邯郸,中国,河北省,邯郸市,邯郸经济技术开发区,53892,53892,36.6167,114.4667,66.6
武安,中国,河北省,邯郸市,武安市,53890,53890,36.6667,114.1,280.1
邢台,中国,河北省,邢台市,桥西区,53798,53798,37.1808,114.3589,183
临城,中国,河北省,邢台市,临城县,53792,53792,37.45,114.4833,113
内丘,中国,河北省,邢台市,内丘县,53797,53797,37.2908,114.3867,163.6
柏乡,中国,河北省,邢台市,柏乡县,53785,53785,37.5167,114.6667,35
隆尧,中国,河北省,邢台市,隆尧县,53794,53794,37.3903,114.7842,31
任县,中国,河北省,邢台市,任县,53883,53883,37.1333,114.7,36.5
南和,中国,河北省,邢台市,南和县,53891,53891,37.0167,114.6833,43
宁晋,中国,河北省,邢台市,宁晋县,53796,53796,37.6178,114.8914,30.6
巨鹿,中国,河北省,邢台市,巨鹿县,53799,53799,37.2378,114.9989,25.9
新河,中国,河北省,邢台市,新河县,54633,54633,37.5081,115.2706,26.1
广宗,中国,河北省,邢台市,广宗县,54631,54631,37.0939,115.1314,31.4
平乡,中国,河北省,邢台市,平乡县,54632,54632,37.0667,115.0333,34
威县,中国,河北省,邢台市,威县,54800,54800,37,115.25,33.3
清河,中国,河北省,邢台市,清河县,54706,54706,37.0833,115.6667,31.5
临西,中国,河北省,邢台市,临西县,54801,54801,36.85,115.4833,35.3
南宫,中国,河北省,邢台市,南宫市,54705,54705,37.3667,115.3833,27.4
沙河,中国,河北省,邢台市,沙河市,53781,53781,36.8667,114.4667,67.9
保定,中国,河北省,保定市,市辖区,54602,54602,38.7333,115.4833,16.8
满城,中国,河北省,保定市,满城区,54611,54611,38.9333,115.3167,44.8
徐水,中国,河北省,保定市,徐水区,54601,54601,38.9811,115.6433,13.1
阜平,中国,河北省,保定市,阜平县,53690,53690,38.85,114.1833,281.9
唐县,中国,河北省,保定市,唐县,53692,53692,38.7333,114.9833,66.5
高阳,中国,河北省,保定市,高阳县,54603,54603,38.7089,115.7728,10
容城,中国,河北省,保定市,容城县,54503,54503,39.0711,115.845,12.6
涞源,中国,河北省,保定市,涞源县,53599,53599,39.3667,114.6833,884.4
望都,中国,河北省,保定市,望都县,54607,54607,38.7014,115.1142,47.8
安新,中国,河北省,保定市,安新县,54605,54605,38.9333,115.8833,4.4
易县,中国,河北省,保定市,易县,54507,54507,39.3333,115.5167,49.3
曲阳,中国,河北省,保定市,曲阳县,53682,53682,38.6333,114.6833,104.1
蠡县,中国,河北省,保定市,蠡县,54620,54620,38.4833,115.5667,18.5
顺平,中国,河北省,保定市,顺平县,53596,53596,38.9094,115.1564,80.7
雄县,中国,河北省,保定市,雄县,54636,54636,39.0153,116.1183,10.3
涿州,中国,河北省,保定市,涿州市,54502,54502,39.4833,116.0333,29.3
定州,中国,河北省,保定市,定州市,53696,53696,38.5422,115.0122,41.9
安国,中国,河北省,保定市,安国市,54604,54604,38.4047,115.2919,31
高碑店,中国,河北省,保定市,高碑店市,54506,54506,39.3167,115.95,24.6
张家口,中国,河北省,张家口市,市辖区,54401,54401,40.7694,114.9194,772.8
宣化,中国,河北省,张家口市,宣化区,53498,53498,40.5667,115.0333,629.3
万全,中国,河北省,张家口市,万全区,53499,53499,40.7667,114.7333,755.2
崇礼,中国,河北省,张家口市,崇礼区,54304,54304,40.9542,115.2697,1239.8
张北,中国,河北省,张家口市,张北县,53399,53399,41.15,114.7,1393.3
康保,中国,河北省,张家口市,康保县,53392,53392,41.86,114.5603,1434.5
沽源,中国,河北省,张家口市,沽源县,54301,54301,41.6717,115.6517,1411.2
尚义,中国,河北省,张家口市,尚义县,53397,53397,41.0953,113.9856,1376.5
蔚县,中国,河北省,张家口市,蔚县,53593,53593,39.8333,114.5667,909.5
阳原,中国,河北省,张家口市,阳原县,53492,53492,40.1,114.15,937.6
怀安,中国,河北省,张家口市,怀安县,53491,53491,40.6753,114.3786,837.7
怀来,中国,河北省,张家口市,怀来县,54405,54405,40.4167,115.5,570.9
涿鹿,中国,河北省,张家口市,涿鹿县,54408,54408,40.3831,115.2131,529.6
赤城,中国,河北省,张家口市,赤城县,54404,54404,40.8836,115.8411,867.6
承德,中国,河北省,承德市,双桥区,54423,54423,40.9667,117.9167,422.3
承德县,中国,河北省,承德市,承德县,54430,54430,40.7781,118.2122,330
兴隆,中国,河北省,承德市,兴隆县,54425,54425,40.4,117.4667,633.2
滦平,中国,河北省,承德市,滦平县,54420,54420,40.9333,117.3333,529
隆化,中国,河北省,承德市,隆化县,54318,54318,41.3442,117.7278,599.9
丰宁,中国,河北省,承德市,丰宁满族自治县,54308,54308,41.2,116.6333,735.1
宽城,中国,河北省,承德市,宽城满族自治县,54432,54432,40.6144,118.4681,369.3
围场,中国,河北省,承德市,围场满族蒙古族自治县,54311,54311,41.9667,117.7667,892.7
平泉,中国,河北省,承德市,平泉市,54319,54319,41.01,118.6667,546.5
沧州,中国,河北省,沧州市,运河区,54616,54616,38.35,116.85,8
青县,中国,河北省,沧州市,青县,54615,54615,38.5833,116.85,8
东光,中国,河北省,沧州市,东光县,54713,54713,37.8833,116.5333,14.4
海兴,中国,河北省,沧州市,海兴县,54628,54628,38.0839,117.4136,5
盐山,中国,河北省,沧州市,盐山县,54627,54627,38.0333,117.2333,8.2
肃宁,中国,河北省,沧州市,肃宁县,54626,54626,38.4167,115.8167,13.9
南皮,中国,河北省,沧州市,南皮县,54719,54719,38.0119,116.6822,10.8
吴桥,中国,河北省,沧州市,吴桥县,54717,54717,37.6333,116.4,17.1
献县,中国,河北省,沧州市,献县,54617,54617,38.205,116.1706,13.3
孟村,中国,河北省,沧州市,孟村回族自治县,54644,54644,38.0555,117.1239,10.5
泊头,中国,河北省,沧州市,泊头市,54618,54618,38.0833,116.55,13.2
任丘,中国,河北省,沧州市,任丘市,54610,54610,38.7333,116.1,8.1
黄骅,中国,河北省,沧州市,黄骅市,54624,54624,38.4081,117.3214,4.5
河间,中国,河北省,沧州市,河间市,54614,54614,38.4197,116.0561,10.9
廊坊,中国,河北省,廊坊市,安次区,54515,54515,39.5,116.7,13.7
固安,中国,河北省,廊坊市,固安县,54512,54512,39.3819,116.2433,19.8
永清,中国,河北省,廊坊市,永清县,54519,54519,39.3019,116.4767,12.2
香河,中国,河北省,廊坊市,香河县,54521,54521,39.6925,116.9892,9.4
大城,中国,河北省,廊坊市,大城县,54613,54613,38.7,116.6167,6.9
文安,中国,河北省,廊坊市,文安县,54612,54612,38.8464,116.4558,4.3
大厂,中国,河北省,廊坊市,大厂回族自治县,54510,54510,39.9125,116.9464,18.3
霸州,中国,河北省,廊坊市,霸州市,54518,54518,39.1686,116.3928,8.9
三河,中国,河北省,廊坊市,三河市,54520,54520,39.9667,117.0833,18.1
衡水,中国,河北省,衡水市,桃城区,54702,54702,37.7333,115.7,20.7
冀州,中国,河北省,衡水市,冀州区,54704,54704,37.5122,115.5614,24.8
枣强,中国,河北省,衡水市,枣强县,54708,54708,37.5,115.7333,23.6
武邑,中国,河北省,衡水市,武邑县,54703,54703,37.7858,115.9044,20.7
武强,中国,河北省,衡水市,武强县,54700,54700,38.0333,115.9333,16.2
饶阳,中国,河北省,衡水市,饶阳县,54606,54606,38.2231,115.7431,17.9
安平,中国,河北省,衡水市,安平县,54609,54609,38.2306,115.5869,22.4
故城,中国,河北省,衡水市,故城县,54707,54707,37.35,115.9833,27.4
景县,中国,河北省,衡水市,景县,54711,54711,37.6686,116.265,15
阜城,中国,河北省,衡水市,阜城县,54710,54710,37.8447,116.1506,15.8
深州,中国,河北省,衡水市,深州市,54608,54608,37.9903,115.5442,25.5
小店,中国,山西省,太原市,小店区,53679,53679,37.7475,112.5442,776.2
太原,中国,山西省,太原市,杏花岭区,53772,53772,37.6206,112.5764,776.3
尖草坪,中国,山西省,太原市,尖草坪区,53677,53677,37.9375,112.4767,806.5
清徐,中国,山西省,太原市,清徐县,53774,53774,37.5753,112.3689,759.9
阳曲,中国,山西省,太原市,阳曲县,53678,53678,38.0706,112.655,897.1
娄烦,中国,山西省,太原市,娄烦县,53669,53669,38.0736,111.8117,1150.3
古交,中国,山西省,太原市,古交市,53763,53763,37.9044,112.1664,1006.8
阳高,中国,山西省,大同市,阳高县,53486,53486,40.3692,113.7653,1050.3
天镇,中国,山西省,大同市,天镇县,53490,53490,40.4411,114.0647,1014.7
广灵,中国,山西省,大同市,广灵县,53590,53590,39.7439,114.2644,977.8
灵丘,中国,山西省,大同市,灵丘县,53594,53594,39.4436,114.2244,938.7
浑源,中国,山西省,大同市,浑源县,53582,53582,39.7103,113.6644,1079.2
左云,中国,山西省,大同市,左云县,53573,53573,40.0047,112.7061,1336.3
大同,中国,山西省,大同市,大同县,53487,53487,40.0783,113.4094,1052.6
大同县,中国,山西省,大同市,大同县,53488,53488,40.0358,113.5856,1034.3
阳泉,中国,山西省,阳泉市,郊区,53782,53782,37.9314,113.6203,767.2
平定,中国,山西省,阳泉市,平定县,53687,53687,37.7869,113.6314,753
盂县,中国,山西省,阳泉市,盂县,53685,53685,38.0822,113.4175,953.2
襄垣,中国,山西省,长治市,襄垣县,53884,53884,36.5078,113.0306,877.9
屯留,中国,山西省,长治市,屯留县,53879,53879,36.3186,112.8864,952.3
长治,中国,山西省,长治市,屯留县,53882,53882,36.0603,113.0328,1046.9
平顺,中国,山西省,长治市,平顺县,53888,53888,36.2019,113.4394,1089.2
黎城,中国,山西省,长治市,黎城县,53878,53878,36.5092,113.3731,780.7
壶关,中国,山西省,长治市,壶关县,53885,53885,36.1247,113.1981,1122
长子,中国,山西省,长治市,长子县,53873,53873,36.1042,112.8725,951.1
武乡,中国,山西省,长治市,武乡县,53871,53871,36.8578,112.87,1080.3
沁县,中国,山西省,长治市,沁县,53872,53872,36.7714,112.7039,1030.6
沁源,中国,山西省,长治市,沁源县,53875,53875,36.5092,112.3356,1000
潞城,中国,山西省,长治市,潞城市,53880,53880,36.3361,113.2314,947.6
晋城,中国,山西省,晋城市,城区,53976,53976,35.4961,112.8625,752.6
沁水,中国,山西省,晋城市,沁水县,53970,53970,35.6914,112.1933,887.3
阳城,中国,山西省,晋城市,阳城县,53975,53975,35.4886,112.4106,659.5
陵川,中国,山西省,晋城市,陵川县,53981,53981,35.7728,113.2733,1311.6
高平,中国,山西省,晋城市,高平市,53973,53973,35.7758,112.9428,837.3
朔州,中国,山西省,朔州市,朔城区,53578,53578,39.3656,112.4278,1114.8
平鲁,中国,山西省,朔州市,平鲁区,53574,53574,39.5228,112.2714,1409.4
山阴,中国,山西省,朔州市,山阴县,53576,53576,39.5086,112.8197,1045
应县,中国,山西省,朔州市,应县,53584,53584,39.5617,113.1625,1000.7
右玉,中国,山西省,朔州市,右玉县,53478,53478,39.9942,112.4603,1345.8
榆次,中国,山西省,晋中市,榆次区,53776,53776,37.6961,112.7853,854.1
榆社,中国,山西省,晋中市,榆社县,53787,53787,37.0692,112.9828,1041.4
左权,中国,山西省,晋中市,左权县,53786,53786,37.0906,113.3339,1152.5
和顺,中国,山西省,晋中市,和顺县,53788,53788,37.3269,113.5739,1265.7
昔阳,中国,山西省,晋中市,昔阳县,53783,53783,37.6025,113.7208,940.3
寿阳,中国,山西省,晋中市,寿阳县,53780,53780,37.9081,113.1519,1066.1
太谷,中国,山西省,晋中市,太谷县,53775,53775,37.4233,112.5933,785.8
祁县,中国,山西省,晋中市,祁县,53770,53770,37.3567,112.3497,768.8
平遥,中国,山西省,晋中市,平遥县,53778,53778,37.1742,112.1778,780.3
灵石,中国,山西省,晋中市,灵石县,53862,53862,36.8533,111.7947,811.7
介休,中国,山西省,晋中市,介休市,53863,53863,37.0628,111.945,746
临猗,中国,山西省,运城市,临猗县,53958,53958,35.1656,110.7756,435.6
万荣,中国,山西省,运城市,万荣县,53956,53956,35.4169,110.8425,588.4
闻喜,中国,山西省,运城市,闻喜县,53967,53967,35.33,111.2,468.3
稷山,中国,山西省,运城市,稷山县,53954,53954,35.6172,110.9717,433.5
运城,中国,山西省,运城市,新绛县,53959,53959,35.1114,111.0664,375
新绛,中国,山西省,运城市,新绛县,53964,53964,35.6208,111.2081,430.8
绛县,中国,山西省,运城市,新绛县,53965,53965,35.5044,111.5714,761
垣曲,中国,山西省,运城市,垣曲县,53968,53968,35.2769,111.6611,505
夏县,中国,山西省,运城市,夏县,57060,57060,35.1561,111.2244,402.9
平陆,中国,山西省,运城市,平陆县,57061,57061,34.8419,111.2036,410.7
芮城,中国,山西省,运城市,芮城县,57053,57053,34.7028,110.7097,505.7
永济,中国,山西省,运城市,永济市,57052,57052,34.8831,110.4483,354.1
河津,中国,山西省,运城市,河津市,53957,53957,35.6117,110.7089,459.2
定襄,中国,山西省,忻州市,定襄县,53676,53676,38.4953,112.9758,759.4
五台山,中国,山西省,忻州市,五台县,53588,53588,38.9414,113.5136,2208.3
五台县豆村,中国,山西省,忻州市,五台县,53681,53681,38.8386,113.365,1096.2
代县,中国,山西省,忻州市,代县,53579,53579,39.0522,112.9181,859.7
繁峙,中国,山西省,忻州市,繁峙县,53585,53585,39.1678,113.2647,933.9
宁武,中国,山西省,忻州市,宁武县,53577,53577,39.0019,112.2956,1437.4
静乐,中国,山西省,忻州市,静乐县,53666,53666,38.3625,111.9378,1212.2
神池,中国,山西省,忻州市,神池县,53575,53575,39.0947,112.2022,1525.4
五寨,中国,山西省,忻州市,五寨县,53663,53663,38.9253,111.8228,1401
忻府区,中国,山西省,忻州市,五寨县,53674,53674,38.3936,112.6947,869.9
岢岚,中国,山西省,忻州市,岢岚县,53662,53662,38.7078,111.5711,1396.7
河曲,中国,山西省,忻州市,河曲县,53564,53564,39.365,111.2117,1036
保德,中国,山西省,忻州市,保德县,53660,53660,39.0194,111.0836,894.4
偏关,中国,山西省,忻州市,偏关县,53565,53565,39.4375,111.4981,1051.7
原平,中国,山西省,忻州市,原平市,53673,53673,38.7383,112.7142,828.2
临汾,中国,山西省,临汾市,尧都区,53868,53868,36.0617,111.4939,449.5
曲沃,中国,山西省,临汾市,曲沃县,53961,53961,35.6453,111.4864,472.6
翼城,中国,山西省,临汾市,翼城县,53962,53962,35.7281,111.7003,584.5
襄汾,中国,山西省,临汾市,襄汾县,53861,53861,35.8925,111.3908,463.5
洪洞,中国,山西省,临汾市,洪洞县,53866,53866,36.2267,111.6597,462.8
古县,中国,山西省,临汾市,古县,53874,53874,36.2522,111.9006,648.7
安泽,中国,山西省,临汾市,安泽县,53877,53877,36.1275,112.2553,1011.3
浮山,中国,山西省,临汾市,浮山县,53966,53966,35.9772,111.8336,817.2
吉县,中国,山西省,临汾市,吉县,53859,53859,36.09,110.6633,851.3
乡宁,中国,山西省,临汾市,乡宁县,53953,53953,35.9508,110.8561,1290
大宁,中国,山西省,临汾市,大宁县,53856,53856,36.4622,110.7478,765.9
隰县,中国,山西省,临汾市,隰县,53853,53853,36.7025,110.9469,1052.7
永和,中国,山西省,临汾市,永和县,53852,53852,36.7722,110.6364,916.6
蒲县,中国,山西省,临汾市,蒲县,53864,53864,36.4022,111.1031,1030.6
汾西,中国,山西省,临汾市,汾西县,53865,53865,36.6786,111.5117,1126.1
侯马,中国,山西省,临汾市,侯马市,53963,53963,35.6508,111.3597,433.8
霍州,中国,山西省,临汾市,霍州市,53869,53869,36.5778,111.7033,550
离石,中国,山西省,吕梁市,离石区,53764,53764,37.5067,111.1131,950.8
文水,中国,山西省,吕梁市,文水县,53771,53771,37.415,112.0481,750
交城,中国,山西省,吕梁市,交城县,53777,53777,37.5147,112.1439,753.6
兴县,中国,山西省,吕梁市,兴县,53664,53664,38.4608,111.1342,1012.6
临县,中国,山西省,吕梁市,临县,53659,53659,37.9706,111.005,1163.3
柳林,中国,山西省,吕梁市,柳林县,53753,53753,37.4406,110.8906,860.1
石楼,中国,山西省,吕梁市,石楼县,53759,53759,36.9922,110.8328,1109.1
岚县,中国,山西省,吕梁市,岚县,53665,53665,38.2828,111.6328,1221.3
方山,中国,山西省,吕梁市,方山县,53760,53760,37.885,111.23,1212.4
中阳,中国,山西省,吕梁市,中阳县,53767,53767,37.335,111.1806,1213.1
交口,中国,山西省,吕梁市,交口县,53860,53860,36.9828,111.1689,1406.7
孝义,中国,山西省,吕梁市,孝义市,53768,53768,37.1542,111.745,773.4
汾阳,中国,山西省,吕梁市,汾阳市,53769,53769,37.2439,111.7822,747.7
呼和浩特,中国,内蒙古自治区,呼和浩特市,回民区,53463,53463,40.8558,111.5714,1153.5
呼和浩特郊区站,中国,内蒙古自治区,呼和浩特市,赛罕区,53466,53466,40.7611,111.7089,1042
土默特左旗,中国,内蒙古自治区,呼和浩特市,土默特左旗,53464,53464,40.7272,111.1736,1042.8
托克托县,中国,内蒙古自治区,呼和浩特市,托克托县,53467,53467,40.2514,111.2514,1015.9
和林格尔县,中国,内蒙古自治区,呼和浩特市,和林格尔县,53469,53469,40.3992,111.8189,1166.7
清水河县,中国,内蒙古自治区,呼和浩特市,清水河县,53562,53562,39.9225,111.6594,1208
武川县,中国,内蒙古自治区,呼和浩特市,武川县,53368,53368,41.0761,111.4608,1637.3
包头,中国,内蒙古自治区,包头市,九原区,53446,53446,40.5294,109.8808,1004.7
土右旗,中国,内蒙古自治区,包头市,土默特右旗,53455,53455,40.5519,110.5292,998.4
固阳,中国,内蒙古自治区,包头市,固阳县,53357,53357,41.0314,110.0958,1403.1
满都拉,中国,内蒙古自治区,包头市,达尔罕茂明安联合旗,53149,53149,42.5294,110.1167,1224.9
达茂旗,中国,内蒙古自治区,包头市,达尔罕茂明安联合旗,53352,53352,41.7036,110.4353,1375
希拉穆仁,中国,内蒙古自治区,包头市,达尔罕茂明安联合旗,53367,53367,41.3203,111.2236,1606.4
乌海,中国,内蒙古自治区,乌海市,海勃湾区,53512,53512,39.7936,106.8042,1105.4
岗子,中国,内蒙古自治区,赤峰市,松山区,54214,54214,42.5597,118.41,960
赤峰,中国,内蒙古自治区,赤峰市,松山区,54218,54218,42.3075,118.8344,668.6
阿鲁科尔沁旗,中国,内蒙古自治区,赤峰市,阿鲁科尔沁旗,54122,54122,43.8617,120.0303,428.9
富河,中国,内蒙古自治区,赤峰市,巴林左旗,54024,54024,44.4514,119.2844,710
巴林左旗,中国,内蒙古自治区,赤峰市,巴林左旗,54027,54027,43.9581,119.3175,587.8
巴林右旗,中国,内蒙古自治区,赤峰市,巴林右旗,54113,54113,43.5289,118.6333,688.8
林西县,中国,内蒙古自治区,赤峰市,林西县,54115,54115,43.6339,118.0283,825
克什克腾旗,中国,内蒙古自治区,赤峰市,克什克腾旗,54117,54117,43.2369,117.5236,1003.3
翁牛特旗,中国,内蒙古自治区,赤峰市,翁牛特旗,54213,54213,42.9178,119.0136,634.3
喀喇沁旗,中国,内蒙古自治区,赤峰市,喀喇沁旗,54313,54313,41.9197,118.7019,733.7
八里罕,中国,内蒙古自治区,赤峰市,宁城县,54316,54316,41.5139,118.7436,679.3
宁城县,中国,内蒙古自治区,赤峰市,宁城县,54320,54320,41.5919,119.2992,544.2
敖汉旗,中国,内蒙古自治区,赤峰市,敖汉旗,54225,54225,42.2939,119.9436,579.4
宝国吐,中国,内蒙古自治区,赤峰市,敖汉旗,54226,54226,42.3167,120.6856,400.5
通辽,中国,内蒙古自治区,通辽市,科尔沁区,54135,54135,43.5953,122.2603,181.2
舍伯吐,中国,内蒙古自治区,通辽市,科尔沁左翼中旗,54039,54039,44.0272,121.9981,183.9
科尔沁左翼中旗,中国,内蒙古自治区,通辽市,科尔沁左翼中旗,54047,54047,44.0894,123.2547,141
科左后旗,中国,内蒙古自治区,通辽市,科尔沁左翼后旗,54231,54231,42.9094,122.3636,256.9
开鲁,中国,内蒙古自治区,通辽市,开鲁县,54134,54134,43.6019,121.2864,241.3
库伦旗,中国,内蒙古自治区,通辽市,库伦旗,54234,54234,42.7178,121.79,278.8
青龙山,中国,内蒙古自治区,通辽市,奈曼旗,54132,54132,42.3864,121.0647,396
奈曼,中国,内蒙古自治区,通辽市,奈曼旗,54223,54223,42.8506,120.6414,368.2
巴雅尔吐胡硕,中国,内蒙古自治区,通辽市,扎鲁特旗,50928,50928,45.0583,120.3247,632.9
扎鲁特,中国,内蒙古自治区,通辽市,扎鲁特旗,54026,54026,44.5472,120.8989,263.6
霍林郭勒,中国,内蒙古自治区,通辽市,霍林郭勒市,50924,50924,45.5497,119.65,860
东胜,中国,内蒙古自治区,鄂尔多斯市,东胜区,53543,53543,39.8153,110.0122,1462.2
达拉特旗,中国,内蒙古自治区,鄂尔多斯市,达拉特旗,53457,53457,40.3922,110.0331,1008.8
准格尔旗,中国,内蒙古自治区,鄂尔多斯市,准格尔旗,53553,53553,39.8544,111.2189,1223.8
鄂托克前旗,中国,内蒙古自治区,鄂尔多斯市,鄂托克前旗,53730,53730,38.1889,107.4667,1333.2
鄂托克旗,中国,内蒙古自治区,鄂尔多斯市,鄂托克旗,53529,53529,39.0883,107.9625,1381.4
伊克乌素,中国,内蒙古自治区,鄂尔多斯市,杭锦旗,53522,53522,40.0481,107.8358,1180.8
杭锦旗,中国,内蒙古自治区,鄂尔多斯市,杭锦旗,53533,53533,39.8106,108.7136,1414
乌审旗,中国,内蒙古自治区,鄂尔多斯市,乌审旗,53644,53644,38.5944,108.835,1305.9
河南,中国,内蒙古自治区,鄂尔多斯市,乌审旗,53732,53732,37.8606,108.7214,1230
伊金霍洛旗,中国,内蒙古自治区,鄂尔多斯市,伊金霍洛旗,53545,53545,39.56,109.7083,1367
海拉尔,中国,内蒙古自治区,呼伦贝尔市,海拉尔区,50527,50527,49.25,119.7003,649.7
阿荣旗,中国,内蒙古自治区,呼伦贝尔市,阿荣旗,50647,50647,48.125,123.4756,237.8
莫力达瓦达斡尔族自治旗,中国,内蒙古自治区,呼伦贝尔市,莫力达瓦达斡尔族自治旗,50645,50645,48.4831,124.4808,198.2
鄂伦春自治旗,中国,内蒙古自治区,呼伦贝尔市,鄂伦春自治旗,50445,50445,50.5764,123.7281,425.5
小二沟,中国,内蒙古自治区,呼伦贝尔市,鄂伦春自治旗,50548,50548,49.1981,123.7214,286.1
鄂温克族自治旗,中国,内蒙古自治区,呼伦贝尔市,鄂温克族自治旗,50525,50525,49.1328,119.7419,617.3
陈巴尔虎旗,中国,内蒙古自治区,呼伦贝尔市,陈巴尔虎旗,50524,50524,49.3414,119.4569,597.4
新巴尔虎左旗,中国,内蒙古自治区,呼伦贝尔市,新巴尔虎左旗,50618,50618,48.1864,118.2614,622
新巴尔虎右旗,中国,内蒙古自治区,呼伦贝尔市,新巴尔虎右旗,50603,50603,48.6783,116.8103,542.4
满洲里,中国,内蒙古自治区,呼伦贝尔市,满洲里市,50514,50514,49.5758,117.3214,661.8
图里河,中国,内蒙古自治区,呼伦贝尔市,牙克石市,50434,50434,50.4781,121.6867,734.8
牙克石市,中国,内蒙古自治区,呼伦贝尔市,牙克石市,50526,50526,49.2831,120.6878,654.9
扎兰屯,中国,内蒙古自治区,呼伦贝尔市,扎兰屯市,50639,50639,47.9914,122.7514,309.3
额尔古纳,中国,内蒙古自治区,呼伦贝尔市,额尔古纳市,50425,50425,50.2369,120.1672,581.4
根河市,中国,内蒙古自治区,呼伦贝尔市,根河市,50431,50431,50.7828,121.5136,716.7
临河,中国,内蒙古自治区,巴彦淖尔市,临河区,53513,53513,40.7219,107.3706,1041.2
五原,中国,内蒙古自治区,巴彦淖尔市,五原县,53337,53337,41.0889,108.4708,1023.3
磴口,中国,内蒙古自治区,巴彦淖尔市,磴口县,53419,53419,40.3314,106.9908,1052.4
大佘太,中国,内蒙古自治区,巴彦淖尔市,乌拉特前旗,53348,53348,41.0211,109.135,1079.3
乌拉特前旗,中国,内蒙古自治区,巴彦淖尔市,乌拉特前旗,53433,53433,40.7283,108.6419,1020.9
乌拉特中旗,中国,内蒙古自治区,巴彦淖尔市,乌拉特中旗,53336,53336,41.5661,108.5078,1288.4
海力素,中国,内蒙古自治区,巴彦淖尔市,乌拉特后旗,53231,53231,41.4008,106.4083,1510.3
杭锦后旗,中国,内蒙古自治区,巴彦淖尔市,杭锦后旗,53420,53420,40.8692,107.1292,1038.5
集宁,中国,内蒙古自治区,乌兰察布市,集宁区,53480,53480,41.0294,113.0703,1416.9
卓资,中国,内蒙古自治区,乌兰察布市,卓资县,53472,53472,40.8917,112.5636,1451.7
化德,中国,内蒙古自治区,乌兰察布市,化德县,53391,53391,41.8956,114.0014,1482
商都,中国,内蒙古自治区,乌兰察布市,商都县,53385,53385,41.5956,113.5378,1420
兴和,中国,内蒙古自治区,乌兰察布市,兴和县,53483,53483,40.8769,113.8364,1286.8
凉城,中国,内蒙古自治区,乌兰察布市,凉城县,53475,53475,40.5231,112.4747,1268.6
察右前旗,中国,内蒙古自治区,乌兰察布市,察哈尔右翼前旗,53481,53481,40.8078,113.205,1284.4
察右中旗,中国,内蒙古自治区,乌兰察布市,察哈尔右翼中旗,53378,53378,41.2947,112.6186,1737.2
察右后旗,中国,内蒙古自治区,乌兰察布市,察哈尔右翼后旗,53384,53384,41.4447,113.18,1423.4
四子王旗,中国,内蒙古自治区,乌兰察布市,四子王旗,53362,53362,41.5483,111.65,1445.2
丰镇,中国,内蒙古自治区,乌兰察布市,丰镇市,53484,53484,40.4358,113.1258,1191.9
阿尔山,中国,内蒙古自治区,兴安盟,阿尔山市,50727,50727,47.1808,119.9344,997
索伦,中国,内蒙古自治区,兴安盟,科尔沁右翼前旗,50834,50834,46.6036,121.2133,500.4
科尔沁右翼中旗,中国,内蒙古自治区,兴安盟,科尔沁右翼中旗,50937,50937,45.0611,121.4831,282.1
高力板,中国,内蒙古自治区,兴安盟,科尔沁右翼中旗,54031,54031,44.8939,121.8139,201
突泉,中国,内蒙古自治区,兴安盟,突泉县,50934,50934,45.3825,121.5842,311.4
二连浩特,中国,内蒙古自治区,锡林郭勒盟,二连浩特市,53068,53068,43.6303,111.9372,963.1
锡林浩特,中国,内蒙古自治区,锡林郭勒盟,锡林浩特市,54102,54102,43.95,116.1197,1003.5
那仁宝力格,中国,内蒙古自治区,锡林郭勒盟,阿巴嘎旗,53083,53083,44.6175,114.1522,1181.6
阿巴嘎旗,中国,内蒙古自治区,锡林郭勒盟,阿巴嘎旗,53192,53192,44.0167,115.0033,1147.7
乌拉盖,中国,内蒙古自治区,锡林郭勒盟,东乌珠穆沁旗,50913,50913,45.7153,118.8308,864.6
东乌珠穆沁,中国,内蒙古自治区,锡林郭勒盟,东乌珠穆沁旗,50915,50915,45.5125,116.9628,838.9
西乌珠穆沁,中国,内蒙古自治区,锡林郭勒盟,西乌珠穆沁旗,54012,54012,44.57,117.6272,1001.7
太仆寺旗,中国,内蒙古自治区,锡林郭勒盟,太仆寺旗,54305,54305,41.8858,115.2717,1468.9
镶黄旗,中国,内蒙古自治区,锡林郭勒盟,镶黄旗,53289,53289,42.2414,113.8294,1322.3
正镶白旗,中国,内蒙古自治区,锡林郭勒盟,正镶白旗,54204,54204,42.2839,115.0336,1366.5
正蓝旗,中国,内蒙古自治区,锡林郭勒盟,正蓝旗,54205,54205,42.2333,116.0014,1315.5
多伦县,中国,内蒙古自治区,锡林郭勒盟,多伦县,54208,54208,42.1939,116.4664,1245.5
苏家屯,中国,辽宁省,沈阳市,苏家屯区,54340,54340,41.6603,123.3194,35.8
沈阳,中国,辽宁省,沈阳市,浑南区,54342,54342,41.7325,123.51,51
沈北新区,中国,辽宁省,沈阳市,沈北新区,54248,54248,42.0392,123.5314,61.6
辽中,中国,辽宁省,沈阳市,辽中区,54332,54332,41.5114,122.7017,12.2
康平,中国,辽宁省,沈阳市,康平县,54244,54244,42.8128,123.3453,87
法库,中国,辽宁省,沈阳市,法库县,54245,54245,42.4944,123.3983,97.8
新民,中国,辽宁省,沈阳市,新民市,54333,54333,41.9592,122.8531,30.9
大连,中国,辽宁省,大连市,市辖区,54662,54662,38.9083,121.64,91.5
金州,中国,辽宁省,大连市,金州区,54568,54568,39.0647,121.7578,90.8
普兰店,中国,辽宁省,大连市,普兰店区,54569,54569,39.4208,121.9425,11.7
皮口,中国,辽宁省,大连市,普兰店区,54575,54575,39.4014,122.3392,43.2
长海,中国,辽宁省,大连市,长海县,54579,54579,39.2719,122.5867,35.5
瓦房店,中国,辽宁省,大连市,瓦房店市,54563,54563,39.6286,122.0108,118.7
长兴岛,中国,辽宁省,大连市,瓦房店市,54565,54565,39.6003,121.4692,70.6
庄河,中国,辽宁省,大连市,庄河市,54584,54584,39.7125,122.9533,34.8
鞍山,中国,辽宁省,鞍山市,铁东区,54339,54339,41.0903,122.9994,77.3
台安,中国,辽宁省,鞍山市,台安县,54336,54336,41.4172,122.4303,8.3
岫岩,中国,辽宁省,鞍山市,岫岩满族自治县,54486,54486,40.3381,123.2767,97.7
抚顺,中国,辽宁省,抚顺市,抚顺县,54351,54351,41.9097,124.0686,118.5
新宾,中国,辽宁省,抚顺市,新宾满族自治县,54353,54353,41.7225,125.0364,328.4
清原,中国,辽宁省,抚顺市,清原满族自治县,54259,54259,42.0667,124.8667,224
本溪,中国,辽宁省,本溪市,明山区,54346,54346,41.3067,123.7753,185.4
草河口,中国,辽宁省,本溪市,本溪满族自治县,54483,54483,40.8719,123.9017,233.6
丹东,中国,辽宁省,丹东市,振兴区,54497,54497,40.0317,124.3275,13.8
宽甸,中国,辽宁省,丹东市,宽甸满族自治县,54493,54493,40.72,124.78,260.1
东港,中国,辽宁省,丹东市,东港市,54590,54590,39.9167,124.15,3.9
凤城,中国,辽宁省,丹东市,凤城市,54494,54494,40.4653,124.0533,72.6
营口,中国,辽宁省,营口市,西市区,54471,54471,40.6656,122.1733,3.8
熊岳,中国,辽宁省,营口市,鲅鱼圈区,54476,54476,40.1767,122.1497,20.4
盖州,中国,辽宁省,营口市,盖州市,54474,54474,40.4108,122.3575,24.8
大石桥,中国,辽宁省,营口市,大石桥市,54475,54475,40.5633,122.4508,11.5
彰武,中国,辽宁省,阜新市,彰武县,54236,54236,42.3842,122.5492,79.4
辽阳,中国,辽宁省,辽阳市,太子河区,54347,54347,41.245,123.1797,24.8
辽阳县,中国,辽宁省,辽阳市,辽阳县,54345,54345,41.2003,123.0736,30.7
灯塔,中国,辽宁省,辽阳市,灯塔市,54348,54348,41.4083,123.3711,45
盘山,中国,辽宁省,盘锦市,大洼区,54338,54338,41.2742,122.0403,4.8
大洼,中国,辽宁省,盘锦市,大洼区,54470,54470,41.0086,122.0564,5.5
铁岭,中国,辽宁省,铁岭市,银州区,54249,54249,42.2969,123.86,85.4
西丰,中国,辽宁省,铁岭市,西丰县,54252,54252,42.7403,124.7406,196.1
昌图,中国,辽宁省,铁岭市,昌图县,54243,54243,42.7847,124.0933,165.1
开原,中国,辽宁省,铁岭市,开原市,54254,54254,42.5269,124.0461,98.2
朝阳,中国,辽宁省,朝阳市,朝阳县,54324,54324,41.5478,120.4292,174.3
羊山,中国,辽宁省,朝阳市,朝阳县,54325,54325,41.1842,120.3611,183.8
建平镇,中国,辽宁省,朝阳市,建平县,54321,54321,41.8983,119.7131,661.8
建平县,中国,辽宁省,朝阳市,建平县,54326,54326,41.41,119.6203,462.2
喀左,中国,辽宁省,朝阳市,喀喇沁左翼蒙古族自治县,54328,54328,41.1186,119.7725,341
北票,中国,辽宁省,朝阳市,北票市,54323,54323,41.8117,120.7853,253.8
凌源,中国,辽宁省,朝阳市,凌源市,54327,54327,41.2428,119.3867,417.1
连山区,中国,辽宁省,葫芦岛市,连山区,54453,54453,40.8728,120.9603,38.9
绥中,中国,辽宁省,葫芦岛市,绥中县,54454,54454,40.3281,120.3058,29
建昌,中国,辽宁省,葫芦岛市,建昌县,54452,54452,40.8,119.7944,367
兴城,中国,辽宁省,葫芦岛市,兴城市,54455,54455,40.6244,120.6497,20.5
长春,中国,吉林省,长春市,绿园区,54161,54161,43.8914,125.2317,236.8
双阳,中国,吉林省,长春市,双阳区,54165,54165,43.5472,125.6414,218.8
九台,中国,吉林省,长春市,九台区,54069,54069,44.1228,125.7992,173.7
农安,中国,吉林省,长春市,农安县,54064,54064,44.3947,125.1561,170.4
榆树,中国,吉林省,长春市,榆树市,54072,54072,44.8497,126.5206,195.2
德惠,中国,吉林省,长春市,德惠市,54065,54065,44.5356,125.6572,168.3
吉林城郊,中国,吉林省,吉林市,昌邑区,54172,54172,43.8619,126.5397,290.4
永吉,中国,吉林省,吉林市,永吉县,54171,54171,43.6808,126.5183,229.8
蛟河,中国,吉林省,吉林市,蛟河市,54181,54181,43.7006,127.3322,295.8
桦甸,中国,吉林省,吉林市,桦甸市,54273,54273,42.9783,126.7597,263.3
舒兰,中国,吉林省,吉林市,舒兰市,54076,54076,44.3886,126.9261,267.8
烟筒山,中国,吉林省,吉林市,磐石市,54169,54169,43.2878,126.0058,271.5
磐石,中国,吉林省,吉林市,磐石市,54263,54263,42.9597,126.0781,351.2
四平,中国,吉林省,四平市,铁西区,54157,54157,43.1203,124.3856,192.8
梨树,中国,吉林省,四平市,梨树县,54154,54154,43.3064,124.3142,172
孤家子,中国,吉林省,四平市,梨树县,54155,54155,43.6592,124.2414,156.4
伊通,中国,吉林省,四平市,伊通满族自治县,54164,54164,43.3533,125.3178,263.4
双辽,中国,吉林省,四平市,双辽市,54142,54142,43.5111,123.4439,118.4
辽源,中国,吉林省,辽源市,龙山区,54260,54260,42.9128,125.0753,253
东丰,中国,吉林省,辽源市,东丰县,54261,54261,42.6725,125.4675,344.5
通化,中国,吉林省,通化市,东昌区,54363,54363,41.7178,125.9206,402.8
通化县,中国,吉林省,通化市,通化县,54362,54362,41.6661,125.7369,380.1
辉南,中国,吉林省,通化市,辉南县,54274,54274,42.6853,125.9867,307.2
柳河,中国,吉林省,通化市,柳河县,54267,54267,42.2667,125.7228,383.1
梅河口,中国,吉林省,通化市,梅河口市,54266,54266,42.5297,125.6619,342.1
集安,中国,吉林省,通化市,集安市,54377,54377,41.1531,126.2178,225.5
白山,中国,吉林省,白山市,浑江区,54371,54371,41.9361,126.435,522.7
江源,中国,吉林省,白山市,江源区,54279,54279,42.0533,126.5778,544.4
东岗,中国,吉林省,白山市,抚松县,54284,54284,42.1492,127.4969,776.4
靖宇,中国,吉林省,白山市,靖宇县,54276,54276,42.4006,126.7942,569.9
长白,中国,吉林省,白山市,长白朝鲜族自治县,54386,54386,41.425,128.1992,810.1
临江,中国,吉林省,白山市,临江市,54374,54374,41.8022,126.8947,381.1
松原,中国,吉林省,松原市,宁江区,50946,50946,45.1658,124.8456,139.7
前郭,中国,吉林省,松原市,前郭尔罗斯蒙古族自治县,50949,50949,45.0908,124.8669,136.4
长岭,中国,吉林省,松原市,长岭县,54049,54049,44.2783,123.9672,194.6
乾安,中国,吉林省,松原市,乾安县,50948,50948,44.9942,124.0097,148.6
扶余,中国,吉林省,松原市,扶余市,54063,54063,44.9756,126.0186,213.4
白城,中国,吉林省,白城市,洮北区,50936,50936,45.6139,122.7947,155.5
镇赉,中国,吉林省,白城市,镇赉县,50940,50940,45.8514,123.1728,140.7
通榆,中国,吉林省,白城市,通榆县,54041,54041,44.7947,123.0542,150.2
洮南,中国,吉林省,白城市,洮南市,50939,50939,45.3481,122.7581,150
大安,中国,吉林省,白城市,大安市,50945,50945,45.5061,124.2389,147.3
延吉,中国,吉林省,延边朝鲜族自治州,延吉市,54292,54292,42.8742,129.5039,258
图们,中国,吉林省,延边朝鲜族自治州,图们市,54293,54293,42.9539,129.8333,142.4
敦化,中国,吉林省,延边朝鲜族自治州,敦化市,54186,54186,43.3675,128.2111,526.1
珲春,中国,吉林省,延边朝鲜族自治州,珲春市,54291,54291,42.7867,130.3464,43.4
龙井,中国,吉林省,延边朝鲜族自治州,龙井市,54290,54290,42.7656,129.4003,245.7
和龙,中国,吉林省,延边朝鲜族自治州,和龙市,54286,54286,42.5333,129.0044,503.5
罗子沟,中国,吉林省,延边朝鲜族自治州,汪清县,54192,54192,43.7269,130.33,409.7
汪清,中国,吉林省,延边朝鲜族自治州,汪清县,54195,54195,43.2967,129.7917,273
安图,中国,吉林省,延边朝鲜族自治州,安图县,54187,54187,43.1069,128.9108,366.6
二道,中国,吉林省,延边朝鲜族自治州,安图县,54285,54285,42.4044,128.1247,731.7
哈尔滨,中国,黑龙江省,哈尔滨市,市辖区,50953,50953,45.9347,126.5739,118.3
呼兰,中国,黑龙江省,哈尔滨市,呼兰区,50956,50956,46.0914,126.7747,134.5
阿城,中国,黑龙江省,哈尔滨市,阿城区,50958,50958,45.5342,126.9356,168.2
依兰,中国,黑龙江省,哈尔滨市,依兰县,50877,50877,46.2994,129.5781,100.1
方正,中国,黑龙江省,哈尔滨市,方正县,50964,50964,45.83,128.8136,119.3
宾县,中国,黑龙江省,哈尔滨市,宾县,50960,50960,45.743,127.3944,184.2
巴彦,中国,黑龙江省,哈尔滨市,巴彦县,50867,50867,46.0636,127.3917,134
木兰,中国,黑龙江省,哈尔滨市,木兰县,50962,50962,45.9756,128.0453,116.9
通河,中国,黑龙江省,哈尔滨市,通河县,50963,50963,45.9825,128.7267,108.9
延寿,中国,黑龙江省,哈尔滨市,延寿县,50965,50965,45.4417,128.28,167.2
尚志,中国,黑龙江省,哈尔滨市,尚志市,50968,50968,45.2061,127.9794,189.7
五常,中国,黑龙江省,哈尔滨市,五常市,54080,54080,44.9094,127.1433,191.4
齐齐哈尔,中国,黑龙江省,齐齐哈尔市,建华区,50745,50745,47.3761,123.9236,146.7
龙江,中国,黑龙江省,齐齐哈尔市,龙江县,50739,50739,47.3003,123.2442,209.3
依安,中国,黑龙江省,齐齐哈尔市,依安县,50750,50750,47.9006,125.2917,226.4
泰来,中国,黑龙江省,齐齐哈尔市,泰来县,50844,50844,46.4,123.4536,138.8
甘南,中国,黑龙江省,齐齐哈尔市,甘南县,50741,50741,47.9333,123.5,185.2
富裕,中国,黑龙江省,齐齐哈尔市,富裕县,50742,50742,47.7928,124.4772,162.7
克山,中国,黑龙江省,齐齐哈尔市,克山县,50658,50658,48.0842,125.7878,291
克东,中国,黑龙江省,齐齐哈尔市,克东县,50659,50659,48.0539,126.2403,297
拜泉,中国,黑龙江省,齐齐哈尔市,拜泉县,50755,50755,47.6203,126.0722,249.8
讷河,中国,黑龙江省,齐齐哈尔市,讷河市,50646,50646,48.5031,124.8828,230.6
鸡西,中国,黑龙江省,鸡西市,市辖区,50978,50978,45.305,130.9089,272.5
鸡东,中国,黑龙江省,鸡西市,鸡东县,50987,50987,45.2589,131.0944,219.9
虎林,中国,黑龙江省,鸡西市,虎林市,50983,50983,45.7606,132.8831,98.1
密山,中国,黑龙江省,鸡西市,密山市,50985,50985,45.55,131.8667,151.7
鹤岗,中国,黑龙江省,鹤岗市,东山区,50775,50775,47.3383,130.1958,182.3
萝北,中国,黑龙江省,鹤岗市,萝北县,50776,50776,47.5647,130.8317,83.3
绥滨,中国,黑龙江省,鹤岗市,绥滨县,50787,50787,47.3083,131.8406,62.7
双鸭山,中国,黑龙江省,双鸭山市,市辖区,50884,50884,46.655,131.1528,175.3
集贤,中国,黑龙江省,双鸭山市,集贤县,50880,50880,46.7406,131.113,102.3
宝清,中国,黑龙江省,双鸭山市,宝清县,50888,50888,46.3881,132.1653,79.6
饶河,中国,黑龙江省,双鸭山市,饶河县,50892,50892,46.7931,133.9939,54.4
大庆,中国,黑龙江省,大庆市,市辖区,50850,50850,46.6208,124.9903,152.3
肇州,中国,黑龙江省,大庆市,肇州县,50950,50950,45.7031,125.2503,148.7
肇源,中国,黑龙江省,大庆市,肇源县,50954,50954,45.5047,125.0814,127.5
林甸,中国,黑龙江省,大庆市,林甸县,50749,50749,47.0931,124.77,152.3
杜蒙,中国,黑龙江省,大庆市,杜尔伯特蒙古族自治县,50842,50842,46.8389,124.4183,145.4
伊春,中国,黑龙江省,伊春市,伊春区,50774,50774,47.7081,128.8358,264.8
五营,中国,黑龙江省,伊春市,五营区,50772,50772,48.11,129.2347,300
乌伊岭,中国,黑龙江省,伊春市,乌伊岭区,50674,50674,48.5753,129.4406,404.5
嘉荫,中国,黑龙江省,伊春市,嘉荫县,50673,50673,48.8878,130.4117,90
铁力,中国,黑龙江省,伊春市,铁力市,50862,50862,46.9906,127.9858,207.3
桦南,中国,黑龙江省,佳木斯市,桦南县,50879,50879,46.2264,130.5581,187
桦川,中国,黑龙江省,佳木斯市,桦川县,50878,50878,47.0003,130.7169,78.2
汤原,中国,黑龙江省,佳木斯市,汤原县,50871,50871,46.7292,129.8769,95.1
佳木斯,中国,黑龙江省,佳木斯市,汤原县,50873,50873,46.7833,130.3,82
同江,中国,黑龙江省,佳木斯市,同江市,50778,50778,47.6622,132.5406,57.5
富锦,中国,黑龙江省,佳木斯市,富锦市,50788,50788,47.2286,131.9989,66.4
抚远,中国,黑龙江省,佳木斯市,抚远市,50779,50779,48.3425,134.4208,40.8
七台河,中国,黑龙江省,七台河市,市辖区,50971,50971,45.8397,130.9842,194.9
勃利,中国,黑龙江省,七台河市,勃利县,50973,50973,45.7528,130.6061,234.4
牡丹江,中国,黑龙江省,牡丹江市,东安区,54094,54094,44.5039,129.6683,305.7
林口,中国,黑龙江省,牡丹江市,林口县,50979,50979,45.2753,130.2442,274.7
绥芬河,中国,黑龙江省,牡丹江市,绥芬河市,54096,54096,44.3925,131.1758,567.8
海林,中国,黑龙江省,牡丹江市,海林市,54092,54092,44.5933,129.4078,292.1
宁安,中国,黑龙江省,牡丹江市,宁安市,54098,54098,44.3392,129.4486,267.9
穆棱,中国,黑龙江省,牡丹江市,穆棱市,54093,54093,44.9086,130.535,266.3
东宁,中国,黑龙江省,牡丹江市,东宁市,54099,54099,44.0931,131.1139,175.2
爱辉,中国,黑龙江省,黑河市,爱辉区,50468,50468,50.2481,127.4619,166.4
嫩江,中国,黑龙江省,黑河市,嫩江县,50557,50557,49.1561,125.2278,242.2
逊克,中国,黑龙江省,黑河市,逊克县,50566,50566,49.5653,128.4753,116
孙吴,中国,黑龙江省,黑河市,孙吴县,50564,50564,49.4169,127.3314,234.1
北安,中国,黑龙江省,黑河市,北安市,50656,50656,48.2628,126.5072,278.4
五大连池,中国,黑龙江省,黑河市,五大连池市,50655,50655,48.4981,126.1908,271.9
北林,中国,黑龙江省,绥化市,市辖区,50853,50853,46.6167,126.9667,179.6
望奎,中国,黑龙江省,绥化市,望奎县,50852,50852,46.7505,126.4833,176.8
兰西,中国,黑龙江省,绥化市,兰西县,50859,50859,46.2875,126.2775,169.3
青冈,中国,黑龙江省,绥化市,青冈县,50851,50851,46.6944,126.085,207.4
庆安,中国,黑龙江省,绥化市,庆安县,50861,50861,46.8906,127.4833,182.4
明水,中国,黑龙江省,绥化市,明水县,50758,50758,47.1511,125.8933,240
绥棱,中国,黑龙江省,绥化市,绥棱县,50767,50767,47.2333,127.1,202.7
安达,中国,黑龙江省,绥化市,安达市,50854,50854,46.3856,125.3236,149.3
肇东,中国,黑龙江省,绥化市,肇东市,50858,50858,46.0197,125.8069,159.5
海伦,中国,黑龙江省,绥化市,海伦市,50756,50756,47.4453,126.8747,219.7
加格达奇,中国,黑龙江省,大兴安岭地区,加格达奇区,50442,50442,50.4064,124.1194,371.7
新林,中国,黑龙江省,大兴安岭地区,新林区,50349,50349,51.665,124.3917,501.5
呼中,中国,黑龙江省,大兴安岭地区,呼中区,50247,50247,52.0361,123.5722,514.5
呼玛,中国,黑龙江省,大兴安岭地区,呼玛县,50353,50353,51.7261,126.6389,173.9
塔河,中国,黑龙江省,大兴安岭地区,塔河县,50246,50246,52.3481,124.7183,361.9
漠河,中国,黑龙江省,大兴安岭地区,漠河县,50136,50136,52.9744,122.5108,438.5
北极村,中国,黑龙江省,大兴安岭地区,漠河县,50137,50137,53.4692,122.3783,296
徐家汇,中国,上海市,市辖区,徐汇区,58367,58367,31.1922,121.4317,2
闵行,中国,上海市,市辖区,闵行区,58361,58361,31.1031,121.3658,3.4
上海,中国,上海市,市辖区,宝山区,58362,58362,31.3908,121.4447,3.3
嘉定,中国,上海市,市辖区,嘉定区,58365,58365,31.3803,121.1992,4.7
南汇,中国,上海市,市辖区,浦东新区,58369,58369,31.0564,121.7883,2.7
浦东,中国,上海市,市辖区,浦东新区,58370,58370,31.2214,121.5486,2.4
金山,中国,上海市,市辖区,金山区,58460,58460,30.8167,121.2731,3.2
松江,中国,上海市,市辖区,松江区,58462,58462,31.0197,121.1758,5.9
青浦,中国,上海市,市辖区,青浦区,58461,58461,31.1342,121.1222,2.2
奉贤,中国,上海市,市辖区,奉贤区,58463,58463,30.8872,121.4956,2.6
崇明,中国,上海市,市辖区,崇明区,58366,58366,31.6664,121.4928,2.3
浦口,中国,江苏省,南京市,浦口区,58237,58237,32.0653,118.59,46.6
南京,中国,江苏省,南京市,江宁区,58238,58238,31.9333,118.9,35.2
六合,中国,江苏省,南京市,六合区,58235,58235,32.3686,118.8472,10.4
溧水,中国,江苏省,南京市,溧水区,58340,58340,31.6028,119.0639,30.4
高淳,中国,江苏省,南京市,高淳区,58339,58339,31.3333,118.9039,16.6
无锡,中国,江苏省,无锡市,锡山区,58354,58354,31.6128,120.3544,3
江阴,中国,江苏省,无锡市,江阴市,58351,58351,31.8942,120.2931,4.1
宜兴,中国,江苏省,无锡市,宜兴市,58346,58346,31.3386,119.8097,16.4
徐州,中国,江苏省,徐州市,市辖区,58027,58027,34.2872,117.1586,41.2
丰县,中国,江苏省,徐州市,丰县,58012,58012,34.6719,116.6561,42
沛县,中国,江苏省,徐州市,沛县,58013,58013,34.7533,116.9058,36.5
睢宁,中国,江苏省,徐州市,睢宁县,58130,58130,33.9406,117.9583,23.8
新沂,中国,江苏省,徐州市,新沂市,58035,58035,34.3319,118.3536,29.3
邳州,中国,江苏省,徐州市,邳州市,58026,58026,34.3942,118.0189,25.7
金坛,中国,江苏省,常州市,金坛区,58342,58342,31.7103,119.5394,5.4
溧阳,中国,江苏省,常州市,溧阳市,58345,58345,31.4308,119.5,5.9
东山,中国,江苏省,苏州市,吴中区,58358,58358,31.0797,120.4344,16.7
苏州,中国,江苏省,苏州市,相城区,58349,58349,31.4147,120.5619,8
吴江,中国,江苏省,苏州市,吴江区,58359,58359,31.1442,120.6219,4.7
常熟,中国,江苏省,苏州市,常熟市,58352,58352,31.6281,120.7622,11.5
张家港,中国,江苏省,苏州市,张家港市,58353,58353,31.8586,120.5697,11.5
昆山,中国,江苏省,苏州市,昆山市,58356,58356,31.3975,120.995,3.2
太仓,中国,江苏省,苏州市,太仓市,58377,58377,31.5136,121.1075,5.7
海安,中国,江苏省,南通市, ,58254,58254,32.5486,120.4125,6.1
南通,中国,江苏省,南通市,市辖区,58259,58259,32.0758,120.9769,4.7
通州,中国,江苏省,南通市,通州区,58268,58268,32.1,121.0833,4.4
如东,中国,江苏省,南通市,如东县,58264,58264,32.3422,121.2206,5.5
吕四,中国,江苏省,南通市,启东市,58265,58265,32.0994,121.5444,3.8
启东,中国,江苏省,南通市,启东市,58269,58269,31.7939,121.6439,3.3
如皋,中国,江苏省,南通市,如皋市,58255,58255,32.3811,120.6103,8
海门,中国,江苏省,南通市,海门市,58360,58360,31.9117,121.1947,3.3
连云港,中国,江苏省,连云港市,市辖区,58044,58044,34.5489,119.2347,4.7
西连岛,中国,江苏省,连云港市,连云区,58041,58041,34.7778,119.4425,26.2
赣榆,中国,江苏省,连云港市,赣榆区,58040,58040,34.8564,119.1269,5.3
东海,中国,江苏省,连云港市,东海县,58036,58036,34.5425,118.7136,32.9
灌云,中国,江苏省,连云港市,灌云县,58047,58047,34.2575,119.2361,4.8
灌南,中国,江苏省,连云港市,灌南县,58048,58048,34.0639,119.2928,8
楚州,中国,江苏省,淮安市,淮安区,58145,58145,33.4969,119.1564,7.2
淮安,中国,江苏省,淮安市,淮阴区,58141,58141,33.6378,118.9269,12.5
洪泽,中国,江苏省,淮安市,洪泽区,58139,58139,33.3072,118.9133,10.6
涟水,中国,江苏省,淮安市,涟水县,58140,58140,33.7678,119.2983,8.9
盱眙,中国,江苏省,淮安市,盱眙县,58138,58138,32.9486,118.5072,43.1
金湖,中国,江苏省,淮安市,金湖县,58147,58147,32.9664,119.0128,12.4
盐都,中国,江苏省,盐城市,盐都区,58154,58154,33.3236,120.0981,3.8
大丰,中国,江苏省,盐城市,大丰区,58158,58158,33.1697,120.4569,3.1
响水,中国,江苏省,盐城市,响水县,58045,58045,34.1142,119.3606,4.4
滨海,中国,江苏省,盐城市,滨海县,58049,58049,34.0164,119.8031,4.1
阜宁,中国,江苏省,盐城市,阜宁县,58143,58143,33.8019,119.8275,4.8
射阳,中国,江苏省,盐城市,射阳县,58150,58150,33.7486,120.2997,1.8
建湖,中国,江苏省,盐城市,建湖县,58146,58146,33.465,119.7678,2.6
东台,中国,江苏省,盐城市,东台市,58251,58251,32.8575,120.2767,3.3
扬州,中国,江苏省,扬州市,邗江区,58245,58245,32.4114,119.4239,9.9
江都,中国,江苏省,扬州市,江都区,58244,58244,32.4503,119.5861,5.2
宝应,中国,江苏省,扬州市,宝应县,58148,58148,33.2706,119.3444,3.3
仪征,中国,江苏省,扬州市,仪征市,58242,58242,32.2997,119.1586,22.5
高邮,中国,江苏省,扬州市,高邮市,58241,58241,32.7569,119.4864,6.5
丹徒,中国,江苏省,镇江市,丹徒区,58252,58252,32.1511,119.4969,18
丹阳,中国,江苏省,镇江市,丹阳市,58341,58341,31.9828,119.5928,6.6
扬中,中国,江苏省,镇江市,扬中市,58247,58247,32.2744,119.7983,3.2
句容,中国,江苏省,镇江市,句容市,58344,58344,31.9606,119.2025,36
泰州,中国,江苏省,泰州市,海陵区,58246,58246,32.5569,119.9944,2.6
姜堰,中国,江苏省,泰州市,姜堰区,58250,58250,32.5089,120.1597,6.2
兴化,中国,江苏省,泰州市,兴化市,58243,58243,32.9456,119.8217,3
靖江,中国,江苏省,泰州市,靖江市,58257,58257,31.9758,120.2972,9.8
泰兴,中国,江苏省,泰州市,泰兴市,58249,58249,32.1597,120.0525,6
宿迁,中国,江苏省,宿迁市,宿城区,58131,58131,33.9703,118.2197,25
沭阳,中国,江苏省,宿迁市,沭阳县,58038,58038,34.0911,118.7836,10.4
泗阳,中国,江苏省,宿迁市,泗阳县,58132,58132,33.7283,118.6956,14.9
泗洪,中国,江苏省,宿迁市,泗洪县,58135,58135,33.4836,118.2083,16.9
杭州,中国,浙江省,杭州市,上城区,58457,58457,30.2258,120.1647,42.1
萧山,中国,浙江省,杭州市,萧山区,58459,58459,30.1778,120.2844,96.4
富阳,中国,浙江省,杭州市,富阳区,58449,58449,30.0556,119.9508,46.5
临安,中国,浙江省,杭州市,临安区,58448,58448,30.2181,119.7028,117.9
桐庐,中国,浙江省,杭州市,桐庐县,58542,58542,29.8058,119.6689,44.4
淳安,中国,浙江省,杭州市,淳安县,58543,58543,29.6061,119.0325,169.1
建德,中国,浙江省,杭州市,建德市,58544,58544,29.4747,119.2744,89.1
北仑,中国,浙江省,宁波市,北仑区,58563,58563,29.8811,121.8256,5
镇海,中国,浙江省,宁波市,镇海区,58561,58561,29.9833,121.6,4
鄞州,中国,浙江省,宁波市,鄞州区,58562,58562,29.7956,121.5,6.4
奉化,中国,浙江省,宁波市,奉化区,58565,58565,29.6917,121.3869,41.5
象山,中国,浙江省,宁波市,象山县,58566,58566,29.3833,121.9233,4.1
石浦,中国,浙江省,宁波市,象山县,58569,58569,29.2047,121.9558,128.4
宁海,中国,浙江省,宁波市,宁海县,58567,58567,29.3181,121.4403,39.3
余姚,中国,浙江省,宁波市,余姚市,58468,58468,30.0239,121.1403,38
慈溪,中国,浙江省,宁波市,慈溪市,58467,58467,30.2042,121.2917,5.4
温州,中国,浙江省,温州市,鹿城区,58659,58659,28.025,120.6578,28.3
永嘉,中国,浙江省,温州市,永嘉县,58658,58658,28.1503,120.6911,34.3
平阳,中国,浙江省,温州市,平阳县,58751,58751,27.6686,120.5731,254
文成,中国,浙江省,温州市,文成县,58750,58750,27.7872,120.0839,105.4
泰顺,中国,浙江省,温州市,泰顺县,58746,58746,27.5525,119.705,538.9
瑞安,中国,浙江省,温州市,瑞安市,58752,58752,27.7836,120.6581,37.6
乐清,中国,浙江省,温州市,乐清市,58656,58656,28.0733,120.9683,60.8
嘉兴,中国,浙江省,嘉兴市,南湖区,58452,58452,30.73,120.7606,4.8
嘉善,中国,浙江省,嘉兴市,嘉善县,58451,58451,30.8308,120.9361,2.6
海盐,中国,浙江省,嘉兴市,海盐县,58458,58458,30.5381,120.8961,4.8
海宁,中国,浙江省,嘉兴市,海宁市,58455,58455,30.4792,120.4919,5
平湖,中国,浙江省,嘉兴市,平湖市,58464,58464,30.6464,121.1206,4
桐乡,中国,浙江省,嘉兴市,桐乡市,58456,58456,30.6256,120.5239,6
湖州,中国,浙江省,湖州市,吴兴区,58450,58450,30.8644,120.0483,7.4
德清,中国,浙江省,湖州市,德清县,58454,58454,30.5253,119.9839,102.5
长兴,中国,浙江省,湖州市,长兴县,58443,58443,31.0231,119.8892,25
安吉,中国,浙江省,湖州市,安吉县,58446,58446,30.6308,119.7075,72.2
柯桥,中国,浙江省,绍兴市,柯桥区,58453,58453,30.0722,120.5128,7.9
上虞,中国,浙江省,绍兴市,上虞区,58553,58553,30.0542,120.8142,6.4
新昌,中国,浙江省,绍兴市,新昌县,58555,58555,29.5114,120.8842,115.1
诸暨,中国,浙江省,绍兴市,诸暨市,58550,58550,29.7014,120.2603,39.1
嵊州,中国,浙江省,绍兴市,嵊州市,58556,58556,29.5919,120.8108,104.3
金华,中国,浙江省,金华市,婺城区,58549,58549,29.1128,119.6558,62.6
武义,中国,浙江省,金华市,武义县,58642,58642,28.89,119.8092,105.1
浦江,中国,浙江省,金华市,浦江县,58546,58546,29.4744,119.875,115.8
磐安,中国,浙江省,金华市,磐安县,58560,58560,29.0522,120.4394,304.5
兰溪,中国,浙江省,金华市,兰溪市,58548,58548,29.2181,119.4756,50.2
义乌,中国,浙江省,金华市,义乌市,58557,58557,29.3408,120.0872,90
东阳,中国,浙江省,金华市,东阳市,58558,58558,29.2761,120.2231,89.9
永康,中国,浙江省,金华市,永康市,58643,58643,28.9017,120.0181,102.9
常山,中国,浙江省,衢州市,常山县,58631,58631,28.9072,118.5069,136.2
开化,中国,浙江省,衢州市,开化县,58537,58537,29.1339,118.4017,153
龙游,中国,浙江省,衢州市,龙游县,58547,58547,29.0336,119.1853,64.5
江山,中国,浙江省,衢州市,江山市,58632,58632,28.71,118.6017,126.1
定海,中国,浙江省,舟山市,定海区,58477,58477,30.0353,122.1069,35.7
普陀,中国,浙江省,舟山市,普陀区,58570,58570,29.9489,122.3036,83.1
岱山,中国,浙江省,舟山市,岱山县,58484,58484,30.2431,122.2031,37.3
嵊泗,中国,浙江省,舟山市,嵊泗县,58472,58472,30.7317,122.4494,79.3
洪家,中国,浙江省,台州市,椒江区,58665,58665,28.6181,121.4164,4.6
大陈,中国,浙江省,台州市,椒江区,58666,58666,28.4514,121.9033,89.1
三门,中国,浙江省,台州市,三门县,58568,58568,29.1228,121.3833,34.5
天台,中国,浙江省,台州市,天台县,58559,58559,29.1528,120.9706,107.6
仙居,中国,浙江省,台州市,仙居县,58652,58652,28.8672,120.7189,83.2
温岭,中国,浙江省,台州市,温岭市,58664,58664,28.3728,121.3589,35
临海,中国,浙江省,台州市,临海市,58660,58660,28.8739,121.1928,6.3
玉环,中国,浙江省,台州市,玉环市,58667,58667,28.0775,121.2708,95.9
丽水,中国,浙江省,丽水市,莲都区,58646,58646,28.3944,119.8542,144.5
青田,中国,浙江省,丽水市,青田县,58657,58657,28.1392,120.29,57.8
缙云,中国,浙江省,丽水市,缙云县,58654,58654,28.6597,120.0883,184.1
遂昌,中国,浙江省,丽水市,遂昌县,58644,58644,28.6,119.2833,237.8
云和,中国,浙江省,丽水市,云和县,58742,58742,28.1069,119.5642,161.4
庆元,中国,浙江省,丽水市,庆元县,58745,58745,27.6211,119.0792,400.8
景宁,中国,浙江省,丽水市,景宁畲族自治县,58648,58648,27.9919,119.6358,245.6
龙泉,中国,浙江省,丽水市,龙泉市,58647,58647,28.0806,119.1325,222.1
合肥,中国,安徽省,合肥市,市辖区,58321,58321,31.9556,117.0572,49.8
长丰,中国,安徽省,合肥市,长丰县,58220,58220,32.4233,117.1553,45
肥东,中国,安徽省,合肥市,肥东县,58323,58323,31.8567,117.4556,18
肥西,中国,安徽省,合肥市,肥西县,58320,58320,31.6081,117.0303,26.2
庐江,中国,安徽省,合肥市,庐江县,58327,58327,31.2672,117.2853,45.6
巢湖,中国,安徽省,合肥市,巢湖市,58326,58326,31.5769,117.8289,31.2
芜湖,中国,安徽省,芜湖市,鸠江区,58334,58334,31.3786,118.4133,10.2
芜湖县,中国,安徽省,芜湖市,芜湖县,58338,58338,31.1197,118.5947,39.9
繁昌,中国,安徽省,芜湖市,繁昌县,58337,58337,31.0558,118.2153,60.5
南陵,中国,安徽省,芜湖市,南陵县,58431,58431,30.8917,118.3169,40
无为,中国,安徽省,芜湖市,无为县,58329,58329,31.3325,117.8733,9.6
蚌埠,中国,安徽省,蚌埠市,市辖区,58221,58221,32.8436,117.3044,26.6
怀远,中国,安徽省,蚌埠市,怀远县,58127,58127,32.9889,117.0706,24.5
五河,中国,安徽省,蚌埠市,五河县,58129,58129,33.1417,117.825,14.5
固镇,中国,安徽省,蚌埠市,固镇县,58128,58128,33.3408,117.3575,21.4
淮南,中国,安徽省,淮南市,田家庵区,58224,58224,32.6053,117.0461,70.6
凤台,中国,安徽省,淮南市,凤台县,58212,58212,32.7147,116.7642,23.1
寿县,中国,安徽省,淮南市,寿县,58215,58215,32.4361,116.7894,24.9
马鞍山,中国,安徽省,马鞍山市,花山区,58336,58336,31.7053,118.5592,78.2
当涂,中国,安徽省,马鞍山市,当涂县,58335,58335,31.5531,118.5544,60
含山,中国,安徽省,马鞍山市,含山县,58330,58330,31.7433,118.0919,26.5
和县,中国,安徽省,马鞍山市,和县,58331,58331,31.725,118.3611,20.5
淮北,中国,安徽省,淮北市,杜集区,58116,58116,34.0333,116.8689,32.9
濉溪,中国,安徽省,淮北市,濉溪县,58113,58113,33.945,116.7064,31.9
铜陵,中国,安徽省,铜陵市,义安区,58429,58429,30.9736,117.8467,11
天柱山,中国,安徽省,安庆市,潜山县,58112,58112,30.7306,116.4533,959.1
宿松,中国,安徽省,安庆市,宿松县,58417,58417,30.1739,116.1219,109.3
岳西,中国,安徽省,安庆市,岳西县,58317,58317,30.8553,116.36,434.6
桐城,中国,安徽省,安庆市,桐城市,58319,58319,31.0592,116.9414,85.3
屯溪,中国,安徽省,黄山市,屯溪区,58531,58531,29.7142,118.2844,142.7
黄山,中国,安徽省,黄山市,黄山区,58437,58437,30.1347,118.1642,1839.7
歙县,中国,安徽省,黄山市,歙县,58530,58530,29.8656,118.4347,168.8
休宁,中国,安徽省,黄山市,休宁县,58534,58534,29.7878,118.1819,170.2
黟县,中国,安徽省,黄山市,黟县,58523,58523,29.9322,117.9278,227.3
祁门,中国,安徽省,黄山市,祁门县,58520,58520,29.8678,117.6922,191
滁州,中国,安徽省,滁州市,南谯区,58236,58236,32.3561,118.2544,33.5
来安,中国,安徽省,滁州市,来安县,58234,58234,32.4703,118.4153,40.3
定远,中国,安徽省,滁州市,定远县,58225,58225,32.5403,117.6778,70.6
凤阳,中国,安徽省,滁州市,凤阳县,58222,58222,32.8564,117.5461,24.7
天长,中国,安徽省,滁州市,天长市,58240,58240,32.7403,119.0033,10
明光,中国,安徽省,滁州市,明光市,58223,58223,32.8003,117.9892,34
阜阳,中国,安徽省,阜阳市,市辖区,58203,58203,32.8775,115.7364,31.2
临泉,中国,安徽省,阜阳市,临泉县,58107,58107,32.9106,115.2611,36.2
太和,中国,安徽省,阜阳市,太和县,58109,58109,33.1258,115.6442,31
阜南,中国,安徽省,阜阳市,阜南县,58202,58202,32.6747,115.5803,34.2
颍上,中国,安徽省,阜阳市,颍上县,58210,58210,32.6736,116.1569,26.7
界首,中国,安徽省,阜阳市,界首市,58108,58108,33.3372,115.365,38.8
宿州,中国,安徽省,宿州市,埇桥区,58122,58122,33.6378,117.0831,25.7
砀山,中国,安徽省,宿州市,砀山县,58015,58015,34.4389,116.3397,42.1
萧县,中国,安徽省,宿州市,萧县,58016,58016,34.1803,116.9628,34.9
灵璧,中国,安徽省,宿州市,灵璧县,58125,58125,33.5819,117.5156,23
泗县,中国,安徽省,宿州市,泗县,58126,58126,33.4683,117.9122,20.7
六安,中国,安徽省,六安市,市辖区,58311,58311,31.7414,116.5106,74.1
霍邱,中国,安徽省,六安市,霍邱县,58214,58214,32.3653,116.2978,28.4
舒城,中国,安徽省,六安市,舒城县,58316,58316,31.4711,116.9175,23.7
金寨,中国,安徽省,六安市,金寨县,58306,58306,31.6783,115.8758,95.4
霍山,中国,安徽省,六安市,霍山县,58314,58314,31.4008,116.3369,86.4
亳州,中国,安徽省,亳州市,谯城区,58102,58102,33.7914,115.7353,38.7
涡阳,中国,安徽省,亳州市,涡阳县,58114,58114,33.4911,116.1847,31.2
蒙城,中国,安徽省,亳州市,蒙城县,58118,58118,33.2608,116.5114,26.9
利辛,中国,安徽省,亳州市,利辛县,58117,58117,33.0531,116.2033,27.9
宣城,中国,安徽省,宣城市,市辖区,58433,58433,30.9322,118.7578,31.3
郎溪,中国,安徽省,宣城市,郎溪县,58442,58442,31.1594,119.1897,16.5
广德,中国,安徽省,宣城市,广德县,58441,58441,30.8669,119.4214,43.2
泾县,中国,安徽省,宣城市,泾县,58432,58432,30.6769,118.4058,52.7
旌德,中国,安徽省,宣城市,旌德县,58435,58435,30.2944,118.5344,217
宁国,中国,安徽省,宣城市,宁国市,58436,58436,30.6175,118.9806,87.3
福州,中国,福建省,福州市,鼓楼区,58847,58847,26.0775,119.2894,84.1
闽侯,中国,福建省,福州市,闽侯县,58844,58844,26.1533,119.1444,57.9
连江,中国,福建省,福州市,连江县,58848,58848,26.2056,119.5469,13.3
罗源,中国,福建省,福州市,罗源县,58845,58845,26.5036,119.5494,78.8
闽清,中国,福建省,福州市,闽清县,58839,58839,26.22,118.8639,149
永泰,中国,福建省,福州市,永泰县,58932,58932,25.8689,118.9333,85.5
平潭,中国,福建省,福州市,平潭县,58944,58944,25.505,119.7828,30.7
福清,中国,福建省,福州市,福清市,58942,58942,25.6725,119.3792,75.2
长乐,中国,福建省,福州市,长乐市,58941,58941,25.9742,119.4964,26
厦门,中国,福建省,厦门市,思明区,59134,59134,24.4861,118.08,139.6
同安,中国,福建省,厦门市,同安区,59130,59130,24.7728,118.1775,45.7
莆田,中国,福建省,莆田市,城厢区,58946,58946,25.4439,119.0014,81.3
秀屿,中国,福建省,莆田市,秀屿区,58938,58938,25.2747,119.105,65.3
三明,中国,福建省,三明市,梅列区,58828,58828,26.2739,117.6417,210.3
明溪,中国,福建省,三明市,明溪县,58824,58824,26.3636,117.2083,357.3
清流,中国,福建省,三明市,清流县,58819,58819,26.1892,116.7917,363.2
宁化,中国,福建省,三明市,宁化县,58818,58818,26.2694,116.6536,358.8
大田,中国,福建省,三明市,大田县,58923,58923,25.698,117.8414,400.1
尤溪,中国,福建省,三明市,尤溪县,58837,58837,26.1575,118.1547,204.7
沙县,中国,福建省,三明市,沙县,58826,58826,26.3911,117.8069,120.7
泰宁,中国,福建省,三明市,泰宁县,58820,58820,26.9011,117.1686,342.9
建宁,中国,福建省,三明市,建宁县,58822,58822,26.8325,116.8447,342.5
崇武,中国,福建省,泉州市,惠安县,59133,59133,24.8903,118.9169,21.9
安溪,中国,福建省,泉州市,安溪县,58929,58929,25.0636,118.2069,130.8
永春,中国,福建省,泉州市,永春县,58934,58934,25.3328,118.2719,183.8
九仙山,中国,福建省,泉州市,德化县,58931,58931,25.7103,118.1058,1653.9
德化,中国,福建省,泉州市,德化县,58935,58935,25.5105,118.2303,645.7
南安,中国,福建省,泉州市,南安市,59131,59131,24.9611,118.3664,172.9
云霄,中国,福建省,漳州市,云霄县,59322,59322,23.9539,117.3342,23.9
漳浦,中国,福建省,漳州市,漳浦县,59129,59129,24.1297,117.5875,61.2
诏安,中国,福建省,漳州市,诏安县,59320,59320,23.7528,117.1375,37.6
长泰,中国,福建省,漳州市,长泰县,59122,59122,24.6239,117.7533,43.4
南靖,中国,福建省,漳州市,南靖县,59124,59124,24.5086,117.3872,53.7
平和,中国,福建省,漳州市,平和县,59125,59125,24.3792,117.3003,108.8
华安,中国,福建省,漳州市,华安县,58928,58928,25.0094,117.5286,166.8
龙海,中国,福建省,漳州市,龙海市,59127,59127,24.4283,117.8272,32.7
建阳,中国,福建省,南平市,建阳区,58734,58734,27.3389,118.1136,196.9
顺昌,中国,福建省,南平市,顺昌县,58823,58823,26.8011,117.8044,175.1
浦城,中国,福建省,南平市,浦城县,58731,58731,27.9233,118.5419,276.9
光泽,中国,福建省,南平市,光泽县,58724,58724,27.5372,117.3094,268.4
松溪,中国,福建省,南平市,松溪县,58735,58735,27.5231,118.7647,260.3
政和,中国,福建省,南平市,政和县,58736,58736,27.3767,118.8258,262.6
邵武,中国,福建省,南平市,邵武市,58725,58725,27.3219,117.485,218.1
武夷山,中国,福建省,南平市,武夷山市,58730,58730,27.7558,118.0233,222.1
建瓯,中国,福建省,南平市,建瓯市,58737,58737,27.0528,118.3231,155
龙岩,中国,福建省,龙岩市,新罗区,58927,58927,25.0497,117.0222,375.9
永定,中国,福建省,龙岩市,永定区,59113,59113,24.7255,116.7181,227
长汀,中国,福建省,龙岩市,长汀县,58911,58911,25.8528,116.3658,310.1
上杭,中国,福建省,龙岩市,上杭县,58918,58918,25.0464,116.4119,198.1
武平,中国,福建省,龙岩市,武平县,58917,58917,25.0903,116.1022,307.6
漳平,中国,福建省,龙岩市,漳平市,58926,58926,25.2719,117.4292,238.4
宁德,中国,福建省,宁德市,蕉城区,58846,58846,26.6608,119.5183,32.5
霞浦,中国,福建省,宁德市,霞浦县,58843,58843,26.8772,120.0194,56.6
三沙,中国,福建省,宁德市,霞浦县,58850,58850,26.9217,120.2267,92.2
古田,中国,福建省,宁德市,古田县,58836,58836,26.5756,118.7389,361.5
寿宁,中国,福建省,宁德市,寿宁县,58744,58744,27.455,119.5036,845.3
周宁,中国,福建省,宁德市,周宁县,58747,58747,27.1075,119.3414,895.3
柘荣,中国,福建省,宁德市,柘荣县,58749,58749,27.2325,119.8911,684
福安,中国,福建省,宁德市,福安市,58748,58748,27.0933,119.6525,50.3
福鼎,中国,福建省,宁德市,福鼎市,58754,58754,27.335,120.2072,36.2
临川,中国,江西省,南昌市,市辖区,58619,58619,27.8939,116.2636,73.7
新建,中国,江西省,南昌市,新建区,58693,58693,28.5375,115.6111,63.3
南昌县,中国,江西省,南昌市,南昌县,58607,58607,28.5194,116.0681,23.1
安义,中国,江西省,南昌市,安义县,58602,58602,28.9258,115.5492,90
进贤,中国,江西省,南昌市,进贤县,58614,58614,28.4006,116.2844,67.5
泰和,中国,江西省,景德镇市,市辖区,57899,57899,26.8247,114.8786,103.4
景德镇,中国,江西省,上饶市,市辖区,58527,58527,29.3122,117.1686,93.5
浮梁,中国,江西省,景德镇市,浮梁县,58524,58524,29.3619,117.2153,87.4
乐平,中国,江西省,景德镇市,乐平市,58620,58620,29.0181,117.1036,51.2
萍乡,中国,江西省,萍乡市,安源区,57786,57786,27.6272,113.8553,117.5
莲花,中国,江西省,萍乡市,莲花县,57789,57789,27.1361,113.9494,194.5
上栗,中国,江西省,萍乡市,上栗县,57783,57783,27.8853,113.8117,118.6
芦溪,中国,江西省,萍乡市,芦溪县,57794,57794,27.6353,114.0097,177.4
南昌,中国,江西省,九江市,市辖区,58606,58606,28.59,115.9014,47.2
九江县,中国,江西省,九江市,柴桑区,58505,58505,29.6097,115.8964,62.6
武宁,中国,江西省,九江市,武宁县,58507,58507,29.2497,115.1156,116
九江,中国,江西省,九江市,修水县,58502,58502,29.6747,116.0192,74.8
永修,中国,江西省,九江市,永修县,58509,58509,29.0331,115.8131,36.6
德安,中国,江西省,九江市,德安县,58508,58508,29.3508,115.7386,80.6
都昌,中国,江西省,九江市,都昌县,58517,58517,29.2522,116.1744,77.5
湖口,中国,江西省,九江市,湖口县,58510,58510,29.6881,116.2078,35.2
彭泽,中国,江西省,九江市,彭泽县,58512,58512,29.8933,116.5447,99.1
瑞昌,中国,江西省,九江市,瑞昌市,58503,58503,29.7081,115.6711,41.2
庐山,中国,江西省,九江市,庐山市,58506,58506,29.57,115.9769,1164.5
星子,中国,江西省,九江市,庐山市,58514,58514,29.4469,116.0342,37.1
新余,中国,江西省,新余市,渝水区,57796,57796,27.8319,114.8847,189.3
分宜,中国,江西省,新余市,分宜县,57792,57792,27.8169,114.6842,93.7
余江,中国,江西省,鹰潭市,余江县,58616,58616,28.2,116.8119,42.5
贵溪,中国,江西省,鹰潭市,贵溪市,58626,58626,28.3111,117.2464,60.8
南康,中国,江西省,赣州市,南康区,57992,57992,25.6606,114.7383,127
赣州,中国,江西省,赣州市,赣县区,57993,57993,25.8706,115.0142,137.6
信丰,中国,江西省,赣州市,信丰县,57995,57995,25.3469,114.8661,204.4
大余,中国,江西省,赣州市,大余县,57994,57994,25.4019,114.3633,215.6
上犹,中国,江西省,赣州市,上犹县,57991,57991,25.7972,114.5408,137.5
崇义,中国,江西省,赣州市,崇义县,57990,57990,25.6933,114.3092,280
安远,中国,江西省,赣州市,安远县,58907,58907,25.1336,115.3758,304.6
龙南,中国,江西省,赣州市,龙南县,59092,59092,24.87,114.8064,250.2
定南,中国,江西省,赣州市,定南县,59093,59093,24.7758,115.0344,254.3
全南,中国,江西省,赣州市,全南县,59091,59091,24.7461,114.5158,277.1
宁都,中国,江西省,赣州市,宁都县,58806,58806,26.4769,116.0106,206.8
于都,中国,江西省,赣州市,于都县,58905,58905,25.9614,115.4075,127.6
兴国,中国,江西省,赣州市,兴国县,58804,58804,26.2914,115.3475,184
会昌,中国,江西省,赣州市,会昌县,58906,58906,25.5608,115.7964,193.1
宜春,中国,江西省,赣州市,寻乌县,57793,57793,27.7911,114.3694,130.4
寻乌,中国,江西省,赣州市,寻乌县,59102,59102,24.9503,115.6422,303.6
石城,中国,江西省,赣州市,石城县,58814,58814,26.3533,116.3472,280.2
瑞金,中国,江西省,赣州市,瑞金市,58903,58903,25.9236,116.0142,289.8
吉安县,中国,江西省,吉安市,吉安县,57799,57799,27.0433,114.9139,71.1
吉水,中国,江西省,吉安市,吉水县,58707,58707,27.2083,115.1339,65.1
峡江,中国,江西省,吉安市,峡江县,58704,58704,27.5803,115.3503,101.9
新干,中国,江西省,吉安市,新干县,58701,58701,27.7489,115.3919,44.8
永丰,中国,江西省,吉安市,永丰县,58705,58705,27.335,115.4194,85.7
鹰潭,中国,江西省,吉安市,泰和县,58627,58627,28.3089,117.0567,55.7
遂川,中国,江西省,吉安市,遂川县,57896,57896,26.33,114.5189,126.4
万安,中国,江西省,吉安市,万安县,57895,57895,26.4672,114.7842,101.7
安福,中国,江西省,吉安市,安福县,57798,57798,27.3903,114.5944,85.9
永新,中国,江西省,吉安市,永新县,57891,57891,26.9444,114.2494,150.3
夏坪,中国,江西省,吉安市,井冈山市,57883,57883,26.7514,114.2881,256.1
井冈山,中国,江西省,吉安市,井冈山市,57894,57894,26.5661,114.1619,839.1
奉新,中国,江西省,宜春市,奉新县,58601,58601,28.7219,115.3575,80.4
万载,中国,江西省,宜春市,万载县,57698,57698,28.1081,114.4297,124.6
上高,中国,江西省,宜春市,上高县,57699,57699,28.2414,114.9608,93.4
宜丰,中国,江西省,宜春市,宜丰县,57696,57696,28.3864,114.7692,90.4
靖安,中国,江西省,宜春市,靖安县,58600,58600,28.855,115.3653,80.7
铜鼓,中国,江西省,宜春市,铜鼓县,57694,57694,28.525,114.3636,259.4
丰城,中国,江西省,宜春市,丰城市,58609,58609,28.21,115.8117,25.2
樟树,中国,江西省,宜春市,樟树市,58608,58608,27.9864,115.5503,66.3
高安,中国,江西省,宜春市,高安市,58605,58605,28.4219,115.3675,45.6
修水,中国,江西省,抚州市,临川区,57598,57598,29.03,114.5753,146.8
东乡,中国,江西省,抚州市,东乡区,58618,58618,28.2689,116.6069,84.7
南城,中国,江西省,抚州市,南城县,58715,58715,27.5767,116.6383,81
黎川,中国,江西省,抚州市,黎川县,58719,58719,27.2983,116.9097,129.4
南丰,中国,江西省,抚州市,南丰县,58718,58718,27.2031,116.5625,128.7
崇仁,中国,江西省,抚州市,崇仁县,58710,58710,27.7406,116.0236,88.1
乐安,中国,江西省,抚州市,乐安县,58706,58706,27.4228,115.8311,181.6
宜黄,中国,江西省,抚州市,宜黄县,58714,58714,27.5514,116.2342,117.4
金溪,中国,江西省,抚州市,金溪县,58712,58712,27.9092,116.7842,129.3
资溪,中国,江西省,抚州市,资溪县,58713,58713,27.7092,117.0694,225.1
广昌,中国,江西省,抚州市,广昌县,58813,58813,26.8344,116.3061,166.3
上饶,中国,江西省,上饶市,市辖区,58637,58637,28.4428,117.9767,118.5
广丰,中国,江西省,上饶市,广丰区,58635,58635,28.445,118.1931,150
上饶县,中国,江西省,上饶市,上饶县,58623,58623,28.4614,117.9036,121.3
玉山,中国,江西省,上饶市,玉山县,58634,58634,28.6811,118.2497,116.3
铅山,中国,江西省,上饶市,铅山县,58629,58629,28.2894,117.7061,101.8
横峰,中国,江西省,上饶市,横峰县,58625,58625,28.3942,117.5994,103
弋阳,中国,江西省,上饶市,弋阳县,58624,58624,28.3903,117.445,66.2
余干,中国,江西省,上饶市,余干县,58612,58612,28.6878,116.6792,18.4
波阳,中国,江西省,上饶市,鄱阳县,58519,58519,28.9986,116.6669,38.5
万年,中国,江西省,上饶市,万年县,58615,58615,28.6853,117.0678,56
婺源,中国,江西省,上饶市,婺源县,58529,58529,29.2772,117.8564,166.9
德兴,中国,江西省,上饶市,德兴市,58622,58622,28.9472,117.5692,79.5
济南,中国,山东省,济南市,市中区,54823,54823,36.6019,117.0081,170.3
长清,中国,山东省,济南市,长清区,54816,54816,36.5167,116.8,98.9
章丘,中国,山东省,济南市,章丘区,54727,54727,36.65,117.5167,263
平阴,中国,山东省,济南市,平阴县,54818,54818,36.25,116.4167,79.9
济阳,中国,山东省,济南市,济阳县,54821,54821,37,117.2,20.4
商河,中国,山东省,济南市,商河县,54724,54724,37.3167,117.1333,14.8
青岛,中国,山东省,青岛市,市南区,54857,54857,36.0667,120.3333,76
黄岛,中国,山东省,青岛市,黄岛区,54943,54943,35.8333,120.0333,5.7
崂山,中国,山东省,青岛市,李沧区,54853,54853,36.1333,120.5167,54
即墨,中国,山东省,青岛市,即墨区,54855,54855,36.4,120.3833,47.8
胶州,中国,山东省,青岛市,胶州市,54849,54849,36.2167,120.0333,84.4
平度,中国,山东省,青岛市,平度市,54842,54842,36.7833,120,62.2
莱西,中国,山东省,青岛市,莱西市,54851,54851,36.9,120.5667,76.9
淄川,中国,山东省,淄博市,淄川区,54824,54824,36.6333,117.95,95
淄博,中国,山东省,淄博市,张店区,54830,54830,36.8167,117.9333,34.4
博山,中国,山东省,淄博市,博山区,54825,54825,36.5167,117.85,189.7
临淄,中国,山东省,淄博市,临淄区,54834,54834,36.8667,118.2833,46.3
周村,中国,山东省,淄博市,周村区,54829,54829,36.7667,117.8667,85.7
桓台,中国,山东省,淄博市,桓台县,54833,54833,36.9667,118.0833,15.1
高青,中国,山东省,淄博市,高青县,54729,54729,37.1667,117.8667,11.5
沂源,中国,山东省,淄博市,沂源县,54836,54836,36.1833,118.1667,305.1
枣庄,中国,山东省,枣庄市,市中区,58024,58024,34.8667,117.5833,77.7
薛城,中国,山东省,枣庄市,薛城区,58021,58021,34.7833,117.2833,80.5
峄城,中国,山东省,枣庄市,峄城区,58022,58022,34.7667,117.4833,83.4
台儿庄,中国,山东省,枣庄市,台儿庄区,58025,58025,34.6,117.7167,29.3
滕州,中国,山东省,枣庄市,滕州市,54927,54927,35.1,117.2,74.9
东营,中国,山东省,东营市,东营区,54736,54736,37.4333,118.6667,6
垦利,中国,山东省,东营市,垦利区,54744,54744,37.5833,118.55,8.5
福山,中国,山东省,烟台市,福山区,54764,54764,37.4833,121.2333,53.9
烟台,中国,山东省,烟台市,莱山区,54765,54765,37.4833,121.4333,82
长岛,中国,山东省,烟台市,长岛县,54751,54751,37.9392,120.7256,39.7
龙口,中国,山东省,烟台市,龙口市,54753,54753,37.6333,120.3333,4.8
莱阳,中国,山东省,烟台市,莱阳市,54852,54852,36.9667,120.7167,41.6
莱州,中国,山东省,烟台市,莱州市,54749,54749,37.1833,119.95,48.4
蓬莱,中国,山东省,烟台市,蓬莱市,54752,54752,37.8,120.7667,60.7
招远,中国,山东省,烟台市,招远市,54755,54755,37.3283,120.3869,117.8
栖霞,中国,山东省,烟台市,栖霞市,54759,54759,37.3247,120.8519,205.5
海阳,中国,山东省,烟台市,海阳市,54863,54863,36.775,121.1783,40.9
潍坊,中国,山东省,潍坊市,寒亭区,54843,54843,36.75,119.2,22.2
临朐,中国,山东省,潍坊市,临朐县,54835,54835,36.4733,118.5606,149.5
昌乐,中国,山东省,潍坊市,昌乐县,54837,54837,36.6797,118.8361,78.8
青州,中国,山东省,潍坊市,青州市,54831,54831,36.65,118.5,102.5
诸城,中国,山东省,潍坊市,诸城市,54848,54848,35.9633,119.4847,109
寿光,中国,山东省,潍坊市,寿光市,54832,54832,36.8631,118.7953,23.4
安丘,中国,山东省,潍坊市,安丘市,54844,54844,36.4167,119.1833,62.7
高密,中国,山东省,潍坊市,高密市,54846,54846,36.3853,119.7361,51.5
昌邑,中国,山东省,潍坊市,昌邑市,54841,54841,36.8617,119.4181,23.5
济宁,中国,山东省,济宁市,任城区,54915,54915,35.4411,116.6014,33.3
兖州,中国,山东省,济宁市,兖州区,54916,54916,35.5333,116.8333,43.3
微山,中国,山东省,济宁市,微山县,58020,58020,34.7681,117.1403,35.5
鱼台,中国,山东省,济宁市,鱼台县,54907,54907,34.9833,116.65,34.3
金乡,中国,山东省,济宁市,金乡县,54917,54917,35.1333,116.3333,35.8
嘉祥,中国,山东省,济宁市,嘉祥县,54921,54921,35.4333,116.2833,37.1
汶上,中国,山东省,济宁市,汶上县,54912,54912,35.7667,116.5,41.8
泗水,中国,山东省,济宁市,泗水县,54920,54920,35.65,117.2833,110.4
梁山,中国,山东省,济宁市,梁山县,54910,54910,35.8125,116.0533,40.9
曲阜,中国,山东省,济宁市,曲阜市,54918,54918,35.6,116.9733,62.3
邹城,中国,山东省,济宁市,邹城市,54919,54919,35.3667,116.9833,89.8
泰山,中国,山东省,泰安市,泰山区,54826,54826,36.25,117.1,1533.7
泰安,中国,山东省,泰安市,泰山区,54827,54827,36.1667,117.15,128.6
宁阳,中国,山东省,泰安市,宁阳县,54913,54913,35.7953,116.8067,67.6
东平,中国,山东省,泰安市,东平县,54911,54911,35.9333,116.4,44
新泰,中国,山东省,泰安市,新泰市,54922,54922,35.8667,117.75,206
肥城,中国,山东省,泰安市,肥城市,54819,54819,36.1833,116.8,113.6
文登,中国,山东省,威海市,文登区,54777,54777,37.2,122.0667,118
成山头,中国,山东省,威海市,荣成市,54776,54776,37.4,122.7,47.7
石岛,中国,山东省,威海市,荣成市,54871,54871,36.9333,122.4833,9.8
乳山,中国,山东省,威海市,乳山市,54861,54861,36.9333,121.5333,45.4
日照,中国,山东省,日照市,东港区,54945,54945,35.4667,119.55,64.4
五莲,中国,山东省,日照市,五莲县,54940,54940,35.75,119.2,148.2
莒县,中国,山东省,日照市,莒县,54936,54936,35.5667,118.8333,107.4
莱芜,中国,山东省,莱芜市, ,54828,54828,36.2333,117.6833,229.3
临沂,中国,山东省,临沂市,兰山区,54938,54938,35.25,118.4167,124
沂南,中国,山东省,临沂市,沂南县,54935,54935,35.5333,118.4333,119.4
沂水,中国,山东省,临沂市,沂水县,54932,54932,35.7667,118.65,186.7
陵城,中国,山东省,临沂市,兰陵县,54715,54715,37.3167,116.5167,17.6
兰陵,中国,山东省,临沂市,兰陵县,58030,58030,34.8833,118.0167,44.5
费县,中国,山东省,临沂市,费县,54929,54929,35.2667,117.9667,121.2
平邑,中国,山东省,临沂市,平邑县,54925,54925,35.5,117.6833,161.2
莒南,中国,山东省,临沂市,莒南县,54939,54939,35.1667,118.8167,113.8
蒙阴,中国,山东省,临沂市,蒙阴县,54923,54923,35.7333,117.95,286.5
临沭,中国,山东省,临沂市,临沭县,58032,58032,34.95,118.65,90.1
德州,中国,山东省,德州市,德城区,54714,54714,37.35,116.3333,25.4
宁津,中国,山东省,德州市,宁津县,54716,54716,37.6667,116.8,17.3
庆云,中国,山东省,德州市,庆云县,54728,54728,37.7667,117.35,10.5
临邑,中国,山东省,德州市,临邑县,54712,54712,37.2,116.8167,18.5
齐河,中国,山东省,德州市,齐河县,54812,54812,36.7333,116.7167,24.7
武城,中国,山东省,德州市,武城县,54709,54709,37.2333,116.0667,24.8
乐陵,中国,山东省,德州市,乐陵市,54726,54726,37.7,117.1833,11.5
聊城,中国,山东省,聊城市,东昌府区,54806,54806,36.3494,115.9761,36.1
阳谷,中国,山东省,聊城市,阳谷县,54807,54807,36.15,115.7667,41.2
莘县,中国,山东省,聊城市,莘县,54808,54808,36.2156,115.6267,38.7
茌平,中国,山东省,聊城市,茌平县,54814,54814,36.5333,116.25,29.7
东阿,中国,山东省,聊城市,东阿县,54815,54815,36.3833,116.2667,31.4
临清,中国,山东省,聊城市,临清市,54802,54802,36.8167,115.7333,34
滨州,中国,山东省,滨州市,滨城区,54734,54734,37.35,118.0333,17.8
惠民,中国,山东省,滨州市,惠民县,54725,54725,37.5,117.5333,11.7
阳信,中国,山东省,滨州市,阳信县,54723,54723,37.65,117.5667,10.1
无棣,中国,山东省,滨州市,无棣县,54722,54722,37.75,117.6333,6.8
邹平,中国,山东省,滨州市,邹平县,54822,54822,36.8667,117.7333,47.4
菏泽,中国,山东省,菏泽市,牡丹区,54906,54906,35.3167,115.5333,50.7
定陶,中国,山东省,菏泽市,定陶区,54909,54909,35.0833,115.5167,51.5
曹县,中国,山东省,菏泽市,曹县,58002,58002,34.85,115.5833,49
单县,中国,山东省,菏泽市,单县,58011,58011,34.8,116.0667,46.2
成武,中国,山东省,菏泽市,成武县,58003,58003,34.95,115.8833,45.4
巨野,中国,山东省,菏泽市,巨野县,54914,54914,35.4167,116.0833,40.6
郓城,中国,山东省,菏泽市,郓城县,54905,54905,35.5833,115.9333,46.2
鄄城,中国,山东省,菏泽市,鄄城县,54904,54904,35.5833,115.5167,50.1
东明,中国,山东省,菏泽市,东明县,54908,54908,35.2667,115.1,57.3
登封,中国,河南省,郑州市,登封市,57082,57082,34.4892,113.1056,413.2
郑州,中国,河南省,郑州市,二七区,57083,57083,34.7064,113.6628,110.4
中牟,中国,河南省,郑州市,中牟县,57090,57090,34.7144,113.9708,78.1
巩义,中国,河南省,郑州市,巩义市,57080,57080,34.8103,112.9803,251.1
荥阳,中国,河南省,郑州市,荥阳市,57081,57081,34.7931,113.3975,140.9
新密,中国,河南省,郑州市,新密市,57085,57085,34.5358,113.3356,259.9
新郑,中国,河南省,郑州市,新郑市,57086,57086,34.3778,113.7156,116.6
嵩山,中国,河南省,郑州市,登封市,57084,57084,34.4922,113.0503,1178.4
开封,中国,河南省,开封市,金明区,57091,57091,34.8022,114.2947,73.7
杞县,中国,河南省,开封市,杞县,57096,57096,34.5406,114.7819,59.7
通许,中国,河南省,开封市,通许县,57191,57191,34.5142,114.4697,64.2
尉氏,中国,河南省,开封市,尉氏县,57094,57094,34.405,114.225,67.4
兰考,中国,河南省,开封市,兰考县,57093,57093,34.8611,114.7989,70.8
孟津,中国,河南省,洛阳市,孟津县,57071,57071,34.8019,112.4672,329.1
新安,中国,河南省,洛阳市,新安县,57070,57070,34.7447,112.1242,364
嵩县,中国,河南省,洛阳市,嵩县,57162,57162,34.1394,112.0672,440.7
汝阳,中国,河南省,洛阳市,汝阳县,57078,57078,34.1603,112.4697,336.5
洛宁,中国,河南省,洛阳市,洛宁县,57066,57066,34.4042,111.6717,408.2
伊川,中国,河南省,洛阳市,伊川县,57074,57074,34.4214,112.3958,252.2
偃师,中国,河南省,洛阳市,偃师市,57076,57076,34.7411,112.785,189.5
宝丰,中国,河南省,平顶山市,宝丰县,57181,57181,33.8725,113.0383,136.4
叶县,中国,河南省,平顶山市,叶县,57184,57184,33.6289,113.2983,97.5
鲁山,中国,河南省,平顶山市,鲁山县,57173,57173,33.7642,112.8867,145.7
郏县,中国,河南省,平顶山市,郏县,57180,57180,34.0247,113.205,184.2
舞钢,中国,河南省,平顶山市,舞钢市,57177,57177,33.3417,113.5372,89.8
汝州,中国,河南省,平顶山市,汝州市,57075,57075,34.2386,112.8919,438.6
安阳,中国,河南省,安阳市,安阳县,53898,53898,36.0536,114.1392,194.8
汤阴,中国,河南省,安阳市,汤阴县,53991,53991,35.9189,114.3283,93
滑县,中国,河南省,安阳市,滑县,53995,53995,35.5233,114.4519,62.1
内黄,中国,河南省,安阳市,内黄县,53993,53993,35.9425,114.91,51.6
林州,中国,河南省,安阳市,林州市,53889,53889,36.0639,113.8744,414.4
浚县,中国,河南省,鹤壁市,浚县,53992,53992,35.6589,114.5183,58.2
淇县,中国,河南省,鹤壁市,淇县,53974,53974,35.6094,114.2336,70.4
新乡,中国,河南省,新乡市,新乡县,53986,53986,35.2247,114.01,74.6
获嘉,中国,河南省,新乡市,获嘉县,53988,53988,35.2661,113.7197,77.4
原阳,中国,河南省,新乡市,原阳县,53989,53989,35.0828,113.9822,75.9
延津,中国,河南省,新乡市,延津县,53997,53997,35.1747,114.1981,70.6
封丘,中国,河南省,新乡市,封丘县,53983,53983,35.0269,114.4117,69.6
长垣,中国,河南省,新乡市,长垣县,53998,53998,35.1933,114.6547,61.6
卫辉,中国,河南省,新乡市,卫辉市,53994,53994,35.4311,114.0961,68.1
辉县,中国,河南省,新乡市,辉县市,53985,53985,35.4933,113.8111,140.7
焦作,中国,河南省,焦作市,山阳区,53982,53982,35.2408,113.2664,112
修武,中国,河南省,焦作市,修武县,53984,53984,35.2267,113.4619,82.7
博爱,中国,河南省,焦作市,博爱县,53979,53979,35.1547,113.0783,120
武陟,中国,河南省,焦作市,武陟县,53987,53987,35.1053,113.3578,94.5
温县,中国,河南省,焦作市,温县,57079,57079,34.9506,113.0406,106.4
沁阳,中国,河南省,焦作市,沁阳市,53972,53972,35.0486,112.8997,117.5
孟州,中国,河南省,焦作市,孟州市,57072,57072,34.9139,112.7564,127.5
清丰,中国,河南省,濮阳市,清丰县,54902,54902,35.9419,115.1428,49.3
南乐,中国,河南省,濮阳市,南乐县,54901,54901,36.0581,115.2414,46.6
范县,中国,河南省,濮阳市,范县,54903,54903,35.8492,115.4761,46
台前,中国,河南省,濮阳市,台前县,54817,54817,35.9842,115.8619,42.1
濮阳,中国,河南省,濮阳市,濮阳县,54900,54900,35.6967,115.0317,53.7
鄢陵,中国,河南省,许昌市,鄢陵县,57095,57095,34.1139,114.1575,61.1
襄城,中国,河南省,许昌市,襄城县,57182,57182,33.8511,113.5203,80.4
许昌,中国,河南省,许昌市,许昌经济技术开发区,57089,57089,34.0733,113.9258,67.2
禹州,中国,河南省,许昌市,禹州市,57088,57088,34.1864,113.5033,146
长葛,中国,河南省,许昌市,长葛市,57087,57087,34.2744,113.7406,104.1
漯河,中国,河南省,漯河市,郾城区,57186,57186,33.6025,114.0561,58.7
舞阳,中国,河南省,漯河市,舞阳县,57185,57185,33.46,113.5889,91.1
临颍,中国,河南省,漯河市,临颍县,57183,57183,33.8003,113.925,60
三门峡,中国,河南省,三门峡市,湖滨区,57051,57051,34.7225,111.2428,575.6
渑池,中国,河南省,三门峡市,渑池县,57063,57063,34.7511,111.7628,542
灵宝,中国,河南省,三门峡市,灵宝市,57056,57056,34.5375,110.8558,484.5
南阳,中国,河南省,南阳市,卧龙区,57178,57178,33.1008,112.4869,180.6
南召,中国,河南省,南阳市,南召县,57176,57176,33.4278,112.4636,244
方城,中国,河南省,南阳市,方城县,57179,57179,33.2819,112.9942,164.3
西峡,中国,河南省,南阳市,西峡县,57156,57156,33.3086,111.4867,250.3
镇平,中国,河南省,南阳市,镇平县,57175,57175,33.0756,112.2439,239.7
内乡,中国,河南省,南阳市,内乡县,57169,57169,33.15,111.8833,221.2
淅川,中国,河南省,南阳市,淅川县,57261,57261,33.1228,111.5239,248.4
社旗,中国,河南省,南阳市,社旗县,57187,57187,33.0347,112.9625,116.8
唐河,中国,河南省,南阳市,唐河县,57273,57273,32.7333,112.7953,96.7
新野,中国,河南省,南阳市,新野县,57271,57271,32.5825,112.3717,89.5
桐柏,中国,河南省,南阳市,桐柏县,57285,57285,32.3569,113.3992,183.6
邓州,中国,河南省,南阳市,邓州市,57274,57274,32.6997,111.9783,120
商丘,中国,河南省,商丘市,梁园区,58005,58005,34.4372,115.5353,50.8
民权,中国,河南省,商丘市,民权县,58004,58004,34.6194,115.1944,61.6
睢县,中国,河南省,商丘市,睢县,58001,58001,34.4769,115.0325,56.1
宁陵,中国,河南省,商丘市,宁陵县,58008,58008,34.4867,115.3156,55.8
柘城,中国,河南省,商丘市,柘城县,58007,58007,34.0983,115.3592,45.7
虞城,中国,河南省,商丘市,虞城县,58006,58006,34.3903,115.8794,46.3
夏邑,中国,河南省,商丘市,夏邑县,58017,58017,34.2831,116.1508,42.6
永城,中国,河南省,商丘市,永城市,58111,58111,33.8558,116.4247,32.1
信阳,中国,河南省,信阳市,浉河区,57297,57297,32.1372,114.0433,114.5
鸡公山,中国,河南省,信阳市,浉河区,57390,57390,31.8006,114.0744,733.5
罗山,中国,河南省,信阳市,罗山县,57298,57298,32.2075,114.5383,55.4
光山,中国,河南省,信阳市,光山县,57299,57299,32.0056,114.8864,49.4
新县,中国,河南省,信阳市,新县,57396,57396,31.6356,114.8678,128.7
商城,中国,河南省,信阳市,商城县,58301,58301,31.8231,115.3911,92.1
固始,中国,河南省,信阳市,固始县,58208,58208,32.1717,115.6239,42.9
潢川,中国,河南省,信阳市,潢川县,58207,58207,32.1603,115.0469,42.8
淮滨,中国,河南省,信阳市,淮滨县,58205,58205,32.4656,115.4236,34.9
息县,中国,河南省,信阳市,息县,57296,57296,32.3431,114.6603,34.2
川汇区,中国,河南省,周口市,川汇区,57195,57195,33.6117,114.6317,46.6
扶沟,中国,河南省,周口市,扶沟县,57098,57098,34.0825,114.4103,58.3
黄泛区,中国,河南省,周口市,西华县,57190,57190,33.7406,114.4192,50.5
西华,中国,河南省,周口市,西华县,57193,57193,33.7836,114.5192,52.6
商水,中国,河南省,周口市,商水县,57198,57198,33.495,114.5644,44.6
沈丘,中国,河南省,周口市,沈丘县,58104,58104,33.3994,115.0528,41.2
郸城,中国,河南省,周口市,郸城县,58100,58100,33.6292,115.1411,42.4
淮阳,中国,河南省,周口市,淮阳县,57192,57192,33.7064,114.8847,44.3
太康,中国,河南省,周口市,太康县,57099,57099,34.0744,114.8497,52.6
鹿邑,中国,河南省,周口市,鹿邑县,58101,58101,33.8817,115.4933,41.3
项城,中国,河南省,周口市,项城市,57196,57196,33.4111,114.8714,43.6
驻马店,中国,河南省,驻马店市,驿城区,57290,57290,32.9403,113.9131,106.2
西平,中国,河南省,驻马店市,西平县,57188,57188,33.3703,114.0436,55.9
上蔡,中国,河南省,驻马店市,上蔡县,57194,57194,33.2731,114.3011,53.4
平舆,中国,河南省,驻马店市,平舆县,57292,57292,32.9014,114.6147,44.9
正阳,中国,河南省,驻马店市,正阳县,57295,57295,32.6217,114.3283,85
确山,中国,河南省,驻马店市,确山县,57294,57294,32.7981,113.9544,113.7
泌阳,中国,河南省,驻马店市,泌阳县,57281,57281,32.6825,113.3033,160.8
汝南,中国,河南省,驻马店市,汝南县,57197,57197,32.9608,114.3461,50.1
遂平,中国,河南省,驻马店市,遂平县,57189,57189,33.1486,113.9611,64.6
新蔡,中国,河南省,驻马店市,新蔡县,57293,57293,32.7369,114.9753,38
济源,中国,河南省,省直辖县级行政区划,济源市,53978,53978,35.0867,112.6311,140.1
武汉,中国,湖北省,武汉市,东西湖区,57494,57494,30.5978,114.0506,23.6
蔡甸,中国,湖北省,武汉市,蔡甸区,57489,57489,30.5233,114.0064,23.6
新洲,中国,湖北省,武汉市,新洲区,57492,57492,30.8383,114.8381,40.7
阳新,中国,湖北省,黄石市,阳新县,58500,58500,29.9,115.2167,57
大冶,中国,湖北省,黄石市,大冶市,57499,57499,30.0744,114.875,40.3
十堰,中国,湖北省,十堰市,茅箭区,57256,57256,32.65,110.7833,286.5
郧阳,中国,湖北省,十堰市,郧阳区,57253,57253,32.84,110.8669,244.8
郧西,中国,湖北省,十堰市,郧西县,57251,57251,33.0028,110.4078,317.3
竹山,中国,湖北省,十堰市,竹山县,57257,57257,32.2256,110.2261,307
竹溪,中国,湖北省,十堰市,竹溪县,57249,57249,32.3244,109.6889,448.2
房县,中国,湖北省,十堰市,房县,57259,57259,32.0511,110.7475,426.9
丹江口,中国,湖北省,十堰市,丹江口市,57260,57260,32.5486,111.5125,133.4
宜昌,中国,湖北省,宜昌市,西陵区,57461,57461,30.7367,111.3592,256.5
夷陵,中国,湖北省,宜昌市,夷陵区,57453,57453,30.7619,111.4164,188.1
兴山,中国,湖北省,宜昌市,兴山县,57359,57359,31.3453,110.7417,336.8
长阳,中国,湖北省,宜昌市,长阳土家族自治县,57464,57464,30.4717,111.1819,177.9
五峰,中国,湖北省,宜昌市,五峰土家族自治县,57458,57458,30.1511,111.0683,243.2
宜都,中国,湖北省,宜昌市,宜都市,57465,57465,30.3622,111.4319,120.1
襄阳,中国,湖北省,襄阳市,襄城区,57278,57278,32.0028,112.0761,163.4
潜江,中国,湖北省,襄阳市,襄城区,57475,57475,30.4036,112.9011,31.2
仙桃,中国,湖北省,襄阳市,襄城区,57485,57485,30.2953,113.4828,24.3
南漳,中国,湖北省,襄阳市,南漳县,57363,57363,31.8,111.8333,151
谷城,中国,湖北省,襄阳市,谷城县,57268,57268,32.2722,111.6214,120
保康,中国,湖北省,襄阳市,保康县,57361,57361,31.8789,111.2583,327.7
老河口,中国,湖北省,襄阳市,老河口市,57265,57265,32.4319,111.7319,132.1
枣阳,中国,湖北省,襄阳市,枣阳市,57279,57279,32.1411,112.7553,125.5
宜城,中国,湖北省,襄阳市,宜城市,57370,57370,31.7333,112.2167,67.8
鄂州,中国,湖北省,鄂州市,梁子湖区,57496,57496,30.25,114.6167,35.3
荆门,中国,湖北省,荆门市,掇刀区,57377,57377,30.9928,112.2122,191.9
京山,中国,湖北省,荆门市,京山县,57387,57387,30.9997,113.1317,84.6
沙洋,中国,湖北省,荆门市,沙洋县,57484,57484,30.7364,112.5489,57.2
钟祥,中国,湖北省,荆门市,钟祥市,57378,57378,31.1983,112.6325,108
孝感,中国,湖北省,孝感市,孝南区,57482,57482,30.9031,113.9458,25.5
孝昌,中国,湖北省,孝感市,孝昌县,57386,57386,31.2519,113.9997,51.6
大悟,中国,湖北省,孝感市,大悟县,57395,57395,31.5883,114.1675,120
云梦,中国,湖北省,孝感市,云梦县,57389,57389,31.0269,113.7486,32.2
应城,中国,湖北省,孝感市,应城市,57481,57481,30.9561,113.5753,30.4
安陆,中国,湖北省,孝感市,安陆市,57388,57388,31.27,113.7133,53.7
汉川,中国,湖北省,孝感市,汉川市,57486,57486,30.65,113.85,25
荆州,中国,湖北省,荆州市,荆州区,57476,57476,30.35,112.15,31.8
公安,中国,湖北省,荆州市,公安县,57477,57477,30.0708,112.2158,38.4
监利,中国,湖北省,荆州市,监利县,57573,57573,29.8753,112.9044,26.2
石首,中国,湖北省,荆州市,石首市,57571,57571,29.6592,112.4125,37.4
洪湖,中国,湖北省,荆州市,洪湖市,57581,57581,29.8122,113.4422,24.7
松滋,中国,湖北省,荆州市,松滋市,57469,57469,30.1786,111.68,106.6
黄冈,中国,湖北省,黄冈市,黄州区,57498,57498,30.5156,114.9369,26.2
团风,中国,湖北省,黄冈市,团风县,57495,57495,30.6636,114.8839,28.1
红安,中国,湖北省,黄冈市,红安县,57398,57398,31.2803,114.6206,74.3
罗田,中国,湖北省,黄冈市,罗田县,58401,58401,30.75,115.4,123.1
英山,中国,湖北省,黄冈市,英山县,58402,58402,30.7294,115.6675,121.9
浠水,中国,湖北省,黄冈市,浠水县,58404,58404,30.4667,115.2167,61.8
蕲春,中国,湖北省,黄冈市,蕲春县,58408,58408,30.2378,115.4736,71.7
黄梅,中国,湖北省,黄冈市,黄梅县,58409,58409,30.0978,115.9314,32
麻城,中国,湖北省,黄冈市,麻城市,57399,57399,31.1308,114.9547,74.3
武穴,中国,湖北省,黄冈市,武穴市,58501,58501,29.9167,115.6333,23.5
咸宁,中国,湖北省,咸宁市,咸安区,57590,57590,29.8514,114.3669,98.8
嘉鱼,中国,湖北省,咸宁市,嘉鱼县,57583,57583,29.9231,113.9647,61.7
通城,中国,湖北省,咸宁市,通城县,57589,57589,29.2739,113.8786,146.2
崇阳,中国,湖北省,咸宁市,崇阳县,57586,57586,29.54,114.0386,78.5
金沙,中国,湖北省,咸宁市,崇阳县,57596,57596,29.6347,114.2053,751.6
赤壁,中国,湖北省,咸宁市,赤壁市,57582,57582,29.72,113.8667,46.9
随州,中国,湖北省,随州市,曾都区,57381,57381,31.6192,113.3386,106.5
恩施,中国,湖北省,恩施土家族苗族自治州,恩施市,57447,57447,30.2861,109.4711,454.4
利川,中国,湖北省,恩施土家族苗族自治州,利川市,57439,57439,30.2833,108.9333,1074.1
建始,中国,湖北省,恩施土家族苗族自治州,建始县,57445,57445,30.6,109.72,609.2
巴东,中国,湖北省,恩施土家族苗族自治州,巴东县,57355,57355,31.0483,110.35,337.5
宣恩,中国,湖北省,恩施土家族苗族自治州,宣恩县,57541,57541,29.9986,109.4753,571.8
咸丰,中国,湖北省,恩施土家族苗族自治州,咸丰县,57540,57540,29.6844,109.1436,776.9
来凤,中国,湖北省,恩施土家族苗族自治州,来凤县,57545,57545,29.5278,109.4208,502.8
鹤峰,中国,湖北省,恩施土家族苗族自治州,鹤峰县,57543,57543,29.8839,110.0253,539.8
天门,中国,湖北省,省直辖县级行政区划,天门市,57483,57483,30.6694,113.1344,31.9
神农架,中国,湖北省,省直辖县级行政区划,神农架林区,57362,57362,31.7483,110.66,935.2
长沙,中国,湖南省,长沙市,市辖区,57687,57687,28.1086,112.7864,119
黄花,中国,湖南省,长沙市,长沙县,57679,57679,28.2117,113.1972,101.4
浏阳,中国,湖南省,长沙市,浏阳市,57688,57688,28.1561,113.6306,101.1
宁乡,中国,湖南省,长沙市,宁乡市,57678,57678,28.2544,112.555,74.7
株洲,中国,湖南省,株洲市,荷塘区,57780,57780,27.8689,113.1736,74.6
攸县,中国,湖南省,株洲市,攸县,57779,57779,27.0556,113.3531,115.2
茶陵,中国,湖南省,株洲市,茶陵县,57882,57882,26.7947,113.5478,136.2
炎陵,中国,湖南省,株洲市,炎陵县,57886,57886,26.4778,113.7919,268.8
醴陵,中国,湖南省,株洲市,醴陵市,57781,57781,27.6406,113.5064,72.7
湘潭,中国,湖南省,湘潭市,湘潭县,57773,57773,27.8756,112.8275,63.8
湘乡,中国,湖南省,湘潭市,湘乡市,57772,57772,27.7508,112.5061,86.9
韶山,中国,湖南省,湘潭市,韶山市,57771,57771,27.9275,112.53,88.3
衡阳,中国,湖南省,衡阳市,蒸湘区,57872,57872,26.8892,112.5958,104.9
南岳,中国,湖南省,衡阳市,南岳区,57776,57776,27.2961,112.6936,1265.9
衡阳县,中国,湖南省,衡阳市,衡阳县,57871,57871,26.9742,112.3669,90.8
衡南,中国,湖南省,衡阳市,衡南县,57875,57875,26.755,112.6914,137
衡山,中国,湖南省,衡阳市,衡山县,57777,57777,27.2581,112.8372,159.1
衡东,中国,湖南省,衡阳市,衡东县,57778,57778,27.0914,112.9464,70.3
祁东,中国,湖南省,衡阳市,祁东县,57870,57870,26.7633,112.0825,218.9
耒阳,中国,湖南省,衡阳市,耒阳市,57876,57876,26.4278,112.8294,135
常宁,中国,湖南省,衡阳市,常宁市,57874,57874,26.4086,112.3942,116.6
岳阳,中国,湖南省,岳阳市,岳阳楼区,57584,57584,29.3806,113.0878,53
华容,中国,湖南省,岳阳市,华容县,57575,57575,29.5364,112.5981,49.5
湘阴,中国,湖南省,岳阳市,湘阴县,57673,57673,28.7283,112.9253,63
平江,中国,湖南省,岳阳市,平江县,57682,57682,28.7119,113.5714,106.3
汨罗,中国,湖南省,岳阳市,汨罗市,57680,57680,28.8564,113.1069,82.5
临湘,中国,湖南省,岳阳市,临湘市,57585,57585,29.4811,113.4478,60.4
常德,中国,湖南省,常德市,市辖区,57662,57662,29.1169,111.6764,150.6
安乡,中国,湖南省,常德市,安乡县,57577,57577,29.41,112.2047,33.6
汉寿,中国,湖南省,常德市,汉寿县,57663,57663,28.9203,111.9583,31.9
澧县,中国,湖南省,常德市,澧县,57565,57565,29.6675,111.7258,38.1
临澧,中国,湖南省,常德市,临澧县,57566,57566,29.4692,111.6686,89.3
桃源,中国,湖南省,常德市,桃源县,57661,57661,28.9133,111.4797,48.7
石门,中国,湖南省,常德市,石门县,57562,57562,29.5833,111.3633,116.9
张家界,中国,湖南省,张家界市,永定区,57558,57558,29.1183,110.4172,218.5
慈利,中国,湖南省,张家界市,慈利县,57564,57564,29.4317,111.0878,174.1
桑植,中国,湖南省,张家界市,桑植县,57554,57554,29.4014,110.1622,322.2
赫山,中国,湖南省,益阳市,赫山区,57674,57674,28.5719,112.3781,46.3
南县,中国,湖南省,益阳市,南县,57574,57574,29.3517,112.4317,40.3
桃江,中国,湖南省,益阳市,桃江县,57666,57666,28.5061,112.1711,136.9
安化,中国,湖南省,益阳市,安化县,57669,57669,28.3761,111.2458,196
沅江,中国,湖南省,益阳市,沅江市,57671,57671,28.85,112.3722,37
郴州,中国,湖南省,郴州市,北湖区,57972,57972,25.7356,112.9772,368.6
桂阳,中国,湖南省,郴州市,桂阳县,57973,57973,25.7494,112.7247,329.1
宜章,中国,湖南省,郴州市,宜章县,57976,57976,25.4058,112.9406,222.8
永兴,中国,湖南省,郴州市,永兴县,57887,57887,26.1269,113.1144,167.6
嘉禾,中国,湖南省,郴州市,嘉禾县,57974,57974,25.5814,112.3653,214.5
临武,中国,湖南省,郴州市,临武县,57978,57978,25.2731,112.5464,292
汝城,中国,湖南省,郴州市,汝城县,57985,57985,25.5144,113.6819,645.6
桂东,中国,湖南省,郴州市,桂东县,57889,57889,26.0797,113.9447,835.9
安仁,中国,湖南省,郴州市,安仁县,57881,57881,26.7139,113.2586,101.8
资兴,中国,湖南省,郴州市,资兴市,57981,57981,25.9744,113.2172,139.3
永州,中国,湖南省,永州市,零陵区,57866,57866,26.2258,111.6167,172.6
冷水滩,中国,湖南省,永州市,冷水滩区,57865,57865,26.4956,111.6161,192.8
祁阳,中国,湖南省,永州市,祁阳县,57868,57868,26.5947,111.8572,113.2
东安,中国,湖南省,永州市,东安县,57867,57867,26.4022,111.2886,169
双牌,中国,湖南省,永州市,双牌县,57962,57962,26.0322,111.6556,205
道县,中国,湖南省,永州市,道县,57965,57965,25.5336,111.5953,192.2
江永,中国,湖南省,永州市,江永县,57969,57969,25.2761,111.3094,269
宁远,中国,湖南省,永州市,宁远县,57966,57966,25.5944,111.9594,244.2
蓝山,中国,湖南省,永州市,蓝山县,57975,57975,25.3786,112.1975,277
新田,中国,湖南省,永州市,新田县,57971,57971,25.9114,112.2067,224.2
江华,中国,湖南省,永州市,江华瑶族自治县,59063,59063,25.1819,111.5703,265.7
沅陵,中国,湖南省,怀化市,沅陵县,57655,57655,28.4633,110.4031,151.6
辰溪,中国,湖南省,怀化市,辰溪县,57658,57658,28.0069,110.1928,152.8
溆浦,中国,湖南省,怀化市,溆浦县,57752,57752,27.9167,110.6,204
麻阳,中国,湖南省,怀化市,麻阳苗族自治县,57743,57743,27.8706,109.7961,176.6
新晃,中国,湖南省,怀化市,新晃侗族自治县,57744,57744,27.3681,109.1636,355.5
芷江,中国,湖南省,怀化市,芷江侗族自治县,57745,57745,27.4547,109.6811,272.2
通道,中国,湖南省,怀化市,通道侗族自治县,57845,57845,26.1667,109.7833,397.5
洪江,中国,湖南省,怀化市,洪江市,57754,57754,27.2117,109.8353,252
娄底,中国,湖南省,娄底市,娄星区,57763,57763,27.6908,112.0011,205.8
双峰,中国,湖南省,娄底市,双峰县,57774,57774,27.4486,112.1733,100
新化,中国,湖南省,娄底市,新化县,57761,57761,27.7464,111.2939,211.9
冷水江,中国,湖南省,娄底市,冷水江市,57760,57760,27.6964,111.4367,249.2
涟源,中国,湖南省,娄底市,涟源市,57762,57762,27.7053,111.6786,249.2
吉首,中国,湖南省,湘西土家族苗族自治州,吉首市,57649,57649,28.2381,109.6819,254.6
泸溪,中国,湖南省,湘西土家族苗族自治州,泸溪县,57657,57657,28.2269,110.2058,186
凤凰,中国,湖南省,湘西土家族苗族自治州,凤凰县,57740,57740,27.9528,109.5953,349.6
花垣,中国,湖南省,湘西土家族苗族自治州,花垣县,57640,57640,28.5772,109.4567,341
保靖,中国,湖南省,湘西土家族苗族自治州,保靖县,57642,57642,28.6808,109.6481,438.1
古丈,中国,湖南省,湘西土家族苗族自治州,古丈县,57646,57646,28.6244,109.9661,302.1
永顺,中国,湖南省,湘西土家族苗族自治州,永顺县,57643,57643,29.0078,109.8383,268.2
龙山,中国,湖南省,湘西土家族苗族自治州,龙山县,57544,57544,29.4581,109.4433,488.7
广州,中国,广东省,广州市,黄埔区,59287,59287,23.21,113.4822,70.7
番禺,中国,广东省,广州市,番禺区,59481,59481,22.9619,113.3628,66.6
花都,中国,广东省,广州市,花都区,59284,59284,23.4203,113.2367,38.9
从化,中国,广东省,广州市,从化区,59285,59285,23.5686,113.6156,38.1
增城,中国,广东省,广州市,增城区,59294,59294,23.3353,113.8275,30.7
韶关,中国,广东省,韶关市,曲江区,59082,59082,24.6667,113.6,121.3
始兴,中国,广东省,韶关市,始兴县,59090,59090,24.9611,114.0467,143.9
仁化,中国,广东省,韶关市,仁化县,57989,57989,25.0589,113.7631,112.7
翁源,中国,广东省,韶关市,翁源县,59094,59094,24.3483,114.1133,184.1
乳源,中国,广东省,韶关市,乳源瑶族自治县,59081,59081,24.7844,113.2867,131.1
新丰,中国,广东省,韶关市,新丰县,59097,59097,24.0408,114.2139,269.3
乐昌,中国,广东省,韶关市,乐昌市,57988,57988,25.1103,113.345,143.2
南雄,中国,广东省,韶关市,南雄市,57996,57996,25.0806,114.255,149.7
深圳,中国,广东省,深圳市,福田区,59493,59493,22.5417,114.0033,63
珠海,中国,广东省,珠海市,市辖区,59488,59488,22.275,113.5669,51.4
斗门,中国,广东省,珠海市,斗门区,59487,59487,22.2292,113.2969,23.1
汕头,中国,广东省,汕头市,市辖区,59316,59316,23.3853,116.6792,2.3
潮阳,中国,广东省,汕头市,潮阳区,59318,59318,23.2581,116.5886,6.7
澄海,中国,广东省,汕头市,澄海区,59319,59319,23.4308,116.8361,4.1
南澳,中国,广东省,汕头市,南澳县,59324,59324,23.4275,117.0292,8
南海,中国,广东省,佛山市,南海区,59288,59288,23.145,113.0089,30.1
顺德,中国,广东省,佛山市,顺德区,59480,59480,22.8486,113.2442,21.4
三水,中国,广东省,佛山市,三水区,59279,59279,23.1969,112.8767,24
新会,中国,广东省,江门市,新会区,59476,59476,22.5319,113.0347,36.3
台山,中国,广东省,江门市,台山市,59478,59478,22.2472,112.7858,33.1
上川岛,中国,广东省,江门市,台山市,59673,59673,21.7358,112.7731,21.9
开平,中国,广东省,江门市,开平市,59475,59475,22.4036,112.6517,29.3
鹤山,中国,广东省,江门市,鹤山市,59473,59473,22.7372,112.9811,47.3
恩平,中国,广东省,江门市,恩平市,59477,59477,22.2658,112.2306,69.3
湛江,中国,广东省,湛江市,麻章区,59658,59658,21.1547,110.3022,53.4
遂溪,中国,广东省,湛江市,遂溪县,59650,59650,21.4036,110.2444,29.7
徐闻,中国,广东省,湛江市,徐闻县,59754,59754,20.2428,110.165,11.4
廉江,中国,广东省,湛江市,廉江市,59654,59654,21.6331,110.3033,29.3
雷州,中国,广东省,湛江市,雷州市,59750,59750,20.9619,110.0678,33.6
吴川,中国,广东省,湛江市,吴川市,59656,59656,21.4058,110.81,27.3
茂名,中国,广东省,茂名市,茂南区,59659,59659,21.7494,110.9122,33.5
电白,中国,广东省,茂名市,电白区,59664,59664,21.5458,110.9886,31.8
高州,中国,广东省,茂名市,高州市,59653,59653,21.9425,110.8592,77
化州,中国,广东省,茂名市,化州市,59655,59655,21.6472,110.6144,31.9
信宜,中国,广东省,茂名市,信宜市,59456,59456,22.3469,110.925,141.4
高要,中国,广东省,肇庆市,高要区,59278,59278,22.9906,112.4786,60
广宁,中国,广东省,肇庆市,广宁县,59271,59271,23.6372,112.4242,92.7
怀集,中国,广东省,肇庆市,怀集县,59270,59270,23.9397,112.1903,107.2
封开,中国,广东省,肇庆市,封开县,59264,59264,23.3917,111.5047,83.6
德庆,中国,广东省,肇庆市,德庆县,59269,59269,23.165,111.7775,47.2
四会,中国,广东省,肇庆市,四会市,59276,59276,23.3442,112.6439,40.1
惠阳,中国,广东省,惠州市,惠阳区,59298,59298,23.0711,114.3744,108.5
博罗,中国,广东省,惠州市,博罗县,59297,59297,23.1786,114.2564,50.2
惠东,中国,广东省,惠州市,惠东县,59492,59492,23.0261,114.6683,85
龙门,中国,广东省,惠州市,龙门县,59290,59290,23.7808,114.2483,85.5
梅县,中国,广东省,梅州市,市辖区,59117,59117,24.2811,116.0692,116
大埔,中国,广东省,梅州市,大埔县,59116,59116,24.3508,116.7081,237.1
丰顺,中国,广东省,梅州市,丰顺县,59310,59310,23.77,116.1744,45.3
五华,中国,广东省,梅州市,五华县,59303,59303,23.9114,115.7514,135.9
平远,中国,广东省,梅州市,平远县,59106,59106,24.5625,115.8706,200.8
蕉岭,中国,广东省,梅州市,蕉岭县,59114,59114,24.6453,116.17,135.7
兴宁,中国,广东省,梅州市,兴宁市,59109,59109,24.1678,115.7156,123.6
汕尾,中国,广东省,汕尾市,市辖区,59501,59501,22.7917,115.3606,16.7
海丰,中国,广东省,汕尾市,海丰县,59500,59500,23.0181,115.3125,45.6
陆丰,中国,广东省,汕尾市,陆丰市,59502,59502,22.9653,115.6519,32
紫金,中国,广东省,河源市,紫金县,59304,59304,23.6286,115.1761,176.6
龙川,中国,广东省,河源市,龙川县,59107,59107,24.1142,115.2758,179.6
连平,中国,广东省,河源市,连平县,59096,59096,24.3886,114.4958,283.9
和平,中国,广东省,河源市,和平县,59099,59099,24.4631,114.9419,207.9
河源,中国,广东省,河源市,东源县,59293,59293,23.7936,114.7297,71.1
阳江,中国,广东省,阳江市,江城区,59663,59663,21.8453,111.9783,90.3
阳春,中国,广东省,阳江市,阳春市,59469,59469,22.1642,111.7872,37.6
清远,中国,广东省,清远市,清城区,59280,59280,23.7106,113.085,79.2
佛冈,中国,广东省,清远市,佛冈县,59087,59087,23.8814,113.5228,97.2
阳山,中国,广东省,清远市,阳山县,59075,59075,24.4731,112.6319,70.5
连山,中国,广东省,清远市,连山壮族瑶族自治县,59074,59074,24.5728,112.0728,300.6
连南,中国,广东省,清远市,连南瑶族自治县,59071,59071,24.7322,112.2778,174.3
英德,中国,广东省,清远市,英德市,59088,59088,24.1906,113.4133,74.4
连州,中国,广东省,清远市,连州市,59072,59072,24.8108,112.3708,131.7
东莞,中国,广东省,东莞市, ,59289,59289,22.9661,113.7389,56
中山,中国,广东省,中山市, ,59485,59485,22.5105,113.4056,33.8
潮州,中国,广东省,潮州市,湘桥区,59312,59312,23.6686,116.6989,60.7
饶平,中国,广东省,潮州市,饶平县,59313,59313,23.6794,116.9861,44.7
揭阳,中国,广东省,揭阳市,揭东区,59315,59315,23.5883,116.3994,43.9
揭西,中国,广东省,揭阳市,揭西县,59306,59306,23.4497,115.8492,80.9
惠来,中国,广东省,揭阳市,惠来县,59317,59317,22.9836,116.3014,42
普宁,中国,广东省,揭阳市,普宁市,59314,59314,23.3983,116.1964,69
云浮,中国,广东省,云浮市,云城区,59471,59471,22.9414,112.0525,101.4
新兴,中国,广东省,云浮市,新兴县,59470,59470,22.7019,112.2083,57.6
郁南,中国,广东省,云浮市,郁南县,59268,59268,23.2597,111.5431,70.6
罗定,中国,广东省,云浮市,罗定市,59462,59462,22.71,111.6,60
南宁,中国,广西壮族自治区,南宁市,邕宁区,59431,59431,22.7842,108.5461,152
邕宁,中国,广西壮族自治区,南宁市,邕宁区,59435,59435,22.6894,108.4544,106.9
武鸣,中国,广西壮族自治区,南宁市,武鸣区,59237,59237,23.1881,108.2986,155.3
隆安,中国,广西壮族自治区,南宁市,隆安县,59229,59229,23.1719,107.7067,125.7
马山,中国,广西壮族自治区,南宁市,马山县,59230,59230,23.7197,108.1214,219
上林,中国,广西壮族自治区,南宁市,上林县,59235,59235,23.3786,108.6189,140.3
宾阳,中国,广西壮族自治区,南宁市,宾阳县,59238,59238,23.2444,108.8306,127.7
横县,中国,广西壮族自治区,南宁市,横县,59441,59441,22.7978,109.2531,88.7
沙塘,中国,广西壮族自治区,柳州市,柳北区,59044,59044,24.4586,109.3775,97.5
柳州,中国,广西壮族自治区,柳州市,柳北区,59046,59046,24.3628,109.46,306
柳江,中国,广西壮族自治区,柳州市,柳江区,59047,59047,24.2392,109.2797,133.7
柳城,中国,广西壮族自治区,柳州市,柳城县,59041,59041,24.6453,109.2486,218.6
鹿寨,中国,广西壮族自治区,柳州市,鹿寨县,59045,59045,24.4922,109.7869,131.5
融安,中国,广西壮族自治区,柳州市,融安县,57947,57947,25.2408,109.4072,161.5
融水,中国,广西壮族自治区,柳州市,融水苗族自治县,57948,57948,25.1133,109.2453,238.3
三江,中国,广西壮族自治区,柳州市,三江侗族自治县,57941,57941,25.7894,109.6028,197.3
桂林,中国,广西壮族自治区,桂林市,叠彩区,57957,57957,25.3225,110.3047,164.4
临桂,中国,广西壮族自治区,桂林市,临桂区,57954,57954,25.2278,110.1472,222.5
灵川,中国,广西壮族自治区,桂林市,灵川县,57956,57956,25.4281,110.3397,191
全州,中国,广西壮族自治区,桂林市,全州县,57960,57960,25.9347,111.0661,195.6
兴安,中国,广西壮族自治区,桂林市,兴安县,57955,57955,25.6178,110.6597,224
永福,中国,广西壮族自治区,桂林市,永福县,57949,57949,24.9867,109.9933,156.8
灌阳,中国,广西壮族自治区,桂林市,灌阳县,57964,57964,25.4867,111.1461,263.1
龙胜,中国,广西壮族自治区,桂林市,龙胜各族自治县,57942,57942,25.8061,110.0131,268
资源,中国,广西壮族自治区,桂林市,资源县,57859,57859,26.0333,110.6392,408.4
平乐,中国,广西壮族自治区,桂林市,平乐县,59053,59053,24.6478,110.6358,157.6
荔浦,中国,广西壮族自治区,桂林市,荔浦县,59055,59055,24.4967,110.4044,165.7
恭城,中国,广西壮族自治区,桂林市,恭城瑶族自治县,59052,59052,24.8375,110.8236,169.6
梧州,中国,广西壮族自治区,梧州市,万秀区,59265,59265,23.4783,111.3039,114.8
龙圩,中国,广西壮族自治区,梧州市,苍梧县,59266,59266,23.3789,111.2556,77.7
藤县,中国,广西壮族自治区,梧州市,藤县,59256,59256,23.3731,110.905,105.5
蒙山,中国,广西壮族自治区,梧州市,蒙山县,59058,59058,24.2036,110.5108,181.9
岑溪,中国,广西壮族自治区,梧州市,岑溪市,59454,59454,22.9533,110.9958,202
北海,中国,广西壮族自治区,北海市,海城区,59644,59644,21.4475,109.1836,10.3
合浦,中国,广西壮族自治区,北海市,合浦县,59640,59640,21.67,109.18,5.5
防城港,中国,广西壮族自治区,防城港市,港口区,59635,59635,21.6669,108.3919,49.3
上思,中国,广西壮族自治区,防城港市,上思县,59429,59429,22.1828,108.0133,216
钦州,中国,广西壮族自治区,钦州市,钦南区,59632,59632,21.9797,108.595,49.2
灵山,中国,广西壮族自治区,钦州市,灵山县,59446,59446,22.4169,109.3019,66.6
浦北,中国,广西壮族自治区,钦州市,浦北县,59448,59448,22.2572,109.5531,69.6
平南,中国,广西壮族自治区,贵港市,平南县,59255,59255,23.5431,110.4194,83
容县,中国,广西壮族自治区,玉林市,容县,59452,59452,22.8306,110.5331,131.5
陆川,中国,广西壮族自治区,玉林市,陆川县,59457,59457,22.3225,110.2689,121.6
博白,中国,广西壮族自治区,玉林市,博白县,59449,59449,22.2981,109.9897,85.9
北流,中国,广西壮族自治区,玉林市,北流市,59451,59451,22.6633,110.3781,155.1
百色,中国,广西壮族自治区,百色市,右江区,59211,59211,23.9028,106.6064,174.7
田东,中国,广西壮族自治区,百色市,田东县,59224,59224,23.5922,107.1214,111.2
平果,中国,广西壮族自治区,百色市,平果县,59228,59228,23.2911,107.5694,146.4
德保,中国,广西壮族自治区,百色市,德保县,59215,59215,23.3289,106.6275,680
那坡,中国,广西壮族自治区,百色市,那坡县,59209,59209,23.4142,105.8189,855.8
凌云,中国,广西壮族自治区,百色市,凌云县,59015,59015,24.3794,106.5369,544.6
乐业,中国,广西壮族自治区,百色市,乐业县,59012,59012,24.7506,106.5592,1030.9
田林,中国,广西壮族自治区,百色市,田林县,59017,59017,24.2658,106.2603,278.2
西林,中国,广西壮族自治区,百色市,西林县,59004,59004,24.4989,105.0861,827.1
隆林,中国,广西壮族自治区,百色市,隆林各族自治县,59001,59001,24.7786,105.3375,672.2
靖西,中国,广西壮族自治区,百色市,靖西市,59218,59218,23.0953,106.4572,724.7
贺州,中国,广西壮族自治区,贺州市,平桂区,59065,59065,24.4233,111.5064,148.7
昭平,中国,广西壮族自治区,贺州市,昭平县,59059,59059,24.1806,110.8075,105.8
河池,中国,广西壮族自治区,河池市,金城江区,59023,59023,24.6939,108.0392,260.2
宜州,中国,广西壮族自治区,河池市,宜州区,59034,59034,24.4814,108.6442,185.1
天峨,中国,广西壮族自治区,河池市,天峨县,57927,57927,24.9719,107.1914,287.3
环江,中国,广西壮族自治区,河池市,天峨县,59031,59031,24.8131,108.2597,342.3
凤山,中国,广西壮族自治区,河池市,凤山县,59021,59021,24.5511,107.0267,509.4
东兰,中国,广西壮族自治区,河池市,东兰县,59025,59025,24.538,107.3867,248.8
巴马,中国,广西壮族自治区,河池市,巴马瑶族自治县,59027,59027,24.1361,107.2442,254.9
都安,中国,广西壮族自治区,河池市,都安瑶族自治县,59037,59037,23.9378,108.1064,170.8
来宾,中国,广西壮族自治区,来宾市,兴宾区,59242,59242,23.7633,109.1531,96.7
忻城,中国,广西壮族自治区,来宾市,忻城县,59038,59038,24.0217,108.6508,147.5
象州,中国,广西壮族自治区,来宾市,象州县,59241,59241,23.9822,109.7006,124.3
武宣,中国,广西壮族自治区,来宾市,武宣县,59246,59246,23.5936,109.6628,70
金秀,中国,广西壮族自治区,来宾市,金秀瑶族自治县,59057,59057,24.1358,110.1872,830.9
大新,中国,广西壮族自治区,崇左市,大新县,59421,59421,22.8594,107.1664,278.3
天等,中国,广西壮族自治区,崇左市,天等县,59227,59227,23.11,107.1386,454.2
凭祥,中国,广西壮族自治区,崇左市,凭祥市,59419,59419,22.0642,106.7394,348.7
海口,中国,海南省,海口市,秀英区,59758,59758,19.9939,110.2469,63.5
琼山,中国,海南省,海口市,琼山区,59757,59757,20.0067,110.3586,11.6
琼海,中国,海南省, , ,59855,59855,19.2089,110.4819,23.4
儋州,中国,海南省,儋州市, ,59845,59845,19.5108,109.5772,168.2
五指山,中国,海南省,省直辖县级行政区划,五指山市,59941,59941,18.7739,109.5178,328.2
文昌,中国,海南省,省直辖县级行政区划,文昌市,59856,59856,19.6139,110.7453,20.8
万宁,中国,海南省,省直辖县级行政区划,万宁市,59951,59951,18.8006,110.3269,40.4
东方,中国,海南省,省直辖县级行政区划,东方市,59838,59838,19.0942,108.6217,6.1
定安,中国,海南省,省直辖县级行政区划,定安县,59851,59851,19.6672,110.3378,53.4
屯昌,中国,海南省,省直辖县级行政区划,屯昌县,59854,59854,19.3581,110.0978,117.5
澄迈,中国,海南省,省直辖县级行政区划,澄迈县,59843,59843,19.7364,110.0167,31.4
临高,中国,海南省,省直辖县级行政区划,临高县,59842,59842,19.8975,109.6844,32.7
白沙,中国,海南省, , ,59848,59848,19.225,109.4428,216.2
昌江,中国,海南省, , ,59847,59847,19.2611,109.0544,97.2
保亭,中国,海南省, , ,59945,59945,18.6433,109.6967,69.9
琼中,中国,海南省, , ,59849,59849,19.0353,109.8419,300.8
天城,中国,重庆市,市辖区,万州区,57431,57431,30.8311,108.3481,255
万州,中国,重庆市,市辖区,万州区,57432,57432,30.7622,108.3944,185.1
沙坪坝,中国,重庆市,市辖区,沙坪坝区,57516,57516,29.5758,106.4611,259.2
北碚,中国,重庆市,市辖区,北碚区,57511,57511,29.8419,106.4433,240.8
綦江,中国,重庆市,市辖区,綦江区,57612,57612,29.01,106.6486,475
大足,中国,重庆市,市辖区,大足区,57502,57502,29.7108,105.6931,541.1
渝北,中国,重庆市,市辖区,渝北区,57513,57513,29.7411,106.6275,464.9
巴南,中国,重庆市,市辖区,巴南区,57518,57518,29.3411,106.4922,506.1
黔江,中国,重庆市,市辖区,黔江区,57536,57536,29.5244,108.7622,787
长寿,中国,重庆市,市辖区,长寿区,57520,57520,29.8394,107.0675,377.6
万盛,中国,重庆市,市辖区,江津区,57509,57509,28.9894,106.9186,600.3
江津,中国,重庆市,市辖区,江津区,57517,57517,29.2772,106.2556,261.3
合川,中国,重庆市,市辖区,合川区,57512,57512,29.9656,106.2633,364.5
永川,中国,重庆市,市辖区,永川区,57506,57506,29.3608,105.9031,353.7
南川,中国,重庆市,市辖区,南川区,57519,57519,29.1611,107.1122,698.9
璧山,中国,重庆市,市辖区,璧山区,57514,57514,29.5869,106.2217,331.6
铜梁,中国,重庆市,市辖区,铜梁区,57510,57510,29.8569,106.0619,326.3
潼南,中国,重庆市,市辖区,潼南区,57409,57409,30.2089,105.7786,331.7
荣昌,中国,重庆市,市辖区,荣昌区,57505,57505,29.4142,105.5869,338.4
开州,中国,重庆市,市辖区,开州区,57338,57338,31.17,108.4311,456.8
武隆,中国,重庆市,市辖区,武隆区,57525,57525,29.3192,107.7456,407
城口,中国,重庆市,县,城口县,57333,57333,31.9447,108.6633,792.8
丰都,中国,重庆市,县,丰都县,57523,57523,29.9006,107.7594,391.8
垫江,中国,重庆市,县,垫江县,57425,57425,30.3114,107.4031,416.1
忠县,中国,重庆市,县,忠县,57437,57437,30.2956,108.0239,325.9
云阳,中国,重庆市,县,云阳县,57339,57339,30.9422,108.6858,292.9
奉节,中国,重庆市,县,奉节县,57348,57348,31.0281,109.4783,299.5
巫山,中国,重庆市,县,巫山县,57349,57349,31.0758,109.8567,606.8
巫溪,中国,重庆市,县,巫溪县,57345,57345,31.3983,109.6203,335.5
石柱,中国,重庆市,县,石柱土家族自治县,57438,57438,29.9933,108.1206,631.1
秀山,中国,重庆市,县,秀山土家族苗族自治县,57635,57635,28.3664,109.0161,548.7
酉阳,中国,重庆市,县,酉阳土家族苗族自治县,57633,57633,28.8219,108.7672,826.5
彭水,中国,重庆市,县,彭水苗族土家族自治县,57537,57537,29.2922,108.1617,322.2
龙泉驿,中国,四川省,成都市,龙泉驿区,56286,56286,30.6136,104.2631,505.4
新都,中国,四川省,成都市,新都区,56290,56290,30.7778,104.1803,514.5
温江,中国,四川省,成都市,温江区,56187,56187,30.7489,103.8611,547.7
双流,中国,四川省,成都市,双流区,56288,56288,30.5886,103.9022,495
郫县,中国,四川省,成都市,郫都区,56272,56272,30.8289,103.8986,558.6
金堂,中国,四川省,成都市,金堂县,56296,56296,30.8128,104.4253,493.5
大邑,中国,四川省,成都市,大邑县,56285,56285,30.5639,103.4653,544.7
蒲江,中国,四川省,成都市,蒲江县,56281,56281,30.2003,103.4892,578.4
新津,中国,四川省,成都市,新津县,56276,56276,30.4583,103.8211,467.3
都江堰,中国,四川省,成都市,都江堰市,56188,56188,30.9958,103.6736,689.1
彭州,中国,四川省,成都市,彭州市,56189,56189,30.9622,103.9464,580.5
邛崃,中国,四川省,成都市,邛崃市,56284,56284,30.4433,103.4386,518.5
崇州,中国,四川省,成都市,崇州市,56181,56181,30.6708,103.6989,541.2
自贡,中国,四川省,自贡市,市辖区,56396,56396,29.3575,104.7658,353.4
荣县,中国,四川省,自贡市,荣县,56394,56394,29.4578,104.4339,383.2
富顺,中国,四川省,自贡市,富顺县,56399,56399,29.1839,104.9942,306.4
攀枝花,中国,四川省,攀枝花市,东区,56666,56666,26.5761,101.7211,1224.8
仁和,中国,四川省,攀枝花市,仁和区,56674,56674,26.495,101.7503,1280.6
米易,中国,四川省,攀枝花市,米易县,56670,56670,26.9158,102.1206,1137.1
盐边,中国,四川省,攀枝花市,盐边县,56665,56665,26.6897,101.8544,1140.4
江安,中国,四川省,泸州市,泸县,57600,57600,28.7119,105.0603,421.1
合江,中国,四川省,泸州市,合江县,57603,57603,28.8111,105.8272,282.7
叙永,中国,四川省,泸州市,叙永县,57608,57608,28.19,105.4064,548.4
德阳,中国,四川省,德阳市,罗江区,56198,56198,31.3181,104.4983,525.7
中江,中国,四川省,德阳市,中江县,56199,56199,31.0428,104.7058,459.6
什邡,中国,四川省,德阳市,什邡市,56197,56197,31.1517,104.1669,535.8
绵竹,中国,四川省,德阳市,绵竹市,56186,56186,31.3272,104.1928,588.9
三台,中国,四川省,绵阳市,三台县,57307,57307,31.0975,105.0772,459.9
盐亭,中国,四川省,绵阳市,盐亭县,57308,57308,31.2206,105.3861,421.3
广元,中国,四川省,广元市,市辖区,57206,57206,32.4244,105.8997,545.4
旺苍,中国,四川省,广元市,旺苍县,57217,57217,32.2217,106.2556,499.3
青川,中国,四川省,广元市,青川县,57204,57204,32.5739,105.2233,782.9
剑阁,中国,四川省,广元市,剑阁县,57208,57208,32.2775,105.5128,545
苍溪,中国,四川省,广元市,苍溪县,57303,57303,31.7397,105.925,459.9
遂宁,中国,四川省,遂宁市,市辖区,57405,57405,30.5069,105.5622,354.9
蓬溪,中国,四川省,遂宁市,蓬溪县,57402,57402,30.7728,105.7053,386.5
射洪,中国,四川省,遂宁市,射洪县,57401,57401,30.8775,105.3669,383.2
东兴区,中国,四川省,内江市,市辖区,57503,57503,29.6197,105.1186,349.9
威远,中国,四川省,内江市,威远县,56395,56395,29.5236,104.6631,350.9
资中,中国,四川省,内江市,资中县,56393,56393,29.7678,104.8536,369.3
隆昌,中国,四川省,内江市,隆昌市,57507,57507,29.3317,105.2997,385.8
泸县,中国,四川省,内江市,隆昌市,57508,57508,29.16,105.3814,301.8
乐山,中国,四川省,乐山市,市中区,56386,56386,29.5647,103.7553,424.2
犍为,中国,四川省,乐山市,犍为县,56389,56389,29.2019,103.9431,387.3
井研,中国,四川省,乐山市,井研县,56390,56390,29.6597,104.0683,405
夹江,中国,四川省,乐山市,夹江县,56382,56382,29.7533,103.5522,475
沐川,中国,四川省,乐山市,沐川县,56490,56490,28.9508,103.8983,424
峨边,中国,四川省,乐山市,峨边彝族自治县,56387,56387,29.2283,103.2614,643.1
马边,中国,四川省,乐山市,马边彝族自治县,56480,56480,28.8281,103.5325,563.2
峨眉,中国,四川省,乐山市,峨眉山市,56384,56384,29.595,103.5905,423.5
峨眉山,中国,四川省,乐山市,峨眉山市,56385,56385,29.5214,103.3356,3069.9
高坪,中国,四川省,南充市,高坪区,57411,57411,30.7456,106.1319,347
南部,中国,四川省,南充市,南部县,57314,57314,31.3439,106.0653,405.7
营山,中国,四川省,南充市,营山县,57318,57318,31.0553,106.5811,406.2
蓬安,中国,四川省,南充市,蓬安县,57317,57317,31.0222,106.3981,414
仪陇,中国,四川省,南充市,仪陇县,57315,57315,31.5233,106.4025,655.7
西充,中国,四川省,南充市,西充县,57309,57309,30.9786,105.8819,378.4
阆中,中国,四川省,南充市,阆中市,57306,57306,31.5842,105.9775,382.6
眉山,中国,四川省,眉山市,东坡区,56391,56391,30.0581,103.8758,484
彭山,中国,四川省,眉山市,彭山区,56289,56289,30.1992,103.8692,435.9
仁寿,中国,四川省,眉山市,仁寿县,56297,56297,30.0425,104.1392,435.4
洪雅,中国,四川省,眉山市,洪雅县,56380,56380,29.8764,103.3583,571.2
丹棱,中国,四川省,眉山市,丹棱县,56381,56381,30.0678,103.4919,629.9
青神,中国,四川省,眉山市,青神县,56383,56383,29.8433,103.8711,455.5
宜宾,中国,四川省,宜宾市,翠屏区,56492,56492,28.7689,104.6053,502.8
南溪,中国,四川省,宜宾市,南溪区,56493,56493,28.8492,104.9725,292.8
叙州,中国,四川省,宜宾市,宜宾县,56491,56491,28.6922,104.5053,476.9
长宁,中国,四川省,宜宾市,长宁县,56593,56593,28.595,104.9456,418
高县,中国,四川省,宜宾市,高县,56592,56592,28.4406,104.5036,376.4
珙县,中国,四川省,宜宾市,珙县,56499,56499,28.4453,104.7128,508
筠连,中国,四川省,宜宾市,筠连县,56498,56498,28.1542,104.5042,547
兴文,中国,四川省,宜宾市,兴文县,56496,56496,28.3303,105.2589,367
屏山,中国,四川省,宜宾市,屏山县,56494,56494,28.8394,104.3325,386.4
广安,中国,四川省,广安市,广安区,57415,57415,30.5219,106.6403,372.3
岳池,中国,四川省,广安市,岳池县,57414,57414,30.5178,106.4544,403.3
武胜,中国,四川省,广安市,武胜县,57417,57417,30.3514,106.2936,316
邻水,中国,四川省,广安市,邻水县,57416,57416,30.3425,106.9386,392.4
达川,中国,四川省,达州市,市辖区,57328,57328,31.2075,107.5067,344.9
宣汉,中国,四川省,达州市,宣汉县,57326,57326,31.3639,107.7161,390.3
开江,中国,四川省,达州市,开江县,57329,57329,31.0978,107.8467,468.7
大竹,中国,四川省,达州市,大竹县,57420,57420,30.7542,107.1864,418
渠县,中国,四川省,达州市,渠县,57413,57413,30.8564,106.9983,305.7
万源,中国,四川省,达州市,万源市,57237,57237,32.0744,108.0317,672.2
名山,中国,四川省,雅安市,名山区,56280,56280,30.0844,103.1167,691.8
荥经,中国,四川省,雅安市,荥经县,56373,56373,29.7875,102.8444,797.5
汉源,中国,四川省,雅安市,汉源县,56376,56376,29.3433,102.6367,1098.6
石棉,中国,四川省,雅安市,石棉县,56378,56378,29.2292,102.3533,890.7
天全,中国,四川省,雅安市,天全县,56278,56278,30.0672,102.7769,818.5
芦山,中国,四川省,雅安市,芦山县,56279,56279,30.1614,102.9425,744
宝兴,中国,四川省,雅安市,宝兴县,56273,56273,30.2472,102.8342,814
巴中,中国,四川省,巴中市,市辖区,57313,57313,31.8872,106.785,556.7
通江,中国,四川省,巴中市,通江县,57320,57320,31.9281,107.2167,483
南江,中国,四川省,巴中市,南江县,57216,57216,32.3558,106.8325,579.4
平昌,中国,四川省,巴中市,平昌县,57324,57324,31.5833,107.0881,365.9
资阳,中国,四川省,资阳市,雁江区,56298,56298,30.0683,104.6581,414.2
安岳,中国,四川省,资阳市,安岳县,57408,57408,30.1103,105.3219,383.6
乐至,中国,四川省,资阳市,乐至县,57407,57407,30.2808,105.03,462.6
马尔康,中国,四川省,阿坝藏族羌族自治州,马尔康市,56172,56172,31.8989,102.2286,2686.8
汶川,中国,四川省,阿坝藏族羌族自治州,汶川县,56183,56183,31.4956,103.6183,1370.1
理县,中国,四川省,阿坝藏族羌族自治州,理县,56184,56184,31.4361,103.1658,1892
茂县,中国,四川省,阿坝藏族羌族自治州,茂县,56180,56180,31.6914,103.8533,1589.1
松潘,中国,四川省,阿坝藏族羌族自治州,松潘县,56182,56182,32.6708,103.6033,2881.3
九寨沟,中国,四川省,阿坝藏族羌族自治州,九寨沟县,56097,56097,33.2606,104.2456,1440.5
金川,中国,四川省,阿坝藏族羌族自治州,金川县,56168,56168,31.475,102.0703,2174.8
小金,中国,四川省,阿坝藏族羌族自治州,小金县,56178,56178,30.9958,102.3561,2438
黑水,中国,四川省,阿坝藏族羌族自治州,黑水县,56185,56185,32.08,102.98,2399.4
壤塘,中国,四川省,阿坝藏族羌族自治州,壤塘县,56164,56164,32.2742,100.9642,3292.9
阿坝,中国,四川省,阿坝藏族羌族自治州,阿坝县,56171,56171,32.9022,101.7056,3279.1
若尔盖,中国,四川省,阿坝藏族羌族自治州,若尔盖县,56079,56079,33.5944,102.9556,3513.8
红原,中国,四川省,阿坝藏族羌族自治州,红原县,56173,56173,32.7931,102.5497,3496.8
康定,中国,四川省,甘孜藏族自治州,康定市,56374,56374,30.055,101.9606,2606.3
泸定,中国,四川省,甘孜藏族自治州,泸定县,56371,56371,29.8878,102.2131,1403.2
丹巴,中国,四川省,甘孜藏族自治州,丹巴县,56263,56263,30.8781,101.8808,1947.5
九龙,中国,四川省,甘孜藏族自治州,九龙县,56462,56462,29.0081,101.5008,2924.4
雅江,中国,四川省,甘孜藏族自治州,雅江县,56267,56267,30.0325,101.0189,2635.6
道孚,中国,四川省,甘孜藏族自治州,道孚县,56167,56167,30.9714,101.1186,3008.6
炉霍,中国,四川省,甘孜藏族自治州,炉霍县,56158,56158,31.3858,100.6636,3414.4
甘孜,中国,四川省,甘孜藏族自治州,甘孜县,56146,56146,31.6192,99.9975,3383.4
新龙,中国,四川省,甘孜藏族自治州,新龙县,56251,56251,30.9422,100.3089,3131.1
德格,中国,四川省,甘孜藏族自治州,德格县,56144,56144,31.8033,98.5764,3224.6
白玉,中国,四川省,甘孜藏族自治州,白玉县,56147,56147,31.2117,98.8258,3063.8
石渠,中国,四川省,甘孜藏族自治州,石渠县,56038,56038,32.9764,98.0969,4181.2
色达,中国,四川省,甘孜藏族自治州,色达县,56152,56152,32.275,100.3339,3898.7
理塘,中国,四川省,甘孜藏族自治州,理塘县,56257,56257,29.9944,100.2708,3950
巴塘,中国,四川省,甘孜藏族自治州,巴塘县,56247,56247,30.0028,99.1078,2580.5
乡城,中国,四川省,甘孜藏族自治州,乡城县,56443,56443,28.9369,99.8031,2844.2
稻城,中国,四川省,甘孜藏族自治州,稻城县,56357,56357,29.0425,100.2983,3742.3
得荣,中国,四川省,甘孜藏族自治州,得荣县,56441,56441,28.7136,99.2864,2411.5
西昌,中国,四川省,凉山彝族自治州,西昌市,56571,56571,27.9036,102.2678,1558
木里,中国,四川省,凉山彝族自治州,木里藏族自治县,56459,56459,27.9294,101.275,2380.8
盐源,中国,四川省,凉山彝族自治州,盐源县,56565,56565,27.4378,101.4858,2516.8
德昌,中国,四川省,凉山彝族自治州,德昌县,56569,56569,27.4131,102.1842,1347.2
会理,中国,四川省,凉山彝族自治州,会理县,56671,56671,26.6519,102.2425,1787.3
会东,中国,四川省,凉山彝族自治州,会东县,56675,56675,26.6456,102.5775,1702.5
宁南,中国,四川省,凉山彝族自治州,宁南县,56578,56578,27.0619,102.7442,1116
普格,中国,四川省,凉山彝族自治州,普格县,56575,56575,27.3731,102.5478,1530.7
布拖,中国,四川省,凉山彝族自治州,布拖县,56580,56580,27.7131,102.8069,2356.7
金阳,中国,四川省,凉山彝族自治州,金阳县,56584,56584,27.705,103.2567,1061.9
昭觉,中国,四川省,凉山彝族自治州,昭觉县,56479,56479,28.0044,102.8419,2028.8
喜德,中国,四川省,凉山彝族自治州,喜德县,56478,56478,28.3058,102.4144,1798.1
冕宁,中国,四川省,凉山彝族自治州,冕宁县,56474,56474,28.545,102.1736,1740.5
越西,中国,四川省,凉山彝族自治州,越西县,56475,56475,28.6506,102.5117,1659.3
甘洛,中国,四川省,凉山彝族自治州,甘洛县,56473,56473,28.9597,102.7697,1060.3
美姑,中国,四川省,凉山彝族自治州,美姑县,56487,56487,28.335,103.1342,1913.3
雷波,中国,四川省,凉山彝族自治州,雷波县,56485,56485,28.2694,103.5775,1214.5
花溪,中国,贵州省,贵阳市,花溪区,57914,57914,26.4097,106.6711,1149
乌当,中国,贵州省,贵阳市,乌当区,57915,57915,26.6306,106.7583,1103.5
白云,中国,贵州省,贵阳市,白云区,57911,57911,26.6711,106.6536,1299
贵阳,中国,贵州省,贵阳市,观山湖区,57816,57816,26.5897,106.7275,1227.3
开阳,中国,贵州省,贵阳市,开阳县,57719,57719,27.0858,106.9075,1298.9
息烽,中国,贵州省,贵阳市,息烽县,57718,57718,27.1042,106.7225,1112.3
修文,中国,贵州省,贵阳市,修文县,57811,57811,26.8383,106.6,1296.8
六枝,中国,贵州省,六盘水市,六枝特区,57807,57807,26.2167,105.4631,1407.3
盘州,中国,贵州省,六盘水市,盘州市,56793,56793,25.7506,104.528,2125.9
务川,中国,贵州省,遵义市,务川仡佬族苗族自治县,57634,57634,28.51,107.8919,840.1
播州,中国,贵州省,遵义市,播州区,57717,57717,27.5406,106.8339,972.9
桐梓,中国,贵州省,遵义市,桐梓县,57606,57606,28.1297,106.8169,969.7
正安,中国,贵州省,遵义市,正安县,57625,57625,28.5364,107.4583,816.4
道真,中国,贵州省,遵义市,道真仡佬族苗族自治县,57623,57623,28.8792,107.6,685.6
凤冈,中国,贵州省,遵义市,凤冈县,57723,57723,27.9781,107.7261,710.7
湄潭,中国,贵州省,遵义市,湄潭县,57722,57722,27.7772,107.5081,807.6
余庆,中国,贵州省,遵义市,余庆县,57729,57729,27.2328,107.8828,622.1
仁怀,中国,贵州省,遵义市,仁怀市,57710,57710,27.8247,106.3933,890.3
安顺,中国,贵州省,安顺市,西秀区,57806,57806,26.2622,105.9097,1430.8
平坝,中国,贵州省,安顺市,平坝区,57814,57814,26.4114,106.2589,1299.7
普定,中国,贵州省,安顺市,普定县,57808,57808,26.3056,105.7375,1281.8
镇宁,中国,贵州省,安顺市,镇宁布依族苗族自治县,57809,57809,26.0675,105.7497,1251
关岭,中国,贵州省,安顺市,关岭布依族苗族自治县,57903,57903,25.9403,105.5961,1142
紫云,中国,贵州省,安顺市,紫云苗族布依族自治县,57910,57910,25.7683,106.0881,1197.6
毕节,中国,贵州省,毕节市,七星关区,57707,57707,27.2975,105.2886,1509.1
大方,中国,贵州省,毕节市,大方县,57708,57708,27.1314,105.6,1721.5
黔西,中国,贵州省,毕节市,黔西县,57803,57803,27.0164,106.0181,1321.7
金沙,中国,贵州省,毕节市,金沙县,57714,57714,27.4914,106.2167,1046
织金,中国,贵州省,毕节市,织金县,57805,57805,26.6772,105.7703,1311.2
纳雍,中国,贵州省,毕节市,纳雍县,57800,57800,26.7681,105.3706,1469
威宁,中国,贵州省,毕节市,威宁彝族回族苗族自治县,56691,56691,26.8628,104.2803,2238.6
赫章,中国,贵州省,毕节市,赫章县,56598,56598,27.0922,104.69,1629.6
铜仁,中国,贵州省,铜仁市,碧江区,57741,57741,27.7303,109.1764,353.2
万山,中国,贵州省,铜仁市,万山区,57742,57742,27.5211,109.2061,884.3
江口,中国,贵州省,铜仁市,江口县,57736,57736,27.7161,108.8492,493.7
玉屏,中国,贵州省,铜仁市,玉屏侗族自治县,57739,57739,27.2375,108.9181,394.8
石阡,中国,贵州省,铜仁市,石阡县,57734,57734,27.5303,108.2244,468.3
思南,中国,贵州省,铜仁市,思南县,57731,57731,27.9311,108.245,574.9
印江,中国,贵州省,铜仁市,印江土家族苗族自治县,57732,57732,28.0114,108.3983,521.5
德江,中国,贵州省,铜仁市,德江县,57637,57637,28.2458,108.1047,629.5
沿河,中国,贵州省,铜仁市,沿河土家族自治县,57636,57636,28.5644,108.5042,503.2
松桃,中国,贵州省,铜仁市,松桃苗族自治县,57647,57647,28.1603,109.195,406.1
兴义,中国,贵州省,黔西南布依族苗族自治州,兴义市,57907,57907,25.0881,104.8972,1300.5
兴仁,中国,贵州省,黔西南布依族苗族自治州,兴仁县,57902,57902,25.4308,105.1833,1378.7
普安,中国,贵州省,黔西南布依族苗族自治州,普安县,56792,56792,25.7889,104.9631,1649.4
晴隆,中国,贵州省,黔西南布依族苗族自治州,晴隆县,57900,57900,25.8511,105.2236,1552.9
贞丰,中国,贵州省,黔西南布依族苗族自治州,贞丰县,57905,57905,25.4025,105.6125,1184.9
望谟,中国,贵州省,黔西南布依族苗族自治州,望谟县,57906,57906,25.175,106.0894,567.6
册亨,中国,贵州省,黔西南布依族苗族自治州,册亨县,57909,57909,24.9881,105.815,585.7
安龙,中国,贵州省,黔西南布依族苗族自治州,安龙县,57908,57908,25.1144,105.4808,1394.7
凯里,中国,贵州省,黔东南苗族侗族自治州,凯里市,57825,57825,26.5969,107.9844,718.8
黄平,中国,贵州省,黔东南苗族侗族自治州,黄平县,57822,57822,26.9028,107.9011,825
施秉,中国,贵州省,黔东南苗族侗族自治州,施秉县,57737,57737,27.0308,108.1214,546.8
三穗,中国,贵州省,黔东南苗族侗族自治州,三穗县,57832,57832,26.9583,108.6744,626.9
镇远,中国,贵州省,黔东南苗族侗族自治州,镇远县,57738,57738,27.0492,108.4169,517.2
岑巩,中国,贵州省,黔东南苗族侗族自治州,岑巩县,57735,57735,27.1844,108.8242,423.3
天柱,中国,贵州省,黔东南苗族侗族自治州,天柱县,57840,57840,26.905,109.2036,401.4
锦屏,中国,贵州省,黔东南苗族侗族自治州,锦屏县,57844,57844,26.5139,109.2556,476.2
剑河,中国,贵州省,黔东南苗族侗族自治州,剑河县,57835,57835,26.7317,108.4344,528.1
台江,中国,贵州省,黔东南苗族侗族自治州,台江县,57834,57834,26.6764,108.3069,641.9
黎平,中国,贵州省,黔东南苗族侗族自治州,黎平县,57839,57839,26.2325,109.1361,568.8
榕江,中国,贵州省,黔东南苗族侗族自治州,榕江县,57932,57932,25.9275,108.5122,259.3
从江,中国,贵州省,黔东南苗族侗族自治州,从江县,57936,57936,25.7564,108.9094,265.8
雷山,中国,贵州省,黔东南苗族侗族自治州,雷山县,57837,57837,26.3917,108.0747,844
麻江,中国,贵州省,黔东南苗族侗族自治州,麻江县,57828,57828,26.4933,107.5825,981.1
丹寨,中国,贵州省,黔东南苗族侗族自治州,丹寨县,57829,57829,26.2006,107.7969,962.9
都匀,中国,贵州省,黔南布依族苗族自治州,都匀市,57827,57827,26.3228,107.5139,967.7
福泉,中国,贵州省,黔南布依族苗族自治州,福泉市,57821,57821,26.7031,107.5044,924.8
荔波,中国,贵州省,黔南布依族苗族自治州,荔波县,57926,57926,25.3756,107.8514,480.5
贵定,中国,贵州省,黔南布依族苗族自治州,贵定县,57824,57824,26.5883,107.2489,1056.2
瓮安,中国,贵州省,黔南布依族苗族自治州,瓮安县,57728,57728,27.0422,107.4625,1128.6
独山,中国,贵州省,黔南布依族苗族自治州,独山县,57922,57922,25.8325,107.5481,1013.8
平塘,中国,贵州省,黔南布依族苗族自治州,平塘县,57921,57921,25.8461,107.3456,821.2
罗甸,中国,贵州省,黔南布依族苗族自治州,罗甸县,57916,57916,25.4286,106.7636,450.3
龙里,中国,贵州省,黔南布依族苗族自治州,龙里县,57913,57913,26.4636,106.9489,1134.7
惠水,中国,贵州省,黔南布依族苗族自治州,惠水县,57912,57912,26.1433,106.6581,991.6
三都,中国,贵州省,黔南布依族苗族自治州,三都水族自治县,57923,57923,25.9814,107.8733,447.8
昆明,中国,云南省,昆明市,西山区,56778,56778,25.0078,102.653,1888.1
东川,中国,云南省,昆明市,东川区,56688,56688,26.1019,103.1669,1263.8
呈贡,中国,云南省,昆明市,呈贡区,56882,56882,24.9086,102.8258,1976.6
晋宁,中国,云南省,昆明市,晋宁区,56871,56871,24.6808,102.5742,1979.2
富民,中国,云南省,昆明市,富民县,56772,56772,25.2192,102.5069,1647.6
宜良,中国,云南省,昆明市,宜良县,56880,56880,24.8922,103.1356,1639.5
石林,中国,云南省,昆明市,石林彝族自治县,56881,56881,24.7503,103.2636,1695.8
嵩明,中国,云南省,昆明市,嵩明县,56785,56785,25.3558,103.0775,1915.7
安宁,中国,云南省,昆明市,安宁市,56863,56863,24.9236,102.4972,1893.4
曲靖,中国,云南省,曲靖市,麒麟区,56783,56783,25.5017,103.7994,1906.2
马龙,中国,云南省,曲靖市,马龙县,56782,56782,25.4269,103.5742,2067.1
师宗,中国,云南省,曲靖市,师宗县,56883,56883,24.8158,103.9839,1900.9
罗平,中国,云南省,曲靖市,罗平县,56891,56891,24.8819,104.3231,1482.7
富源,中国,云南省,曲靖市,富源县,56790,56790,25.6758,104.2422,1925.8
会泽,中国,云南省,曲靖市,会泽县,56684,56684,26.4022,103.2486,2188.3
宣威,中国,云南省,曲靖市,宣威市,56697,56697,26.2236,104.0905,1984.2
玉溪,中国,云南省,玉溪市,红塔区,56875,56875,24.335,102.5494,1716.9
江川,中国,云南省,玉溪市,江川区,56876,56876,24.2861,102.7625,1731.3
澄江,中国,云南省,玉溪市,澄江县,56873,56873,24.6783,102.9242,1796.9
通海,中国,云南省,玉溪市,通海县,56878,56878,24.1294,102.7567,1799.2
华宁,中国,云南省,玉溪市,华宁县,56879,56879,24.1903,102.9094,1699.7
易门,中国,云南省,玉溪市,易门县,56870,56870,24.6581,102.1819,1600.9
峨山,中国,云南省,玉溪市,峨山彝族自治县,56898,56898,24.1836,102.4083,1600
新平,中国,云南省,玉溪市,新平彝族傣族自治县,56869,56869,24.0697,101.975,1497.5
元江,中国,云南省,玉溪市,元江哈尼族彝族傣族自治县,56966,56966,23.6322,101.9683,506.8
保山,中国,云南省,保山市,隆阳区,56748,56748,25.0442,99.1619,1668.4
施甸,中国,云南省,保山市,施甸县,56842,56842,24.7308,99.1833,1471.2
龙陵,中国,云南省,保山市,龙陵县,56841,56841,24.6158,98.6947,1630.6
昌宁,中国,云南省,保山市,昌宁县,56843,56843,24.8014,99.6242,1666.9
腾冲,中国,云南省,保山市,腾冲市,56739,56739,24.9844,98.5056,1695.9
昭通,中国,云南省,昭通市,昭阳区,56586,56586,27.3517,103.7189,1949.5
鲁甸,中国,云南省,昭通市,鲁甸县,56585,56585,27.1931,103.5564,1952.2
巧家,中国,云南省,昭通市,巧家县,56673,56673,26.9181,102.9267,893.9
盐津,中国,云南省,昭通市,盐津县,56497,56497,28.1092,104.2425,448.8
大关,中国,云南省,昭通市,大关县,56582,56582,27.7475,103.8928,1176.2
永善,中国,云南省,昭通市,永善县,56489,56489,28.2383,103.6231,975.6
绥江,中国,云南省,昭通市,绥江县,56483,56483,28.5919,103.9586,496.6
镇雄,中国,云南省,昭通市,镇雄县,56595,56595,27.4142,104.8736,1645.2
彝良,中国,云南省,昭通市,彝良县,56594,56594,27.6317,104.0636,1035
威信,中国,云南省,昭通市,威信县,56596,56596,27.8517,105.0544,1217.7
丽江,中国,云南省,丽江市,玉龙纳西族自治县,56651,56651,26.8469,100.2175,2380.9
永胜,中国,云南省,丽江市,永胜县,56652,56652,26.6833,100.75,2130.5
华坪,中国,云南省,丽江市,华坪县,56664,56664,26.6375,101.2681,1230.8
宁蒗,中国,云南省,丽江市,宁蒗彝族自治县,56567,56567,27.2569,100.8569,2367.2
思茅,中国,云南省,普洱市,思茅区,56964,56964,22.8161,100.9911,1416.2
墨江,中国,云南省,普洱市,墨江哈尼族自治县,56962,56962,23.4556,101.6706,1366
景东,中国,云南省,普洱市,景东彝族自治县,56856,56856,24.4375,100.8606,1162.3
景谷,中国,云南省,普洱市,景谷傣族彝族自治县,56952,56952,23.4972,100.7183,979.2
镇沅,中国,云南省,普洱市,镇沅彝族哈尼族拉祜族自治县,56867,56867,23.9897,101.1211,1105.4
江城,中国,云南省,普洱市,江城哈尼族彝族自治县,56977,56977,22.6081,101.8558,1269.8
孟连,中国,云南省,普洱市,孟连傣族拉祜族佤族自治县,56949,56949,22.3086,99.6031,1079.9
澜沧,中国,云南省,普洱市,澜沧拉祜族自治县,56954,56954,22.5631,99.9308,1054.8
西盟,中国,云南省,普洱市,西盟佤族自治县,56948,56948,22.6428,99.6372,1245.4
临沧,中国,云南省,临沧市,临翔区,56951,56951,23.8831,100.1208,1636.1
凤庆,中国,云南省,临沧市,凤庆县,56846,56846,24.585,99.9261,1569
云县,中国,云南省,临沧市,云县,56854,56854,24.4447,100.1361,1108.6
永德,中国,云南省,临沧市,永德县,56849,56849,24.0239,99.2503,1606.2
镇康,中国,云南省,临沧市,镇康县,56839,56839,23.7639,98.8167,1053.8
双江,中国,云南省,临沧市,双江拉祜族佤族布朗族傣族自治县,56950,56950,23.4708,99.8214,1044.1
耿马,中国,云南省,临沧市,耿马傣族佤族自治县,56946,56946,23.5275,99.3897,1144.1
沧源,中国,云南省,临沧市,沧源佤族自治县,56944,56944,23.1622,99.2569,1278.3
双柏,中国,云南省,楚雄彝族自治州,双柏县,56862,56862,24.6883,101.6325,1968.1
牟定,中国,云南省,楚雄彝族自治州,牟定县,56766,56766,25.3075,101.5211,1822
南华,中国,云南省,楚雄彝族自治州,南华县,56767,56767,25.2078,101.2617,1905.4
姚安,中国,云南省,楚雄彝族自治州,姚安县,56764,56764,25.5211,101.2389,1873.9
大姚,中国,云南省,楚雄彝族自治州,大姚县,56761,56761,25.7233,101.3275,1878.9
永仁,中国,云南省,楚雄彝族自治州,永仁县,56669,56669,26.0383,101.6628,1589.4
武定,中国,云南省,楚雄彝族自治州,武定县,56774,56774,25.5008,102.4233,1799.1
禄丰,中国,云南省,楚雄彝族自治州,禄丰县,56777,56777,25.1144,102.0997,1671.4
个旧,中国,云南省,红河哈尼族彝族自治州,个旧市,56984,56984,23.3894,103.1458,1848.8
开远,中国,云南省,红河哈尼族彝族自治州,开远市,56982,56982,23.7172,103.2853,1195.5
弥勒,中国,云南省,红河哈尼族彝族自治州,弥勒市,56885,56885,24.4,103.45,1415.5
石屏,中国,云南省,红河哈尼族彝族自治州,石屏县,56970,56970,23.7158,102.4728,1478.9
泸西,中国,云南省,红河哈尼族彝族自治州,泸西县,56886,56886,24.5333,103.7667,1704.3
元阳,中国,云南省,红河哈尼族彝族自治州,元阳县,56976,56976,23.2286,102.8214,312.3
红河,中国,云南省,红河哈尼族彝族自治州,红河县,56975,56975,23.3667,102.4333,974.5
金平,中国,云南省,红河哈尼族彝族自治州,金平苗族瑶族傣族自治县,56987,56987,22.7833,103.2333,1260
绿春,中国,云南省,红河哈尼族彝族自治州,绿春县,56978,56978,23,102.4167,1642.8
文山,中国,云南省,文山壮族苗族自治州,文山市,56994,56994,23.3322,104.2767,1293.5
砚山,中国,云南省,文山壮族苗族自治州,砚山县,56991,56991,23.6036,104.3378,1561.1
西畴,中国,云南省,文山壮族苗族自治州,西畴县,56992,56992,23.4403,104.6833,1507.5
马关,中国,云南省,文山壮族苗族自治州,马关县,56995,56995,23.0186,104.3992,1332.9
丘北,中国,云南省,文山壮族苗族自治州,丘北县,56889,56889,24.0442,104.1828,1518.7
广南,中国,云南省,文山壮族苗族自治州,广南县,59007,59007,24.0536,105.0519,1249.6
富宁,中国,云南省,文山壮族苗族自治州,富宁县,59205,59205,23.6325,105.6286,685.8
勐海,中国,云南省,西双版纳傣族自治州,勐海县,56958,56958,21.9589,100.4675,1222.8
勐腊,中国,云南省,西双版纳傣族自治州,勐腊县,56969,56969,21.4744,101.5772,633.4
大理,中国,云南省,大理白族自治州,大理市,56751,56751,25.7075,100.1767,1977.7
漾濞,中国,云南省,大理白族自治州,漾濞彝族自治县,56745,56745,25.6781,99.9536,1626.1
宾川,中国,云南省,大理白族自治州,宾川县,56752,56752,25.8344,100.5703,1438.7
弥渡,中国,云南省,大理白族自治州,弥渡县,56755,56755,25.3867,100.3997,1711.7
南涧,中国,云南省,大理白族自治州,南涧彝族自治县,56851,56851,25.0378,100.5203,1377.2
巍山,中国,云南省,大理白族自治州,巍山彝族回族自治县,56757,56757,25.2625,100.2867,1732.7
永平,中国,云南省,大理白族自治州,永平县,56746,56746,25.4547,99.5317,1616.7
云龙,中国,云南省,大理白族自治州,云龙县,56742,56742,25.89,99.3739,1723.9
洱源,中国,云南省,大理白族自治州,洱源县,56649,56649,26.1056,99.9583,2059.9
剑川,中国,云南省,大理白族自治州,剑川县,56646,56646,26.5278,99.9114,2192.8
鹤庆,中国,云南省,大理白族自治州,鹤庆县,56654,56654,26.5925,100.1975,2195.4
芒市,中国,云南省,德宏傣族景颇族自治州,芒市,56844,56844,24.4267,98.5744,913.8
梁河,中国,云南省,德宏傣族景颇族自治州,梁河县,56840,56840,24.8044,98.2617,1124.8
盈江,中国,云南省,德宏傣族景颇族自治州,盈江县,56836,56836,24.7119,97.9433,826.7
陇川,中国,云南省,德宏傣族景颇族自治州,陇川县,56835,56835,24.1697,97.7811,990.8
六库,中国,云南省,怒江傈僳族自治州,泸水市,56643,56643,25.8594,98.8592,949.8
福贡,中国,云南省,怒江傈僳族自治州,福贡县,56641,56641,26.9078,98.8653,1189.7
贡山,中国,云南省,怒江傈僳族自治州,贡山独龙族怒族自治县,56533,56533,27.7467,98.6636,1583.3
兰坪,中国,云南省,怒江傈僳族自治州,兰坪白族普米族自治县,56645,56645,26.4375,99.4136,2344.9
香格里拉,中国,云南省,迪庆藏族自治州,香格里拉市,56543,56543,27.8481,99.7442,3341.5
德钦,中国,云南省,迪庆藏族自治州,德钦县,56444,56444,28.4883,98.9056,3319
维西,中国,云南省,迪庆藏族自治州,维西傈僳族自治县,56548,56548,27.1764,99.2853,2326.1
当雄,中国,西藏自治区,拉萨市,当雄县,55493,55493,30.48,91.0969,4278.8
墨竹工卡,中国,西藏自治区,拉萨市,墨竹工卡县,55593,55593,29.8436,91.7261,3803.3
南木林,中国,西藏自治区,日喀则市,南木林县,55572,55572,29.6811,89.0961,3976
江孜,中国,西藏自治区,日喀则市,江孜县,55680,55680,28.9075,89.605,4038
定日,中国,西藏自治区,日喀则市,定日县,55664,55664,28.6542,87.1203,4322
拉孜,中国,西藏自治区,日喀则市,拉孜县,55569,55569,29.09,87.6347,3941
聂拉木,中国,西藏自治区,日喀则市,聂拉木县,55655,55655,28.1575,85.9814,3771
昌都,中国,西藏自治区,昌都市,卡若区,56137,56137,31.1472,97.175,3304.5
类乌齐,中国,西藏自治区,昌都市,类乌齐县,56128,56128,31.2167,96.6,3810
丁青,中国,西藏自治区,昌都市,丁青县,56116,56116,31.4167,95.6,3873.1
八宿,中国,西藏自治区,昌都市,八宿县,56228,56228,30.0478,96.8367,3454
左贡,中国,西藏自治区,昌都市,左贡县,56331,56331,29.6667,97.8333,3780
洛隆,中国,西藏自治区,昌都市,洛隆县,56223,56223,30.7633,95.7947,3611
林芝,中国,西藏自治区,林芝市,巴宜区,56312,56312,29.6475,94.3606,2988.4
米林,中国,西藏自治区,林芝市,米林县,56317,56317,29.2144,94.2103,2935.6
波密,中国,西藏自治区,林芝市,波密县,56227,56227,29.8581,95.7639,2728.5
察隅,中国,西藏自治区,林芝市,察隅县,56434,56434,28.6672,97.4719,2408.9
泽当,中国,西藏自治区,山南市,乃东区,55598,55598,29.2589,91.7689,3553.5
琼结,中国,西藏自治区,山南市,琼结县,55597,55597,29.0364,91.6889,3738.8
那曲,中国,西藏自治区,那曲地区,那曲县,55299,55299,31.4794,92.0611,4507
普兰,中国,西藏自治区,阿里地区,普兰县,55437,55437,30.3461,81.1442,4074
狮泉河,中国,西藏自治区,阿里地区,噶尔县,55228,55228,32.4942,80.1003,4278.5
改则,中国,西藏自治区,阿里地区,改则县,55248,55248,32.15,84.4167,4414.9
泾河,中国,陕西省,西安市,高陵区,57131,57131,34.4456,108.9722,407.6
铜川,中国,陕西省,铜川市,王益区,53947,53947,35.0581,109.0836,984
耀州,中国,陕西省,铜川市,耀州区,57037,57037,34.9328,108.9722,723.3
宜君,中国,陕西省,铜川市,宜君县,53945,53945,35.4039,109.1131,1395.9
宝鸡,中国,陕西省,宝鸡市,渭滨区,57016,57016,34.3511,107.1336,612.4
陈仓,中国,陕西省,宝鸡市,陈仓区,57020,57020,34.3675,107.4014,563
凤翔,中国,陕西省,宝鸡市,凤翔县,57025,57025,34.5117,107.3781,781.1
岐山,中国,陕西省,宝鸡市,岐山县,57024,57024,34.4439,107.6494,669.6
扶风,中国,陕西省,宝鸡市,扶风县,57026,57026,34.3703,107.8814,585.9
眉县,中国,陕西省,宝鸡市,眉县,57027,57027,34.3019,107.7342,490.8
陇县,中国,陕西省,宝鸡市,陇县,57003,57003,34.8944,106.8364,920.5
千阳,中国,陕西省,宝鸡市,千阳县,57021,57021,34.6442,107.1403,751.6
麟游,中国,陕西省,宝鸡市,麟游县,57022,57022,34.6783,107.7914,1026.3
凤县,中国,陕西省,宝鸡市,凤县,57113,57113,33.9261,106.5425,984
太白,中国,陕西省,宝鸡市,太白县,57028,57028,34.0606,107.3233,1576
秦都,中国,陕西省,咸阳市,秦都区,57048,57048,34.3981,108.7225,472.8
杨凌,中国,陕西省,咸阳市,杨陵区,57123,57123,34.2944,108.0681,519.7
三原,中国,陕西省,咸阳市,三原县,57041,57041,34.7483,108.9756,559.3
泾阳,中国,陕西省,咸阳市,泾阳县,57033,57033,34.5561,108.8275,392.2
乾县,中国,陕西省,咸阳市,乾县,57035,57035,34.5353,108.2525,637.4
礼泉,中国,陕西省,咸阳市,礼泉县,57029,57029,34.4875,108.4517,542.6
永寿,中国,陕西省,咸阳市,永寿县,57030,57030,34.6856,108.1372,995.1
彬县,中国,陕西省,咸阳市,彬县,57023,57023,35.0156,108.1114,919.9
长武,中国,陕西省,咸阳市,长武县,53929,53929,35.2117,107.7706,1203.8
旬邑,中国,陕西省,咸阳市,旬邑县,53938,53938,35.1669,108.285,1269
淳化,中国,陕西省,咸阳市,淳化县,57031,57031,34.8275,108.5533,1011.8
武功,中国,陕西省,咸阳市,武功县,57034,57034,34.3097,108.2375,471
兴平,中国,陕西省,咸阳市,兴平市,57038,57038,34.2775,108.4825,408.2
渭南,中国,陕西省,渭南市,临渭区,57045,57045,34.4014,109.4933,640.8
潼关,中国,陕西省,渭南市,潼关县,57054,57054,34.5656,110.2503,542.2
大荔,中国,陕西省,渭南市,大荔县,57043,57043,34.7975,109.9689,351.4
合阳,中国,陕西省,渭南市,合阳县,53950,53950,35.2539,110.1853,752.7
澄城,中国,陕西省,渭南市,澄城县,53949,53949,35.185,109.9203,679.3
蒲城,中国,陕西省,渭南市,蒲城县,53948,53948,34.8911,109.6258,387.2
白水,中国,陕西省,渭南市,白水县,53941,53941,35.1867,109.5817,804.4
富平,中国,陕西省,渭南市,富平县,57042,57042,34.7833,109.1881,474.9
华山,中国,陕西省,渭南市,华阴市,57046,57046,34.4811,110.0767,2064.9
华阴,中国,陕西省,渭南市,华阴市,57055,57055,34.5936,110.1267,342.1
安塞,中国,陕西省,延安市,安塞区,53841,53841,36.8781,109.3114,1068.3
延长,中国,陕西省,延安市,延长县,53854,53854,36.5783,109.9667,805.2
延川,中国,陕西省,延安市,延川县,53850,53850,36.8803,110.1833,804.9
子长,中国,陕西省,延安市,子长县,53748,53748,37.1456,109.6883,1061.7
志丹,中国,陕西省,延安市,志丹县,53832,53832,36.8114,108.7731,1297.1
吴起,中国,陕西省,延安市,吴起县,53738,53738,36.915,108.1836,1327.5
甘泉,中国,陕西省,延安市,甘泉县,53848,53848,36.2728,109.3458,1005.8
富县,中国,陕西省,延安市,富县,53931,53931,36.0022,109.3756,983.9
洛川,中国,陕西省,延安市,洛川县,53942,53942,35.7872,109.3608,1087.7
宜川,中国,陕西省,延安市,宜川县,53857,53857,36.0569,110.0092,811
黄龙,中国,陕西省,延安市,黄龙县,53946,53946,35.5833,109.8261,1066.8
黄陵,中国,陕西省,延安市,黄陵县,53944,53944,35.5739,109.2372,940.5
汉中,中国,陕西省,汉中市,汉台区,57127,57127,33.0678,107.0403,507.8
南郑,中国,陕西省,汉中市,南郑区,57213,57213,32.9986,106.9331,536.3
城固,中国,陕西省,汉中市,城固县,57128,57128,33.1669,107.3247,485.9
勉县,中国,陕西省,汉中市,勉县,57119,57119,33.1539,106.6892,547.7
宁强,中国,陕西省,汉中市,宁强县,57211,57211,32.8267,106.2461,836.5
略阳,中国,陕西省,汉中市,略阳县,57106,57106,33.3358,106.1467,791.5
镇巴,中国,陕西省,汉中市,镇巴县,57238,57238,32.5228,107.8922,892.2
留坝,中国,陕西省,汉中市,留坝县,57124,57124,33.6217,106.9197,1039.1
佛坪,中国,陕西省,汉中市,佛坪县,57134,57134,33.5342,107.9839,952.2
榆林,中国,陕西省,榆林市,榆阳区,53646,53646,38.2686,109.7803,1161.7
横山,中国,陕西省,榆林市,横山区,53740,53740,37.9572,109.2944,1111
府谷,中国,陕西省,榆林市,府谷县,53567,53567,39.0239,110.9922,1024.5
靖边,中国,陕西省,榆林市,靖边县,53735,53735,37.5617,108.8492,1450.5
定边,中国,陕西省,榆林市,定边县,53725,53725,37.6042,107.6031,1368.5
绥德,中国,陕西省,榆林市,绥德县,53754,53754,37.493,110.2575,929.5
米脂,中国,陕西省,榆林市,米脂县,53750,53750,37.7642,110.1775,920.2
佳县,中国,陕西省,榆林市,佳县,53658,53658,38.0342,110.4861,897
吴堡,中国,陕西省,榆林市,吴堡县,53756,53756,37.4614,110.7436,744.3
清涧,中国,陕西省,榆林市,清涧县,53757,53757,37.0908,110.1164,937.6
子洲,中国,陕西省,榆林市,子洲县,53751,53751,37.6022,110.0325,996.5
神木,中国,陕西省,榆林市,神木市,53651,53651,38.8233,110.4669,1098
安康,中国,陕西省,安康市,汉滨区,57245,57245,32.6931,109.0417,290.8
汉阴,中国,陕西省,安康市,汉阴县,57233,57233,32.9189,108.5133,552.6
石泉,中国,陕西省,安康市,石泉县,57232,57232,33.0389,108.2589,482.9
宁陕,中国,陕西省,安康市,宁陕县,57137,57137,33.3222,108.3117,807.8
紫阳,中国,陕西省,安康市,紫阳县,57231,57231,32.5269,108.5322,504.3
岚皋,中国,陕西省,安康市,岚皋县,57247,57247,32.313,108.9003,436.5
平利,中国,陕西省,安康市,平利县,57248,57248,32.4006,109.3411,570.3
镇坪,中国,陕西省,安康市,镇坪县,57343,57343,31.8981,109.5278,995.2
旬阳,中国,陕西省,安康市,旬阳县,57242,57242,32.8325,109.3756,285.7
白河,中国,陕西省,安康市,白河县,57254,57254,32.8133,110.11,321
商州,中国,陕西省,商洛市,商州区,57143,57143,33.8511,109.9656,747.2
洛南,中国,陕西省,商洛市,洛南县,57057,57057,34.0881,110.1322,963.4
丹凤,中国,陕西省,商洛市,丹凤县,57153,57153,33.6964,110.3386,639.2
商南,中国,陕西省,商洛市,商南县,57154,57154,33.5261,110.8914,524.1
山阳,中国,陕西省,商洛市,山阳县,57155,57155,33.5322,109.9156,813.2
镇安,中国,陕西省,商洛市,镇安县,57144,57144,33.4258,109.1525,693.7
柞水,中国,陕西省,商洛市,柞水县,57140,57140,33.6603,109.1181,818.2
永登,中国,甘肃省,兰州市,永登县,52885,52885,36.7467,103.2556,2118.8
皋兰,中国,甘肃省,兰州市,皋兰县,52884,52884,36.3483,103.9436,1668.5
榆中,中国,甘肃省,兰州市,榆中县,52983,52983,35.8664,104.1431,1874.4
永昌,中国,甘肃省,金昌市,永昌县,52674,52674,38.2178,101.9319,2093.9
白银,中国,甘肃省,白银市,白银区,52896,52896,36.5481,104.1442,1736.7
靖远,中国,甘肃省,白银市,靖远县,52895,52895,36.5694,104.6867,1398.2
会宁,中国,甘肃省,白银市,会宁县,52993,52993,35.6778,105.0628,1739.4
景泰,中国,甘肃省,白银市,景泰县,52797,52797,37.1872,104.0575,1630.9
天水,中国,甘肃省,天水市,秦州区,57006,57006,34.5725,105.7433,1149.8
麦积,中国,甘肃省,天水市,麦积区,57014,57014,34.5614,105.8739,1085.2
清水,中国,甘肃省,天水市,清水县,57011,57011,34.7439,106.1483,1416.1
秦安,中国,甘肃省,天水市,秦安县,57002,57002,34.8581,105.65,1216.1
甘谷,中国,甘肃省,天水市,甘谷县,57001,57001,34.7503,105.3256,1271.9
武山,中国,甘肃省,天水市,武山县,57004,57004,34.7278,104.8822,1495.4
张家川,中国,甘肃省,天水市,张家川回族自治县,57012,57012,34.9906,106.2006,1664.5
武威,中国,甘肃省,武威市,凉州区,52679,52679,37.8858,102.8739,1540.2
民勤,中国,甘肃省,武威市,民勤县,52681,52681,38.6319,103.0886,1367.5
古浪,中国,甘肃省,武威市,古浪县,52784,52784,37.4736,102.8958,2072.4
乌鞘岭,中国,甘肃省,武威市,天祝藏族自治县,52787,52787,37.1986,102.8681,3045
天祝,中国,甘肃省,武威市,天祝藏族自治县,52881,52881,36.9889,103.1861,2484.8
张掖,中国,甘肃省,张掖市,甘州区,52652,52652,39.0792,100.275,1461.1
肃南,中国,甘肃省,张掖市,肃南裕固族自治县,52643,52643,38.8336,99.62,2311.8
民乐,中国,甘肃省,张掖市,民乐县,52656,52656,38.4631,100.8194,2232
临泽,中国,甘肃省,张掖市,临泽县,52557,52557,39.1456,100.1608,1453.7
高台,中国,甘肃省,张掖市,高台县,52546,52546,39.3739,99.8292,1332.2
崆峒,中国,甘肃省,平凉市,崆峒区,53915,53915,35.5311,106.66,1467.6
泾川,中国,甘肃省,平凉市,泾川县,53926,53926,35.3436,107.3547,1028.8
灵台,中国,甘肃省,平凉市,灵台县,53924,53924,35.0678,107.6186,966.6
崇信,中国,甘肃省,平凉市,崇信县,53928,53928,35.3031,107.0233,1149.1
华亭,中国,甘肃省,平凉市,华亭县,53927,53927,35.2047,106.6247,1477.6
庄浪,中国,甘肃省,平凉市,庄浪县,53917,53917,35.2231,106.0583,1631
静宁,中国,甘肃省,平凉市,静宁县,53906,53906,35.5239,105.7122,1656.4
酒泉,中国,甘肃省,酒泉市,肃州区,52533,52533,39.7711,98.4869,1477.2
肃北马鬃山,中国,甘肃省,酒泉市,肃北蒙古族自治县,52323,52323,41.8047,97.0319,1773.7
肃北,中国,甘肃省,酒泉市,肃北蒙古族自治县,52515,52515,39.5233,94.8747,2137.2
西峰,中国,甘肃省,庆阳市,西峰区,53923,53923,35.7267,107.6283,1421
庆城,中国,甘肃省,庆阳市,庆城县,53829,53829,35.9828,107.8931,1093.7
环县,中国,甘肃省,庆阳市,环县,53821,53821,36.5733,107.3044,1255.6
华池,中国,甘肃省,庆阳市,华池县,53930,53930,36.4536,107.9914,1420
合水,中国,甘肃省,庆阳市,合水县,53934,53934,35.7775,107.9825,1274.3
正宁,中国,甘肃省,庆阳市,正宁县,53935,53935,35.4897,108.3986,1481.9
宁县,中国,甘肃省,庆阳市,正宁县,53937,53937,35.5317,107.8911,1135.3
镇原,中国,甘肃省,庆阳市,镇原县,53925,53925,35.7206,107.2122,1428.3
安定,中国,甘肃省,定西市,安定区,52995,52995,35.5842,104.6006,2004.9
华家岭,中国,甘肃省,定西市,通渭县,52996,52996,35.3861,105.0083,2450.6
通渭,中国,甘肃省,定西市,通渭县,53908,53908,35.2086,105.2283,1769.8
陇西,中国,甘肃省,定西市,陇西县,56092,56092,34.9944,104.6467,1728.2
渭源,中国,甘肃省,定西市,渭源县,52998,52998,35.1261,104.1958,2111
临洮,中国,甘肃省,定西市,临洮县,52986,52986,35.3622,103.8608,1893.8
漳县,中国,甘肃省,定西市,漳县,56091,56091,34.8383,104.4589,1910.6
岷县,中国,甘肃省,定西市,岷县,56093,56093,34.4331,104.0175,2315
武都,中国,甘肃省,陇南市,武都区,56096,56096,33.4025,104.9175,1079.1
成县,中国,甘肃省,陇南市,成县,57102,57102,33.7539,105.7194,970
文县,中国,甘肃省,陇南市,文县,56192,56192,32.9483,104.6714,977.2
宕昌,中国,甘肃省,陇南市,宕昌县,56095,56095,34.0381,104.3833,1710.2
康县,中国,甘肃省,陇南市,康县,57105,57105,33.3303,105.5919,1184.2
西和,中国,甘肃省,陇南市,西和县,57008,57008,34.0267,105.295,1578.9
礼县,中国,甘肃省,陇南市,礼县,57007,57007,34.1717,105.155,1383.9
徽县,中国,甘肃省,陇南市,徽县,57110,57110,33.7939,106.0697,1003.3
两当,中国,甘肃省,陇南市,两当县,57111,57111,33.9136,106.3033,928.2
临夏,中国,甘肃省,临夏回族自治州,临夏市,52984,52984,35.5797,103.1764,1917.2
康乐,中国,甘肃省,临夏回族自治州,康乐县,52988,52988,35.3747,103.7206,2015.8
永靖,中国,甘肃省,临夏回族自治州,永靖县,52980,52980,35.9675,103.2953,1648
广河,中国,甘肃省,临夏回族自治州,广河县,52982,52982,35.4814,103.5581,1953.2
和政,中国,甘肃省,临夏回族自治州,和政县,52985,52985,35.4125,103.3394,2162.8
东乡,中国,甘肃省,临夏回族自治州,东乡族自治县,52981,52981,35.6756,103.3844,2421
合作,中国,甘肃省,甘南藏族自治州,合作市,56080,56080,34.9911,102.9047,2909.4
临潭,中国,甘肃省,甘南藏族自治州,临潭县,56081,56081,34.7008,103.3528,2811.3
卓尼,中国,甘肃省,甘南藏族自治州,卓尼县,56082,56082,34.5928,103.4986,2592.6
舟曲,中国,甘肃省,甘南藏族自治州,舟曲县,56094,56094,33.7792,104.3747,1329.4
迭部,中国,甘肃省,甘南藏族自治州,迭部县,56084,56084,34.0614,103.2094,2481.5
玛曲,中国,甘肃省,甘南藏族自治州,玛曲县,56074,56074,33.9978,102.0681,3470.8
碌曲,中国,甘肃省,甘南藏族自治州,碌曲县,56071,56071,34.5925,102.5022,3190.4
夏河,中国,甘肃省,甘南藏族自治州,夏河县,52978,52978,35.1875,102.4931,2947.9
西宁,中国,青海省,西宁市,城北区,52866,52866,36.6644,101.7331,2434.2
湟中,中国,青海省,西宁市,湟中县,52869,52869,36.495,101.5769,2666.9
平安,中国,青海省,海东市,乐都区,52875,52875,36.4994,102.0978,2137.3
民和,中国,青海省,海东市,民和回族土族自治县,52876,52876,36.3253,102.8394,1812
互助,中国,青海省,海东市,互助土族自治县,52863,52863,36.8217,101.9475,2484.3
化隆,中国,青海省,海东市,化隆回族自治县,52877,52877,36.1033,102.2575,2836.9
循化,中国,青海省,海东市,循化撒拉族自治县,52972,52972,35.8542,102.4575,1926.4
同仁,中国,青海省,黄南藏族自治州,同仁县,52974,52974,35.5453,102.0339,2473.7
尖扎,中国,青海省,黄南藏族自治州,尖扎县,52963,52963,35.9364,102.0075,2175.5
泽库,中国,青海省,黄南藏族自治州,泽库县,52968,52968,35.0386,101.4706,3662.3
河南,中国,青海省,黄南藏族自治州,河南蒙古族自治县,56065,56065,34.7344,101.6011,3516.9
青海湖151,中国,青海省,海南藏族自治州,共和县,52854,52854,36.5856,100.4856,3200.8
共和,中国,青海省,海南藏族自治州,共和县,52856,52856,36.2744,100.6186,2836.7
沙珠玉,中国,青海省,海南藏族自治州,共和县,52941,52941,36.2628,100.2617,2872
同德,中国,青海省,海南藏族自治州,同德县,52957,52957,35.2442,100.5975,3147.8
贵德,中国,青海省,海南藏族自治州,贵德县,52868,52868,36.0161,101.3694,2267.2
兴海,中国,青海省,海南藏族自治州,兴海县,52943,52943,35.5908,99.9797,3305.8
贵南,中国,青海省,海南藏族自治州,贵南县,52955,52955,35.5867,100.74,3107.6
玛沁,中国,青海省,果洛藏族自治州,玛沁县,56043,56043,34.475,100.2367,3720.3
班玛,中国,青海省,果洛藏族自治州,班玛县,56151,56151,32.9308,100.7419,3516.3
甘德,中国,青海省,果洛藏族自治州,甘德县,56045,56045,33.9617,99.8928,4032.2
达日,中国,青海省,果洛藏族自治州,达日县,56046,56046,33.7578,99.6475,3970.4
久治,中国,青海省,果洛藏族自治州,久治县,56067,56067,33.4294,101.4819,3629.5
玛多,中国,青海省,果洛藏族自治州,玛多县,56033,56033,34.9172,98.2158,4271.7
玉树,中国,青海省,玉树藏族自治州,玉树市,56029,56029,33.0014,96.9642,3717.1
杂多,中国,青海省,玉树藏族自治州,杂多县,56018,56018,32.8931,95.2953,4067.4
清水河,中国,青海省,玉树藏族自治州,称多县,56034,56034,33.8053,97.1378,4415.6
治多,中国,青海省,玉树藏族自治州,治多县,56016,56016,33.8544,95.6175,4180.3
囊谦,中国,青海省,玉树藏族自治州,囊谦县,56125,56125,32.2036,96.48,3644.7
曲麻莱,中国,青海省,玉树藏族自治州,曲麻莱县,56021,56021,34.1286,95.8061,4199.1
小灶火,中国,青海省,海西蒙古族藏族自治州,格尔木市,52707,52707,36.7983,93.6783,2770.9
格尔木,中国,青海省,海西蒙古族藏族自治州,格尔木市,52818,52818,36.4206,94.9083,2804.8
诺木洪,中国,青海省,海西蒙古族藏族自治州,格尔木市,52825,52825,36.4406,96.4292,2788.6
都兰,中国,青海省,海西蒙古族藏族自治州,格尔木市,52836,52836,36.2958,98.0964,3192
五道梁,中国,青海省,海西蒙古族藏族自治州,格尔木市,52908,52908,35.2158,93.0808,4612
托托河,中国,青海省,海西蒙古族藏族自治州,格尔木市,56004,56004,34.2167,92.4375,4532.9
冷湖,中国,青海省,海西蒙古族藏族自治州,德令哈市,52602,52602,38.7439,93.3322,2771.4
银川,中国,宁夏回族自治区,银川市,金凤区,53614,53614,38.4714,106.2078,1111.6
永宁,中国,宁夏回族自治区,银川市,永宁县,53618,53618,38.2156,106.2019,1118.4
贺兰,中国,宁夏回族自治区,银川市,贺兰县,53610,53610,38.5594,106.3422,1106
灵武,中国,宁夏回族自治区,银川市,灵武市,53619,53619,38.1164,106.2989,1115.7
石炭井,中国,宁夏回族自治区,石嘴山市,大武口区,53517,53517,39.2589,106.3314,1464.7
石嘴山,中国,宁夏回族自治区,石嘴山市,大武口区,53518,53518,39.035,106.3533,1126.9
惠农,中国,宁夏回族自治区,石嘴山市,惠农区,53519,53519,39.2069,106.7644,1092.2
沙湖,中国,宁夏回族自治区,石嘴山市,平罗县,53603,53603,38.8269,106.3664,1099.9
平罗,中国,宁夏回族自治区,石嘴山市,平罗县,53611,53611,38.8819,106.5467,1098.7
陶乐,中国,宁夏回族自治区,石嘴山市,平罗县,53615,53615,38.8081,106.6958,1101
吴忠,中国,宁夏回族自治区,吴忠市,利通区,53612,53612,37.9858,106.1775,1127.2
盐池,中国,宁夏回族自治区,吴忠市,盐池县,53723,53723,37.7925,107.2439,1350.9
麻黄山,中国,宁夏回族自治区,吴忠市,盐池县,53727,53727,37.1728,107.1103,1691.1
同心,中国,宁夏回族自治区,吴忠市,同心县,53810,53810,36.9725,105.8928,1336.4
韦州,中国,宁夏回族自治区,吴忠市,同心县,53881,53881,37.2903,106.4783,1382.2
青铜峡,中国,宁夏回族自治区,吴忠市,青铜峡市,53617,53617,38.0281,106.0806,1125.7
固原,中国,宁夏回族自治区,固原市,原州区,53817,53817,36.0342,106.2353,1835.5
西吉,中国,宁夏回族自治区,固原市,西吉县,53903,53903,35.9658,105.7139,1916.5
六盘山,中国,宁夏回族自治区,固原市,隆德县,53910,53910,35.6633,106.2,2845.2
隆德,中国,宁夏回族自治区,固原市,隆德县,53914,53914,35.5997,106.1442,2153.1
泾源,中国,宁夏回族自治区,固原市,泾源县,53916,53916,35.4944,106.3086,1984.7
中卫,中国,宁夏回族自治区,中卫市,沙坡头区,53704,53704,37.5253,105.1775,1226.7
兴仁,中国,宁夏回族自治区,中卫市,沙坡头区,53707,53707,36.9383,105.2472,1697.9
中宁,中国,宁夏回族自治区,中卫市,中宁县,53705,53705,37.4842,105.6825,1181.3
海原,中国,宁夏回族自治区,中卫市,海原县,53806,53806,36.5733,105.6417,1855.6
红柳河,中国,新疆维吾尔自治区, , ,52313,52313,41.5306,94.7244,1573.7
达坂城,中国,新疆维吾尔自治区,乌鲁木齐市,达坂城区,51477,51477,43.3533,88.3181,1102.5
米泉,中国,新疆维吾尔自治区,乌鲁木齐市,米东区,51369,51369,43.9658,87.6564,601.2
天山大西沟,中国,新疆维吾尔自治区,乌鲁木齐市,乌鲁木齐县,51468,51468,43.1131,86.8431,3540.5
乌鲁木齐牧试站,中国,新疆维吾尔自治区,乌鲁木齐市,乌鲁木齐县,51469,51469,43.4464,87.1883,1932.5
克拉玛依,中国,新疆维吾尔自治区,克拉玛依市,克拉玛依区,51243,51243,45.6103,84.8456,450.4
吐鲁番东坎,中国,新疆维吾尔自治区,吐鲁番市,高昌区,51572,51572,42.8908,89.3056,-48.8
库米什,中国,新疆维吾尔自治区,吐鲁番市,托克逊县,51526,51526,42.2369,88.1906,922.7
托克逊,中国,新疆维吾尔自治区,吐鲁番市,托克逊县,51571,51571,42.7669,88.6008,43.9
哈密,中国,新疆维吾尔自治区,哈密市,伊州区,52203,52203,42.805,93.5167,744.6
巴里坤,中国,新疆维吾尔自治区,哈密市,巴里坤哈萨克自治县,52101,52101,43.595,93.045,1679.2
淖毛湖,中国,新疆维吾尔自治区,哈密市,伊吾县,52112,52112,43.7536,94.9758,478.7
伊吾,中国,新疆维吾尔自治区,哈密市,伊吾县,52118,52118,43.2422,94.6725,1730
昌吉,中国,新疆维吾尔自治区,昌吉回族自治州,昌吉市,51368,51368,44.1167,87.3175,515.2
阜康,中国,新疆维吾尔自治区,昌吉回族自治州,阜康市,51377,51377,44.1667,87.9681,541.7
天池,中国,新疆维吾尔自治区,昌吉回族自治州,阜康市,51470,51470,43.885,88.1172,1941.8
呼图壁,中国,新疆维吾尔自治区,昌吉回族自治州,呼图壁县,51367,51367,44.1667,86.85,574.7
玛纳斯,中国,新疆维吾尔自治区,昌吉回族自治州,玛纳斯县,51359,51359,44.2844,86.2175,471.8
吉木萨尔,中国,新疆维吾尔自治区,昌吉回族自治州,吉木萨尔县,51378,51378,43.9847,89.1511,742.9
木垒,中国,新疆维吾尔自治区,昌吉回族自治州,木垒哈萨克自治县,51482,51482,43.8183,90.2675,1271.7
博乐,中国,新疆维吾尔自治区,博尔塔拉蒙古自治州,博乐市,51238,51238,44.9089,82.0417,532.6
阿拉山口,中国,新疆维吾尔自治区,博尔塔拉蒙古自治州,阿拉山口市,51232,51232,45.1783,82.5481,366.3
精河,中国,新疆维吾尔自治区,博尔塔拉蒙古自治州,精河县,51334,51334,44.5733,82.8194,329.4
库尔勒,中国,新疆维吾尔自治区,巴音郭楞蒙古自治州,库尔勒市,51656,51656,41.7303,85.8181,899.9
铁干里克,中国,新疆维吾尔自治区,巴音郭楞蒙古自治州,尉犁县,51765,51765,40.6475,87.6942,845.3
吐鲁番,中国,新疆维吾尔自治区,巴音郭楞蒙古自治州,若羌县,51573,51573,42.9503,89.2308,39
塔中,中国,新疆维吾尔自治区,巴音郭楞蒙古自治州,且末县,51747,51747,38.9675,83.6597,1100.6
且末,中国,新疆维吾尔自治区,巴音郭楞蒙古自治州,且末县,51855,51855,38.1331,85.5372,1247.7
焉耆,中国,新疆维吾尔自治区,巴音郭楞蒙古自治州,焉耆回族自治县,51567,51567,42.0492,86.6055,1055.4
巴音布鲁克,中国,新疆维吾尔自治区,巴音郭楞蒙古自治州,和静县,51542,51542,43.0336,84.1492,2459.1
阿克苏,中国,新疆维吾尔自治区,阿克苏地区,阿克苏市,51628,51628,41.1186,80.3819,1107.1
沙雅,中国,新疆维吾尔自治区,阿克苏地区,沙雅县,51639,51639,41.2503,82.7692,982.5
新和,中国,新疆维吾尔自治区,阿克苏地区,新和县,51636,51636,41.5436,82.6494,949.4
乌什,中国,新疆维吾尔自治区,阿克苏地区,乌什县,51627,51627,41.2203,79.2611,1350.1
阿瓦提,中国,新疆维吾尔自治区,阿克苏地区,阿瓦提县,51722,51722,40.6425,80.3922,1044.4
柯坪,中国,新疆维吾尔自治区,阿克苏地区,柯坪县,51720,51720,40.5036,79.0353,1161.2
阿图什,中国,新疆维吾尔自治区,克孜勒苏柯尔克孜自治州,阿图什市,51704,51704,39.7306,76.2219,1267.6
乌恰,中国,新疆维吾尔自治区,克孜勒苏柯尔克孜自治州,乌恰县,51705,51705,39.7183,75.25,2135.4
喀什,中国,新疆维吾尔自治区,喀什地区,喀什市,51709,51709,39.4861,75.7547,1384.4
英吉沙,中国,新疆维吾尔自治区,喀什地区,英吉沙县,51802,51802,38.9353,76.1739,1294.3
泽普,中国,新疆维吾尔自治区,喀什地区,泽普县,51815,51815,38.2,77.2611,1273.7
莎车,中国,新疆维吾尔自治区,喀什地区,莎车县,51811,51811,38.4278,77.2417,1231.6
叶城,中国,新疆维吾尔自治区,喀什地区,叶城县,51814,51814,37.8789,77.4206,1360.3
麦盖提,中国,新疆维吾尔自治区,喀什地区,麦盖提县,51810,51810,38.9111,77.6408,1177.8
岳普湖,中国,新疆维吾尔自治区,喀什地区,岳普湖县,51717,51717,39.2392,76.7678,1206.1
伽师,中国,新疆维吾尔自治区,喀什地区,伽师县,51707,51707,39.5033,76.778,1204
和田,中国,新疆维吾尔自治区,和田地区,和田市,51828,51828,37.1206,79.925,1374.5
墨玉,中国,新疆维吾尔自治区,和田地区,墨玉县,51827,51827,37.1678,79.6292,1347.8
皮山,中国,新疆维吾尔自治区,和田地区,皮山县,51818,51818,37.6147,78.2761,1372.5
洛浦,中国,新疆维吾尔自治区,和田地区,洛浦县,51829,51829,37.0525,80.2305,1304.2
策勒,中国,新疆维吾尔自治区,和田地区,策勒县,51826,51826,37.0047,80.8081,1331.5
于田,中国,新疆维吾尔自治区,和田地区,于田县,51931,51931,36.8572,81.65,1421.4
民丰,中国,新疆维吾尔自治区,和田地区,民丰县,51839,51839,37.0678,82.6908,1408.9
塔城,中国,新疆维吾尔自治区,塔城地区,塔城市,51133,51133,46.7319,82.98,535.1
额敏,中国,新疆维吾尔自治区,塔城地区,额敏县,51145,51145,46.5325,83.6225,519.3
沙湾,中国,新疆维吾尔自治区,塔城地区,沙湾县,51357,51357,44.3278,85.6281,521.6
托里,中国,新疆维吾尔自治区,塔城地区,托里县,51241,51241,45.9367,83.5947,1078.4
裕民,中国,新疆维吾尔自治区,塔城地区,裕民县,51137,51137,46.1964,83.0658,721.6
和布克赛尔,中国,新疆维吾尔自治区,塔城地区,和布克赛尔蒙古自治县,51156,51156,46.8119,85.7497,1321.6
阿拉尔,中国,新疆维吾尔自治区,博尔塔拉蒙古自治州,阿拉山口市,51730,51730,40.6064,81.2564,1010.8
阿勒泰,中国,新疆维吾尔自治区,阿勒泰地区,阿勒泰市,51076,51076,47.7411,88.0711,734.8
布尔津,中国,新疆维吾尔自治区,阿勒泰地区,布尔津县,51060,51060,47.7094,86.8683,473.7
富蕴,中国,新疆维吾尔自治区,阿勒泰地区,富蕴县,51087,51087,47.0097,89.4931,860.4
阿克达拉,中国,新疆维吾尔自治区,阿勒泰地区,福海县,51058,51058,47.1025,87.9722,561.4
福海,中国,新疆维吾尔自治区,阿勒泰地区,福海县,51068,51068,47.125,87.4814,497.1
哈巴河,中国,新疆维吾尔自治区,阿勒泰地区,哈巴河县,51053,51053,48.0517,86.4058,532.9
